District,Building name,Last date of residence of the case(s),Related probable/confirmed cases,long_address,LatLong
Kwai Tsing,Yan Chai Hospital Mrs. Kwok Yuk Cheung Care & Attention Home,,8427,"Yan Chai Hospital Mrs. Kwok Yuk Cheung Care & Attention Home, Kwai Tsing","22.34532,114.1319"
Central & Western,Markfield Building,,8428,"Markfield Building, Central & Western","22.28299,114.12836"
Tuen Mun,"Yuet Tin House, Yan Tin Estate",,8429,"Yuet Tin House, Yan Tin Estate, Tuen Mun","22.4143,113.97642"
Kowloon City,"Tower 5, Ultima",,8430,"Tower 5, Ultima, Kowloon City","22.31177,114.18173"
Wong Tai Sin,Pang Ching Court,,8432,"Pang Ching Court, Wong Tai Sin","22.34583,114.19054"
Sai Kung,"Kwong Cheong House, Kwong Ming Court",,8433,"Kwong Cheong House, Kwong Ming Court, Sai Kung","22.31197,114.25976"
Kowloon City,"Tower 5, Ultima",,8434,"Tower 5, Ultima, Kowloon City","22.31177,114.18173"
Sai Kung,"Block 5, On Ning Garden",,8435,"Block 5, On Ning Garden, Sai Kung","22.31607,114.26237"
Sham Shui Po,"76-84 Tai Po Road, Wah Kiu Mansion",,8436,"76-84 Tai Po Road, Wah Kiu Mansion, Sham Shui Po","22.32917,114.16683"
Sai Kung,"Water Lilies, Tower 5 - R Wing, Phase 2A - Le Prestige, Lohas Park",,8437,"Water Lilies, Tower 5 - R Wing, Phase 2A - Le Prestige, Lohas Park, Sai Kung","22.29354,114.27229"
Sham Shui Po,"Un Shing House, Un Chau Estate",,8438,"Un Shing House, Un Chau Estate, Sham Shui Po","22.33723,114.15491"
Tai Po,"Hing Wo House, Po Nga Court",,8439,"Hing Wo House, Po Nga Court, Tai Po","22.45061,114.15873"
Tuen Mun,"Block 2, Phase 1, Tai Hing Gardens",,8440,"Block 2, Phase 1, Tai Hing Gardens, Tuen Mun","22.40015,113.97277"
Kwai Tsing,"Chi Shek House, Shek Yam Estate",,8441,"Chi Shek House, Shek Yam Estate, Kwai Tsing","22.37131,114.13881"
Yau Tsim Mong,Cosmopolitan Centre,,8442,"Cosmopolitan Centre, Yau Tsim Mong","22.3233,114.16882"
Tuen Mun,"King On House, Shan King Estate",,8443,"King On House, Shan King Estate, Tuen Mun","22.39754,113.96583"
Sai Kung,"Ming Yuen House, Ying Ming Court",,8445,"Ming Yuen House, Ying Ming Court, Sai Kung","22.32527,114.25717"
Kwun Tong,"Yan Tin House, Hing Tin Estate",,8446,"Yan Tin House, Hing Tin Estate, Kwun Tong","22.31244,114.23801"
Kwun Tong,"Tao Nga House, Hong Nga Court",,8447,"Tao Nga House, Hong Nga Court, Kwun Tong","22.30605,114.23823"
Kwun Tong,"Lam Shek House, Ping Shek Estate",,8448,"Lam Shek House, Ping Shek Estate, Kwun Tong","22.33299,114.20983"
Wong Tai Sin,"Cheung Tung House, Tung Tau (II) Estate",,8449,"Cheung Tung House, Tung Tau (II) Estate, Wong Tai Sin","22.3331,114.19343"
Sham Shui Po,87 Fuk Wing Street,,8450,"87 Fuk Wing Street, Sham Shui Po","22.33086,114.16388"
Sham Shui Po,"12 Broadway, Mei Foo Sun Chuen",,8451,"12 Broadway, Mei Foo Sun Chuen, Sham Shui Po","22.33628,114.13785"
Yau Tsim Mong,Lee Man Building,,8452,"Lee Man Building, Yau Tsim Mong","22.32008,114.17059"
Wong Tai Sin,"Hong Tim House, Tsz Hong Estate",,8453,"Hong Tim House, Tsz Hong Estate, Wong Tai Sin","22.34752,114.20374"
Eastern,"Block A, Ming Wah Dai Ha",,8454,"Block A, Ming Wah Dai Ha, Eastern","22.27953,114.23097"
Wong Tai Sin,"Hong Tim House, Tsz Hong Estate",,8455,"Hong Tim House, Tsz Hong Estate, Wong Tai Sin","22.34752,114.20374"
Sham Shui Po,Man On Building,,8457,"Man On Building, Sham Shui Po","22.3323,114.16394"
Sham Shui Po,Tak Po Building,,8458,"Tak Po Building, Sham Shui Po","22.33248,114.16133"
Sham Shui Po,172 Nam Cheong Street,,8459,"172 Nam Cheong Street, Sham Shui Po","22.33021,114.1645"
Sham Shui Po,"Un Shing House, Un Chau Estate",,8461,"Un Shing House, Un Chau Estate, Sham Shui Po","22.33723,114.15491"
Sham Shui Po,4 Kim Shin Lane,,8462,"4 Kim Shin Lane, Sham Shui Po","22.33954,114.15235"
Tai Po,"Yat Wo House, Po Nga Court",,8463,"Yat Wo House, Po Nga Court, Tai Po","22.45106,114.15985"
Sham Shui Po,"Scenic Court, Shun Ning Road",,8464,"Scenic Court, Shun Ning Road, Sham Shui Po","22.33929,114.1559"
Sham Shui Po,27-29 Shek Kip Mei Street,,8465,"27-29 Shek Kip Mei Street, Sham Shui Po","22.32971,114.1649"
Sham Shui Po,"Un Shing House, Un Chau Estate",,8466,"Un Shing House, Un Chau Estate, Sham Shui Po","22.33723,114.15491"
Tuen Mun,"Leung Chun House, Leung King Estate",,8467,"Leung Chun House, Leung King Estate, Tuen Mun","22.40534,113.96077"
Kwun Tong,"Block 2, Lotus Tower, Kwun Tong Garden Estate",,8468,"Block 2, Lotus Tower, Kwun Tong Garden Estate, Kwun Tong","22.31569,114.21995"
Yau Tsim Mong,Sun Kong House,,8469,"Sun Kong House, Yau Tsim Mong","22.31596,114.17085"
Kowloon City,"Phase 1, Mei King Mansion",,8470,"Phase 1, Mei King Mansion, Kowloon City","22.31607,114.19031"
Wong Tai Sin,"Choi Yip House, Choi Fai Estate",,8471,"Choi Yip House, Choi Fai Estate, Wong Tai Sin","22.33521,114.21831"
Wong Tai Sin,"Hong Tim House, Tsz Hong Estate",,8472,"Hong Tim House, Tsz Hong Estate, Wong Tai Sin","22.34752,114.20374"
Kwun Tong,"Kai Yin House, Kai Yip Estate",,8473,"Kai Yin House, Kai Yip Estate, Kwun Tong","22.32932,114.20914"
Sham Shui Po,Tak Po Building,,8474,"Tak Po Building, Sham Shui Po","22.33248,114.16133"
Sham Shui Po,Tak Po Building,,8475,"Tak Po Building, Sham Shui Po","22.33248,114.16133"
Wan Chai,Mini Hotel Causeway Bay,,8476,"Mini Hotel Causeway Bay, Wan Chai","22.28514,114.19208"
Yuen Long,"Chung Ki House, Tin Chung Court",,8477,"Chung Ki House, Tin Chung Court, Yuen Long","22.46136,113.99985"
Wong Tai Sin,"Chi Siu House, Choi Wan Estate",,8478,"Chi Siu House, Choi Wan Estate, Wong Tai Sin","22.33314,114.21338"
Wong Tai Sin,"Chi Siu House, Choi Wan Estate",,8479,"Chi Siu House, Choi Wan Estate, Wong Tai Sin","22.33314,114.21338"
Tuen Mun,"Yuet Tin House, Yan Tin Estate",,8480,"Yuet Tin House, Yan Tin Estate, Tuen Mun","22.4143,113.97642"
Sham Shui Po,329-331 Castle Peak Road,,8481,"329-331 Castle Peak Road, Sham Shui Po","22.33813,114.15644"
Yuen Long,"Yuet Kwai House, Tin Yuet Estate",,8482,"Yuet Kwai House, Tin Yuet Estate, Yuen Long","22.46283,114.00094"
Kwun Tong,"Lei Lung House, Lei Yue Mun Estate",,8483,"Lei Lung House, Lei Yue Mun Estate, Kwun Tong","22.29342,114.23941"
Tuen Mun,"King On House, Shan King Estate",,8484,"King On House, Shan King Estate, Tuen Mun","22.39754,113.96583"
Sham Shui Po,"Wo Ping House, Lei Cheng Uk Estate",,8485,"Wo Ping House, Lei Cheng Uk Estate, Sham Shui Po","22.33885,114.15868"
Tai Po,"Hing Wo House, Po Nga Court",,8488,"Hing Wo House, Po Nga Court, Tai Po","22.45061,114.15873"
Sai Kung,"Block 2, Beverly Garden",,8489,"Block 2, Beverly Garden, Sai Kung","22.31061,114.26129"
Kwun Tong,"Block H1, Telford Gardens",,8490,"Block H1, Telford Gardens, Kwun Tong","22.3238,114.21297"
Tsuen Wan,"Sau Shan House, Cheung Shan Estate",,8491,"Sau Shan House, Cheung Shan Estate, Tsuen Wan","22.37897,114.13116"
Southern,L'hotel Island South,,8492,"L'hotel Island South, Southern","22.24975,114.16817"
Sai Kung,"Block 5, On Ning Garden",,8493,"Block 5, On Ning Garden, Sai Kung","22.31607,114.26237"
Wong Tai Sin,"Lung Shing House, Lower Wong Tai Sin Estate",,8494,"Lung Shing House, Lower Wong Tai Sin Estate, Wong Tai Sin","22.34033,114.1925"
Kowloon City,"Tower 5, Ultima",,8495,"Tower 5, Ultima, Kowloon City","22.31177,114.18173"
Kowloon City,"Tower 5, Ultima",,8496,"Tower 5, Ultima, Kowloon City","22.31177,114.18173"
Tuen Mun,"Hei Tin House, Yan Tin Estate",,8497,"Hei Tin House, Yan Tin Estate, Tuen Mun","22.4153,113.97586"
Tuen Mun,"Hei Tin House, Yan Tin Estate",,8498,"Hei Tin House, Yan Tin Estate, Tuen Mun","22.4153,113.97586"
Kowloon City,Pau Chung Building,,8499,"Pau Chung Building, Kowloon City","22.32144,114.19004"
Kwai Tsing,"Block 7, Mayfair Gardens",,8500,"Block 7, Mayfair Gardens, Kwai Tsing","22.34449,114.10752"
Sai Kung,"Water Lilies, Tower 5, Phase 2A - Le Prestige, Lohas Park",,8501,"Water Lilies, Tower 5, Phase 2A - Le Prestige, Lohas Park, Sai Kung","22.29354,114.27229"
Kwun Tong,"Ping Sin House, Ping Tin Estate",,8502,"Ping Sin House, Ping Tin Estate, Kwun Tong","22.30729,114.23622"
Wong Tai Sin,On Keung Building,,8503,"On Keung Building, Wong Tai Sin","22.33422,114.19652"
Wong Tai Sin,"Chi Siu House, Choi Wan Estate",,8504,"Chi Siu House, Choi Wan Estate, Wong Tai Sin","22.33314,114.21338"
Wong Tai Sin,"Chi Siu House, Choi Wan Estate",,8505,"Chi Siu House, Choi Wan Estate, Wong Tai Sin","22.33314,114.21338"
Wong Tai Sin,"Block 11, Rhythm Garden",,8506,"Block 11, Rhythm Garden, Wong Tai Sin","22.33644,114.20212"
Tsuen Wan,"Sau Shan House, Cheung Shan Estate",,8507,"Sau Shan House, Cheung Shan Estate, Tsuen Wan","22.37897,114.13116"
Eastern,"Block A, Ming Wah Dai Ha",,8508,"Block A, Ming Wah Dai Ha, Eastern","22.27953,114.23097"
Kowloon City,"Phase 1, Mei King Mansion",,8509,"Phase 1, Mei King Mansion, Kowloon City","22.31607,114.19031"
Central & Western,Ramada Hong Kong Harbour View,,8510,"Ramada Hong Kong Harbour View, Central & Western","22.28701,114.14352"
North,On Po Tsuen,,8511,"On Po Tsuen, North","22.45275,114.17663"
Kwun Tong,Yee On Centre,,8512,"Yee On Centre, Kwun Tong","22.31523,114.22336"
Wong Tai Sin,"Ching Hong House, Tsz Ching Estate",,8513,"Ching Hong House, Tsz Ching Estate, Wong Tai Sin","22.34917,114.20353"
Kwun Tong,"Block 4, Richland Gardens",,8514,"Block 4, Richland Gardens, Kwun Tong","22.32998,114.20629"
Kwun Tong,"Lei Sang House, Lei Yue Mun Estate",,8515,"Lei Sang House, Lei Yue Mun Estate, Kwun Tong","22.29458,114.24054"
Kwun Tong,"Hong Yu House, Hong Yat Court",,8516,"Hong Yu House, Hong Yat Court, Kwun Tong","22.3108,114.23453"
Yuen Long,"Tower 6, Park Signature",,8517,"Tower 6, Park Signature, Yuen Long","22.43661,114.0228"
Yau Tsim Mong,Winner Building,,8518,"Winner Building, Yau Tsim Mong","22.31453,114.16796"
Sai Kung,"Block 1, Bauhinia Garden",,8519,"Block 1, Bauhinia Garden, Sai Kung","22.30709,114.26212"
Eastern,Yee Bo Mansion,,8520,"Yee Bo Mansion, Eastern","22.29024,114.1984"
Tuen Mun,"Leung Chi House, Leung King Estate",,8521,"Leung Chi House, Leung King Estate, Tuen Mun","22.40551,113.96248"
Sai Kung,"Yan Lan House, Yan Ming Court",,8522,"Yan Lan House, Yan Ming Court, Sai Kung","22.32399,114.25894"
Wong Tai Sin,"Lung Hong House, Lower Wong Tai Sin Estate",,8523,"Lung Hong House, Lower Wong Tai Sin Estate, Wong Tai Sin","22.3383,114.19396"
Kowloon City,"Block B, Sheffield Garden",,8524,"Block B, Sheffield Garden, Kowloon City","22.32742,114.18378"
Yau Tsim Mong,Winner Building,,8525,"Winner Building, Yau Tsim Mong","22.31453,114.16796"
Wong Tai Sin,"Ching Ming House, Tsz Ching Estate",,8526,"Ching Ming House, Tsz Ching Estate, Wong Tai Sin","22.3492,114.20284"
Tuen Mun,"Civic House, Affluence Garden",,8527,"Civic House, Affluence Garden, Tuen Mun","22.4035,113.97545"
Wong Tai Sin,"Choi Tung House, Tung Tau (II) Estate",,8528,"Choi Tung House, Tung Tau (II) Estate, Wong Tai Sin","22.33417,114.19339"
Tuen Mun,"Block 7, Sun Tuen Mun Centre",,8530,"Block 7, Sun Tuen Mun Centre, Tuen Mun","22.38139,113.96529"
Sha Tin,"Kam Lei House, Kam Fung Court",,8531,"Kam Lei House, Kam Fung Court, Sha Tin","22.42306,114.22535"
Kwun Tong,"Kai Yin House , Kai Yip Estate",,8532,"Kai Yin House , Kai Yip Estate, Kwun Tong","22.32932,114.20914"
Kwun Tong,"Kwai Sun House, Lower Ngau Tau Kok Estate",,8533,"Kwai Sun House, Lower Ngau Tau Kok Estate, Kwun Tong","22.32121,114.21543"
Yau Tsim Mong,Metropark Hotel Mongkok,,8534,"Metropark Hotel Mongkok, Yau Tsim Mong","22.32337,114.16754"
Wan Chai,Dorsett Wanchai Hotel Hong Kong,,8535,"Dorsett Wanchai Hotel Hong Kong, Wan Chai","22.27454,114.17894"
Tai Po,"Fook Wo House, Tai Wo Estate",,8536,"Fook Wo House, Tai Wo Estate, Tai Po","22.45243,114.16088"
Sha Tin,"Sun Yuet House, Sun Chui Estate",,8537,"Sun Yuet House, Sun Chui Estate, Sha Tin","22.37036,114.18038"
Sha Tin,"Chung Chi House, Chung On Estate",,8537,"Chung Chi House, Chung On Estate, Sha Tin","22.42264,114.22602"
North,"Cheung Lok House, Cheung Wah Estate",,8539,"Cheung Lok House, Cheung Wah Estate, North","22.49225,114.14137"
Kwun Tong,"Tin Kuen House, Shun Tin Estate",,8540,"Tin Kuen House, Shun Tin Estate, Kwun Tong","22.32577,114.22561"
Wong Tai Sin,"Kam Pik House, Choi Hung Estate",,8541,"Kam Pik House, Choi Hung Estate, Wong Tai Sin","22.33509,114.20537"
Kwun Tong,"Lei Sang House, Lei Yue Mun Estate",,8543,"Lei Sang House, Lei Yue Mun Estate, Kwun Tong","22.29458,114.24054"
Kwun Tong,"Lei Lung House, Lei Yue Mun Estate",,8544,"Lei Lung House, Lei Yue Mun Estate, Kwun Tong","22.29342,114.23941"
Kwun Tong,"Ping Wong House, Ping Tin Estate",,8545,"Ping Wong House, Ping Tin Estate, Kwun Tong","22.30554,114.23632"
Kwun Tong,"Sau On House, Sau Mau Ping Estate",,8547,"Sau On House, Sau Mau Ping Estate, Kwun Tong","22.31632,114.23293"
Kwun Tong,"Block D, Amoy Gardens",,8548,"Block D, Amoy Gardens, Kwun Tong","22.32532,114.21577"
Kwun Tong,"Block D, Amoy Gardens",,8549,"Block D, Amoy Gardens, Kwun Tong","22.32532,114.21577"
Kwun Tong,"Lei Lung House, Lei Yue Mun Estate",,8550,"Lei Lung House, Lei Yue Mun Estate, Kwun Tong","22.29342,114.23941"
Kwun Tong,"Lei Lung House, Lei Yue Mun Estate",,8551,"Lei Lung House, Lei Yue Mun Estate, Kwun Tong","22.29342,114.23941"
Kwun Tong,46 Hoi Pong Road West,,8552,"46 Hoi Pong Road West, Kwun Tong","22.46821,113.98206"
Kwun Tong,"Lei Yue Mun Estate, Lei Lung House",,8553,"Lei Yue Mun Estate, Lei Lung House, Kwun Tong","22.29342,114.23941"
Sai Kung,Tai Wo Tsuen,,8554,"Tai Wo Tsuen, Sai Kung","22.41703,114.07629"
Wong Tai Sin,"Block 11, Rhythm Garden",,8555,"Block 11, Rhythm Garden, Wong Tai Sin","22.33644,114.20212"
Kowloon City,"Block A, I-feng Mansion",,8556,"Block A, I-feng Mansion, Kowloon City","22.31517,114.18927"
Sham Shui Po,58A Fuk Wa Street,,8557,"58A Fuk Wa Street, Sham Shui Po","22.32997,114.16464"
Kowloon City,3 Hing Yin Street,,8558,"3 Hing Yin Street, Kowloon City","22.31963,114.19442"
Yuen Long,"Block 2, Grandeur Terrace",,8559,"Block 2, Grandeur Terrace, Yuen Long","22.46912,114.00077"
Wong Tai Sin,"Lung Hong House, Lower Wong Tai Sin Estate",,8560,"Lung Hong House, Lower Wong Tai Sin Estate, Wong Tai Sin","22.3383,114.19396"
Sham Shui Po,"Un Mun House, Un Chau Estate",,8561,"Un Mun House, Un Chau Estate, Sham Shui Po","22.33558,114.15765"
Sai Kung,"Block 1, Maritime Bay",,8562,"Block 1, Maritime Bay, Sai Kung","22.3146,114.26535"
Sha Tin,"King Sam House, King Tin Court",,8564,"King Sam House, King Tin Court, Sha Tin","22.36715,114.17939"
Southern,"Tung On House, Lei Tung Estate",,8565,"Tung On House, Lei Tung Estate, Southern","22.24074,114.15717"
Sham Shui Po,4-6 Kim Shin Lane,,8566,"4-6 Kim Shin Lane, Sham Shui Po","22.33954,114.15235"
Sham Shui Po,"Tao Tak House, Lei Cheng Uk Estate",,8567,"Tao Tak House, Lei Cheng Uk Estate, Sham Shui Po","22.33954,114.15892"
Kowloon City,"Block 9, Cherry Mansions, Phase 2, Whampoa Garden",,8568,"Block 9, Cherry Mansions, Phase 2, Whampoa Garden, Kowloon City","22.30471,114.18881"
Southern,"Tung On House, Lei Tung Estate",,8569,"Tung On House, Lei Tung Estate, Southern","22.24074,114.15717"
Kwun Tong,"Kai Shun House, Kai Tin Estate",,8570,"Kai Shun House, Kai Tin Estate, Kwun Tong","22.30917,114.23521"
Yuen Long,"Block 2, Grandeur Terrace",,8571,"Block 2, Grandeur Terrace, Yuen Long","22.46912,114.00077"
Wong Tai Sin,"Ching Ming House, Tsz Ching Estate",,8572,"Ching Ming House, Tsz Ching Estate, Wong Tai Sin","22.3492,114.20284"
Kwun Tong,"Kai Shun House, Kai Tin Estate",,8573,"Kai Shun House, Kai Tin Estate, Kwun Tong","22.30917,114.23521"
Kwun Tong,"Kai Shun House, Kai Tin Estate",,8574,"Kai Shun House, Kai Tin Estate, Kwun Tong","22.30917,114.23521"
Yau Tsim Mong,The Cityview Hotel,,8574,"The Cityview Hotel, Yau Tsim Mong","22.31383,114.17174"
Yuen Long,"Yan Fu House, Tin Fu Court",,8575,"Yan Fu House, Tin Fu Court, Yuen Long","22.46429,113.99806"
Kwun Tong,"Kai Shun House, Kai Tin Estate",,8576,"Kai Shun House, Kai Tin Estate, Kwun Tong","22.30917,114.23521"
Eastern,"Tower 1A, Lime Gala",,8577,"Tower 1A, Lime Gala, Eastern","22.2773,114.22878"
Yau Tsim Mong,Shun Hing Building,,8578,"Shun Hing Building, Yau Tsim Mong","22.31733,114.16663"
Kwai Tsing,"Wah Yan House, Ching Wah Court",,8579,"Wah Yan House, Ching Wah Court, Kwai Tsing","22.34878,114.10099"
Sai Kung,"Block 2, Park Central",,8580,"Block 2, Park Central, Sai Kung","22.30684,114.25743"
Sai Kung,"Almond Blossom, Tower 9 (Left Wing), La Splendeur, LOHAS Park",,8581,"Almond Blossom, Tower 9 (Left Wing), La Splendeur, LOHAS Park, Sai Kung","22.29508,114.27299"
Sai Kung,"Almond Blossom, Tower 9 (Left Wing), La Splendeur, LOHAS Park",,8582,"Almond Blossom, Tower 9 (Left Wing), La Splendeur, LOHAS Park, Sai Kung","22.29508,114.27299"
Tuen Mun,"Civic House, Affluence Garden",,8583,"Civic House, Affluence Garden, Tuen Mun","22.4035,113.97545"
Yuen Long,"Tower 6, Park Signature",,8584,"Tower 6, Park Signature, Yuen Long","22.43661,114.0228"
Yuen Long,"Tower 6, Park Signature",,8585,"Tower 6, Park Signature, Yuen Long","22.43661,114.0228"
Yuen Long,"Wing Fu House, Tin Fu Court",,8586,"Wing Fu House, Tin Fu Court, Yuen Long","22.46466,113.99819"
Sham Shui Po,"Lai Yung House, Lai Tsui Court",,8587,"Lai Yung House, Lai Tsui Court, Sham Shui Po","22.33399,114.15434"
Sai Kung,"Almond Blossom, Tower 9 (Left Wing), La Splendeur, LOHAS Park",,8588,"Almond Blossom, Tower 9 (Left Wing), La Splendeur, LOHAS Park, Sai Kung","22.29508,114.27299"
Sai Kung,"Po Yan House, Po Lam Estate",,8589,"Po Yan House, Po Lam Estate, Sai Kung","22.32594,114.25297"
Wong Tai Sin,"Lung Fung House, Lower Wong Tai Sin Estate",,8590,"Lung Fung House, Lower Wong Tai Sin Estate, Wong Tai Sin","22.33961,114.1945"
Kwun Tong,"Block H1, Telford Gardens",,8591,"Block H1, Telford Gardens, Kwun Tong","22.3238,114.21297"
Wong Tai Sin,"Block 8, Rhythm Garden",,8592,"Block 8, Rhythm Garden, Wong Tai Sin","22.3356,114.20204"
Kowloon City,"Yan Ching House, Kai Ching Estate",,8593,"Yan Ching House, Kai Ching Estate, Kowloon City","22.33291,114.20336"
Kwai Tsing,"Yan Shek House, Shek Yam Estate",,8594,"Yan Shek House, Shek Yam Estate, Kwai Tsing","22.371,114.13921"
Sham Shui Po,Yau Luen Apartments,,8595,"Yau Luen Apartments, Sham Shui Po","22.32875,114.16697"
Yuen Long,"Yat Tam House, Tin Yat Estate",,8596,"Yat Tam House, Tin Yat Estate, Yuen Long","22.46758,114.00013"
Kwai Tsing,"Tower 3, Tierra Verde",,8597,"Tower 3, Tierra Verde, Kwai Tsing","22.3587,114.10771"
Wong Tai Sin,"Block 10, Rhythm Garden",,8598,"Block 10, Rhythm Garden, Wong Tai Sin","22.33646,114.20171"
Tuen Mun,Castle Peak Bay Immigration Centre,,8599,"Castle Peak Bay Immigration Centre, Tuen Mun","22.37671,113.98614"
Kwai Tsing,"Yung Shek House, Shek Yam Estate",,8600,"Yung Shek House, Shek Yam Estate, Kwai Tsing","22.37134,114.13949"
Eastern,"Block P, Kornhill",,8601,"Block P, Kornhill, Eastern","22.28316,114.21536"
Wong Tai Sin,"Oi Yan House, Tsz Oi Court",,8603,"Oi Yan House, Tsz Oi Court, Wong Tai Sin","22.34969,114.19881"
Kwun Tong,"On Yat House, Shun On Estate",,8604,"On Yat House, Shun On Estate, Kwun Tong","22.32757,114.2263"
Kwun Tong,"Chung Hong House, Hong Wah Court",,8605,"Chung Hong House, Hong Wah Court, Kwun Tong","22.31406,114.23967"
Kwun Tong,"Chung Hong House, Hong Wah Court",,8606,"Chung Hong House, Hong Wah Court, Kwun Tong","22.31406,114.23967"
Kwun Tong,"Chung Hong House, Hong Wah Court",,8607,"Chung Hong House, Hong Wah Court, Kwun Tong","22.31406,114.23967"
Kwun Tong,"Chung Hong House, Hong Wah Court",,8608,"Chung Hong House, Hong Wah Court, Kwun Tong","22.31406,114.23967"
Wong Tai Sin,"Hong Tim House, Tsz Hong Estate",,8609,"Hong Tim House, Tsz Hong Estate, Wong Tai Sin","22.34752,114.20374"
Tsuen Wan,"Block 4, Phase 1, Sea Crest Villa",,8610,"Block 4, Phase 1, Sea Crest Villa, Tsuen Wan","22.36655,114.0568"
Wong Tai Sin,"Choi Tung House, Tung Tau (II) Estate",,8611,"Choi Tung House, Tung Tau (II) Estate, Wong Tai Sin","22.33417,114.19339"
Islands,Lung Tsai Tsuen,,8613,"Lung Tsai Tsuen, Islands","22.20434,114.03094"
Kowloon City,"Block 9, Cherry Mansions, Phase 2, Whampoa Garden",,8614,"Block 9, Cherry Mansions, Phase 2, Whampoa Garden, Kowloon City","22.30471,114.18881"
Tsuen Wan,"Block 4, Phase 1, Sea Crest Villa",,8615,"Block 4, Phase 1, Sea Crest Villa, Tsuen Wan","22.36655,114.0568"
Kwun Tong,"Chi Lai House, Yau Lai Estate",,8616,"Chi Lai House, Yau Lai Estate, Kwun Tong","22.30188,114.23618"
Kwun Tong,"Chi Lai House, Yau Lai Estate",,8617,"Chi Lai House, Yau Lai Estate, Kwun Tong","22.30188,114.23618"
Sham Shui Po,"Shun Fat Building, Shun Ning Road",,8618,"Shun Fat Building, Shun Ning Road, Sham Shui Po","22.33919,114.15603"
Kowloon City,Ma Tau Kok Detention Centre,,8620,"Ma Tau Kok Detention Centre, Kowloon City","22.3302,114.18904"
Sai Kung,"Choi Lam House, Tsui Lam Estate",,8621,"Choi Lam House, Tsui Lam Estate, Sai Kung","22.32403,114.24755"
Wong Tai Sin,Yan Oi Building,,8622,"Yan Oi Building, Wong Tai Sin","22.33493,114.19483"
Kwun Tong,"Hiu Sing House, Hiu Lai Court",,8623,"Hiu Sing House, Hiu Lai Court, Kwun Tong","22.3214,114.22835"
Kwun Tong,"Lai Tat House, On Tat Estate",,8625,"Lai Tat House, On Tat Estate, Kwun Tong","22.32037,114.23495"
Kwun Tong,"Block 18, Laguna City",,8626,"Block 18, Laguna City, Kwun Tong","22.30568,114.22713"
Sai Kung,"Almond Blossom, Tower 9 (Left Wing), La Splendeur, LOHAS Park",,8627,"Almond Blossom, Tower 9 (Left Wing), La Splendeur, LOHAS Park, Sai Kung","22.29508,114.27299"
Southern,"Tin Kin House, Tin Wan Estate",,8628,"Tin Kin House, Tin Wan Estate, Southern","22.25199,114.15046"
Kwun Tong,"Yuk Mei House, Yau Chui Court",,8629,"Yuk Mei House, Yau Chui Court, Kwun Tong","22.30087,114.23769"
Kowloon City,Tung Po Building,,8631,"Tung Po Building, Kowloon City","22.32121,114.19015"
Tai Po,"Block 3, Tai Po Centre",,8632,"Block 3, Tai Po Centre, Tai Po","22.45019,114.16924"
Kwai Tsing,Wah Fung Garden,,8633,"Wah Fung Garden, Kwai Tsing","22.34295,114.1359"
Kowloon City,8 Hing Yan Street,,8634,"8 Hing Yan Street, Kowloon City","22.3195,114.19446"
Kwun Tong,"Kai Yin House, Kai Yip Estate",,8635,"Kai Yin House, Kai Yip Estate, Kwun Tong","22.32932,114.20914"
Wong Tai Sin,"Ching Hong House, Tsz Ching Estate",,8636,"Ching Hong House, Tsz Ching Estate, Wong Tai Sin","22.34917,114.20353"
Sham Shui Po,"Cherry House, So Uk Estate",,8637,"Cherry House, So Uk Estate, Sham Shui Po","22.34126,114.15813"
Yuen Long,"Yat Tam House, Tin Yat Estate",,8638,"Yat Tam House, Tin Yat Estate, Yuen Long","22.46758,114.00013"
Yuen Long,"Yat Tam House, Tin Yat Estate",,8639,"Yat Tam House, Tin Yat Estate, Yuen Long","22.46758,114.00013"
Tuen Mun,"King On House, Shan King Estate",,8640,"King On House, Shan King Estate, Tuen Mun","22.39754,113.96583"
Tuen Mun,"King On House, Shan King Estate",,8641,"King On House, Shan King Estate, Tuen Mun","22.39754,113.96583"
Tsuen Wan,"Hoi Sing Mansion, Riviera Gardens",,8642,"Hoi Sing Mansion, Riviera Gardens, Tsuen Wan","22.36093,114.11281"
Tsuen Wan,"Hoi Sing Mansion, Riviera Gardens",,8643,"Hoi Sing Mansion, Riviera Gardens, Tsuen Wan","22.36093,114.11281"
Kwai Tsing,"Kai Lim Lau, Cho Yiu Chuen",,8644,"Kai Lim Lau, Cho Yiu Chuen, Kwai Tsing","22.34795,114.12892"
Yuen Long,"Chung Ki House, Tin Chung Court",,8645,"Chung Ki House, Tin Chung Court, Yuen Long","22.46136,113.99985"
Tuen Mun,"King On House, Shan King Estate",,8646,"King On House, Shan King Estate, Tuen Mun","22.39754,113.96583"
Southern,"Tower 13, Hong Kong Parkview",,8647,"Tower 13, Hong Kong Parkview, Southern","22.25683,114.19878"
Sham Shui Po,"Un Mun House, Un Chau Estate",,8648,"Un Mun House, Un Chau Estate, Sham Shui Po","22.33558,114.15765"
Wong Tai Sin,"Wui Yan House, Tung Wui Estate",,8649,"Wui Yan House, Tung Wui Estate, Wong Tai Sin","22.33202,114.19388"
Kwun Tong,"Lam Wai House, Lam Tin Estate",,8650,"Lam Wai House, Lam Tin Estate, Kwun Tong","22.31026,114.23641"
Sham Shui Po,193 Yee Kuk Street,,8651,"193 Yee Kuk Street, Sham Shui Po","22.32817,114.15966"
Kwai Tsing,"Lai Ying House, Lai Yan Court",,8652,"Lai Ying House, Lai Yan Court, Kwai Tsing","22.34275,114.13645"
Sham Shui Po,170 Nam Cheong Street,,8653,"170 Nam Cheong Street, Sham Shui Po","22.33017,114.16448"
Tsuen Wan,"Tower 2A, The Pavilia Bay",,8654,"Tower 2A, The Pavilia Bay, Tsuen Wan","22.33913,114.25971"
Yuen Long,"Yiu Chak House, Tin Yiu Estate",,8655,"Yiu Chak House, Tin Yiu Estate, Yuen Long","22.45284,114.00421"
Kowloon City,Wah Keung Building,,8656,"Wah Keung Building, Kowloon City","22.31763,114.18951"
Sham Shui Po,"Kam Kee Building, Ki Lung Street",,8657,"Kam Kee Building, Ki Lung Street, Sham Shui Po","22.32589,114.16607"
Sham Shui Po,Wah Po House,,8658,"Wah Po House, Sham Shui Po","22.32771,114.16697"
Yau Tsim Mong,Hung Hay Building,,8659,"Hung Hay Building, Yau Tsim Mong","22.31593,114.17162"
Wong Tai Sin,"Lung Shing House, Lower Wong Tai Sin Estate",,8661,"Lung Shing House, Lower Wong Tai Sin Estate, Wong Tai Sin","22.34033,114.1925"
Sham Shui Po,Wah Kiu Mansion,,8662,"Wah Kiu Mansion, Sham Shui Po","22.32917,114.16683"
Sham Shui Po,Wah Kiu Mansion,,8663,"Wah Kiu Mansion, Sham Shui Po","22.32917,114.16683"
Kwun Tong,"Lei Lung House, Lei Yue Mun Estate",,8664,"Lei Lung House, Lei Yue Mun Estate, Kwun Tong","22.29342,114.23941"
Sham Shui Po,"76-84 Tai Po Road, Wah Kiu Mansion",,8665,"76-84 Tai Po Road, Wah Kiu Mansion, Sham Shui Po","22.32917,114.16683"
Sham Shui Po,"76-84 Tai Po Road, Wah Kiu Mansion",,8666,"76-84 Tai Po Road, Wah Kiu Mansion, Sham Shui Po","22.32917,114.16683"
Sham Shui Po,"76-84 Tai Po Road, Wah Kiu Mansion",,8667,"76-84 Tai Po Road, Wah Kiu Mansion, Sham Shui Po","22.32917,114.16683"
Tuen Mun,Chung Uk Tsuen,,8668,"Chung Uk Tsuen, Tuen Mun","22.42883,113.99306"
Kwai Tsing,"Lai Ying House, Lai Yan Court",,8669,"Lai Ying House, Lai Yan Court, Kwai Tsing","22.34275,114.13645"
Kwai Tsing,"Lai Ying House, Lai Yan Court",,8670,"Lai Ying House, Lai Yan Court, Kwai Tsing","22.34275,114.13645"
Kowloon City,Marigold Mansion,,8671,"Marigold Mansion, Kowloon City","22.31055,114.18454"
Wan Chai,Waldorf Mansion,,8672,"Waldorf Mansion, Wan Chai","22.2793,114.18789"
Wong Tai Sin,"Fu Fai House, Fu Shan Estate",,8673,"Fu Fai House, Fu Shan Estate, Wong Tai Sin","22.3429,114.20959"
Wan Chai,Jet Foil Mansion,,8674,"Jet Foil Mansion, Wan Chai","22.28038,114.18051"
Kwun Tong,"Hong Yu House, Hong Yat Court",,8675,"Hong Yu House, Hong Yat Court, Kwun Tong","22.3108,114.23453"
Kwun Tong,"Lee Hong House, Shun Lee Estate",,8676,"Lee Hong House, Shun Lee Estate, Kwun Tong","22.3305,114.22634"
Kwai Tsing,"Wah Yan House, Ching Wah Court",,8677,"Wah Yan House, Ching Wah Court, Kwai Tsing","22.34878,114.10099"
Kowloon City,8 Hing Yan Street,,8679,"8 Hing Yan Street, Kowloon City","22.3195,114.19446"
Sham Shui Po,"Wing Hei House, Po Hei Court",,8680,"Wing Hei House, Po Hei Court, Sham Shui Po","22.33725,114.15935"
Southern,"Wah Hong House, Wah Fu (I) Estate",,8681,"Wah Hong House, Wah Fu (I) Estate, Southern","22.25015,114.13606"
Eastern,"Block 1, Nan Fung Sun Chuen",,8682,"Block 1, Nan Fung Sun Chuen, Eastern","22.28306,114.21352"
Kowloon City,Marigold Mansion,,8683,"Marigold Mansion, Kowloon City","22.31055,114.18454"
Yuen Long,"Chuen Shui House, Shui Pin Wai Estate",,8684,"Chuen Shui House, Shui Pin Wai Estate, Yuen Long","22.44538,114.02037"
Wong Tai Sin,"Sau Man House, Choi Wan (I) Estate",,8685,"Sau Man House, Choi Wan (I) Estate, Wong Tai Sin","22.33339,114.21312"
Kwai Tsing,Winland 800 Hotel,,8686,"Winland 800 Hotel, Kwai Tsing","22.44516,114.03026"
Wan Chai,Mini Hotel Causeway Bay,,8686,"Mini Hotel Causeway Bay, Wan Chai","22.28514,114.19208"
Kwun Tong,"Kai Shing House, Kai Yip Estate",,8687,"Kai Shing House, Kai Yip Estate, Kwun Tong","22.32969,114.20889"
Wong Tai Sin,"Block 11, Rhythm Garden",,8688,"Block 11, Rhythm Garden, Wong Tai Sin","22.33644,114.20212"
Tuen Mun,"Tin Yue House, Tin King Estate",,8689,"Tin Yue House, Tin King Estate, Tuen Mun","22.4058,113.9647"
Yuen Long,"Chuen Shui House, Shui Pin Wai Estate",,8690,"Chuen Shui House, Shui Pin Wai Estate, Yuen Long","22.44538,114.02037"
Wong Tai Sin,"Lok Man House, Lok Fu Estate",,8691,"Lok Man House, Lok Fu Estate, Wong Tai Sin","22.33665,114.18676"
Wong Tai Sin,"Chun Wai House, Tin Ma Court",,8692,"Chun Wai House, Tin Ma Court, Wong Tai Sin","22.34354,114.1859"
Sham Shui Po,"76-84 Tai Po Road, Wah Kiu Mansion",,8693,"76-84 Tai Po Road, Wah Kiu Mansion, Sham Shui Po","22.32917,114.16683"
Kowloon City,172 Ma Tau Wai Road,,8694,"172 Ma Tau Wai Road, Kowloon City","22.31189,114.18744"
Kwai Tsing,"Chi Shek House, Shek Yam Estate",,8696,"Chi Shek House, Shek Yam Estate, Kwai Tsing","22.37131,114.13881"
Kwun Tong,"Kai Yin House, Kai Yip Estate",,8697,"Kai Yin House, Kai Yip Estate, Kwun Tong","22.32932,114.20914"
Wong Tai Sin,"Chi Siu House, Choi Wan Estate",,8698,"Chi Siu House, Choi Wan Estate, Wong Tai Sin","22.33314,114.21338"
Tai Po,"Hing Wo House, Po Nga Court",,8700,"Hing Wo House, Po Nga Court, Tai Po","22.45061,114.15873"
Wong Tai Sin,"Hong Tim House, Tsz Hong Estate",,8701,"Hong Tim House, Tsz Hong Estate, Wong Tai Sin","22.34752,114.20374"
Sham Shui Po,Wah Kiu Mansion,,8704,"Wah Kiu Mansion, Sham Shui Po","22.32917,114.16683"
Sham Shui Po,"Tower 2,Heya Star",,8705,"Tower 2,Heya Star, Sham Shui Po","22.33892,114.15595"
Sha Tin,"Wing Shui House, Lek Yuen Estate",,8706,"Wing Shui House, Lek Yuen Estate, Sha Tin","22.38375,114.19121"
Sha Tin,"Wing Shui House, Lek Yuen Estate",,8707,"Wing Shui House, Lek Yuen Estate, Sha Tin","22.38375,114.19121"
Eastern,"Block 13, Braemar Hill Mansions",,8708,"Block 13, Braemar Hill Mansions, Eastern","22.28586,114.20319"
Eastern,"Block 13, Braemar Hill Mansions",,8709,"Block 13, Braemar Hill Mansions, Eastern","22.28586,114.20319"
Wan Chai,Jetfoil Mansion,,8710,"Jetfoil Mansion, Wan Chai","22.28038,114.18051"
Yuen Long,Kat Hing Wai,,8711,"Kat Hing Wai, Yuen Long","22.43797,114.06393"
Kwun Tong,"Lam Shek House, Ping Shek Estate",,8712,"Lam Shek House, Ping Shek Estate, Kwun Tong","22.33299,114.20983"
Kowloon City,"Magnolia House, Ma Tau Wai Estate",,8713,"Magnolia House, Ma Tau Wai Estate, Kowloon City","22.32383,114.18719"
Sham Shui Po,522 Castle Peak Road,,8714,"522 Castle Peak Road, Sham Shui Po","22.3397,114.15149"
Sham Shui Po,27-29 Shek Kip Mei Street,,8715,"27-29 Shek Kip Mei Street, Sham Shui Po","22.32971,114.1649"
Kowloon City,Pau Chung Building,,8716,"Pau Chung Building, Kowloon City","22.32144,114.19004"
Kowloon City,Pau Chung Building,,8717,"Pau Chung Building, Kowloon City","22.32144,114.19004"
Yau Tsim Mong,"Lee Man Building, 104Tung Choi Street",,8719,"Lee Man Building, 104Tung Choi Street, Yau Tsim Mong","22.32008,114.17059"
Kwun Tong,Alice Ho Miu Ling Nethersole Nuring Home,,8720,"Alice Ho Miu Ling Nethersole Nuring Home, Kwun Tong","22.45748,114.17409"
Yau Tsim Mong,"Block A, United Mansion",,8721,"Block A, United Mansion, Yau Tsim Mong","22.30576,114.16911"
Wan Chai,Waldorf Mansion,,8722,"Waldorf Mansion, Wan Chai","22.2793,114.18789"
Eastern,Harbour Plaza North Point,,8723,"Harbour Plaza North Point, Eastern","22.29153,114.20865"
Eastern,Harbour Plaza North Point,,8724,"Harbour Plaza North Point, Eastern","22.29153,114.20865"
Sham Shui Po,"Fook Yat House, Fortune Estate",,8725,"Fook Yat House, Fortune Estate, Sham Shui Po","22.3359,114.15366"
Wong Tai Sin,"Fung Chak House, Choi Wan (II) Estate",,8726,"Fung Chak House, Choi Wan (II) Estate, Wong Tai Sin","22.33452,114.21764"
Wong Tai Sin,"Fung Chak House, Choi Wan (II) Estate",,8727,"Fung Chak House, Choi Wan (II) Estate, Wong Tai Sin","22.33452,114.21764"
Wong Tai Sin,"Fung Chak House, Choi Wan (II) Estate",,8728,"Fung Chak House, Choi Wan (II) Estate, Wong Tai Sin","22.33452,114.21764"
Wong Tai Sin,"Ching Hong House, Tsz Ching Estate",,8730,"Ching Hong House, Tsz Ching Estate, Wong Tai Sin","22.34917,114.20353"
Kwai Tsing,"Shing Ka House, Kwai Shing East Estate",,8731,"Shing Ka House, Kwai Shing East Estate, Kwai Tsing","22.36323,114.12553"
Tai Po,"Yat Wo House, Po Nga Court",,8734,"Yat Wo House, Po Nga Court, Tai Po","22.45106,114.15985"
Kwun Tong,Dorsett KwunTong,,8735,"Dorsett KwunTong, Kwun Tong","22.30796,114.22415"
Kwun Tong,"Block 4, Richland Gardens",,8736,"Block 4, Richland Gardens, Kwun Tong","22.32998,114.20629"
Kwun Tong,"Block H1, Telford Gardens",,8738,"Block H1, Telford Gardens, Kwun Tong","22.3238,114.21297"
Kwun Tong,Dorsett KwunTong,,8739,"Dorsett KwunTong, Kwun Tong","22.30796,114.22415"
Tsuen Wan,"Fontana Heights, Hong Kong Garden",,8740,"Fontana Heights, Hong Kong Garden, Tsuen Wan","22.38451,114.19925"
Kwun Tong,Alice Ho Miu Ling Nethersole Nursing Home,,8741,"Alice Ho Miu Ling Nethersole Nursing Home, Kwun Tong","22.45748,114.17409"
North,"Ching Wu House, Yuk Po Court",,8743,"Ching Wu House, Yuk Po Court, North","22.50066,114.12702"
Wong Tai Sin,"Tsz Fung House, Fung Tak Estate",,8744,"Tsz Fung House, Fung Tak Estate, Wong Tai Sin","22.34388,114.20164"
Kwun Tong,"Tak Lung House, Tak Tin Estate",,8746,"Tak Lung House, Tak Tin Estate, Kwun Tong","22.30688,114.23808"
Kwun Tong,"Lei Ye House, Lei Yue Mun Estate",,8747,"Lei Ye House, Lei Yue Mun Estate, Kwun Tong","22.29411,114.24043"
Wong Tai Sin,"Lung Chak House, Lower Wong Tai Sin Estate",,8748,"Lung Chak House, Lower Wong Tai Sin Estate, Wong Tai Sin","22.3383,114.19538"
Kwun Tong,"Lam Shek House, Ping Shek Estate",,8750,"Lam Shek House, Ping Shek Estate, Kwun Tong","22.33299,114.20983"
Kwun Tong,"Lam Shek House, Ping Shek Estate",,8751,"Lam Shek House, Ping Shek Estate, Kwun Tong","22.33299,114.20983"
Kwun Tong,"Lam Shek House, Ping Shek Estate",,8752,"Lam Shek House, Ping Shek Estate, Kwun Tong","22.33299,114.20983"
Kwai Tsing,"Ting Fung House, Ning Fung Court",,8753,"Ting Fung House, Ning Fung Court, Kwai Tsing","22.37266,114.13801"
Kwai Tsing,"Ting Fung House, Ning Fung Court",,8754,"Ting Fung House, Ning Fung Court, Kwai Tsing","22.37266,114.13801"
Eastern,"Block 4, Lok Hin Terrace",,8755,"Block 4, Lok Hin Terrace, Eastern","22.26429,114.24111"
Wan Chai,Heung Hoi Mansion,,8756,"Heung Hoi Mansion, Wan Chai","22.27877,114.17293"
Wong Tai Sin,"Sau Man House, Choi Wan(I) Estate",,8757,"Sau Man House, Choi Wan(I) Estate, Wong Tai Sin","22.33339,114.21312"
Yau Tsim Mong,26 Reclamation Street,,8758,"26 Reclamation Street, Yau Tsim Mong","22.3068,114.16929"
Yau Tsim Mong,Man Ying Building,,8759,"Man Ying Building, Yau Tsim Mong","22.30721,114.16703"
Sham Shui Po,"Tung Hoi House, Tai Hang Tung Estate",,8760,"Tung Hoi House, Tai Hang Tung Estate, Sham Shui Po","22.3329,114.17147"
Kwai Tsing,"Wah Yan House, Ching Wah Court",,8761,"Wah Yan House, Ching Wah Court, Kwai Tsing","22.34878,114.10099"
Kowloon City,"Block A, I-Feng Mansion",,8762,"Block A, I-Feng Mansion, Kowloon City","22.31517,114.18927"
Wong Tai Sin,"Sau Man House, Choi Wan(I) Estate",,8763,"Sau Man House, Choi Wan(I) Estate, Wong Tai Sin","22.33339,114.21312"
Kwun Tong,"Lam Shek House, Ping Shek Estate",,8764,"Lam Shek House, Ping Shek Estate, Kwun Tong","22.33299,114.20983"
Wong Tai Sin,"Ching Yuk House, Tsz Ching Estate",,8765,"Ching Yuk House, Tsz Ching Estate, Wong Tai Sin","22.34986,114.20261"
Wong Tai Sin,"Ching Tai House, Tsz Ching Estate",,8766,"Ching Tai House, Tsz Ching Estate, Wong Tai Sin","22.35043,114.20283"
Kowloon City,Chat Ma Mansion,,8767,"Chat Ma Mansion, Kowloon City","22.32437,114.18489"
Sai Kung,"Shin Chi House, Shin Ming Estate",,8768,"Shin Chi House, Shin Ming Estate, Sai Kung","22.30371,114.25016"
Kwai Tsing,Lion Building,,8769,"Lion Building, Kwai Tsing","22.3703,114.13857"
Kowloon City,"Hang Chien Court, Wyler Gardens",,8770,"Hang Chien Court, Wyler Gardens, Kowloon City","22.31779,114.19226"
Sai Kung,"Shin Chi House, Shin Ming Estate",,8771,"Shin Chi House, Shin Ming Estate, Sai Kung","22.30371,114.25016"
Kwai Tsing,Dorsett Tsuen Wan Hong Kong,,8772,"Dorsett Tsuen Wan Hong Kong, Kwai Tsing","22.37063,114.12969"
Kwai Tsing,Dorsett Tsuen Wan Hong Kong,,8773,"Dorsett Tsuen Wan Hong Kong, Kwai Tsing","22.37063,114.12969"
Southern,Le Meridien Cyberport,,8774,"Le Meridien Cyberport, Southern","22.26187,114.12948"
Central & Western,Ramada Hong Kong Harbour View,,8775,"Ramada Hong Kong Harbour View, Central & Western","22.28701,114.14352"
Central & Western,Ramada Hong Kong Harbour View,,8776,"Ramada Hong Kong Harbour View, Central & Western","22.28701,114.14352"
Sai Kung,"Kwong Ning House, Kwong Ming Court",,8777,"Kwong Ning House, Kwong Ming Court, Sai Kung","22.31262,114.26012"
Yuen Long,"Wing Fu House, Tin Fu Court",,8779,"Wing Fu House, Tin Fu Court, Yuen Long","22.46466,113.99819"
Sham Shui Po,"Tower 7, Parc Oasis",,8780,"Tower 7, Parc Oasis, Sham Shui Po","22.33299,114.17444"
Sham Shui Po,"Tower 7, Parc Oasis",,8781,"Tower 7, Parc Oasis, Sham Shui Po","22.33299,114.17444"
Sham Shui Po,"Lai Yung House, Lai Tsui Court",,8782,"Lai Yung House, Lai Tsui Court, Sham Shui Po","22.33399,114.15434"
Sham Shui Po,Yau Luen Apartments,,8783,"Yau Luen Apartments, Sham Shui Po","22.32875,114.16697"
Sham Shui Po,Yau Luen Apartments,,8784,"Yau Luen Apartments, Sham Shui Po","22.32875,114.16697"
Yau Tsim Mong,"Block 5, Prosperous Garden",,8786,"Block 5, Prosperous Garden, Yau Tsim Mong","22.31008,114.16876"
Kowloon City,"Block 1, Dragon View",,8787,"Block 1, Dragon View, Kowloon City","22.31611,114.17879"
Tsuen Wan,"Fontana Heights, Hong Kong Garden",,8788,"Fontana Heights, Hong Kong Garden, Tsuen Wan","22.38451,114.19925"
Tsuen Wan,"Fontana Heights, Hong Kong Garden",,8789,"Fontana Heights, Hong Kong Garden, Tsuen Wan","22.38451,114.19925"
Sham Shui Po,"Lai Yung House, Lai Tsui Court",,8790,"Lai Yung House, Lai Tsui Court, Sham Shui Po","22.33399,114.15434"
Kwun Tong,"Block H1, Telford Gardens",,8791,"Block H1, Telford Gardens, Kwun Tong","22.3238,114.21297"
Kwun Tong,"Chung Hong House, Hong Wah Court",,8792,"Chung Hong House, Hong Wah Court, Kwun Tong","22.31406,114.23967"
Sham Shui Po,193 Yee Kuk Street,,8793,"193 Yee Kuk Street, Sham Shui Po","22.32817,114.15966"
Sham Shui Po,"Un Mun House, Un Chau Estate",,8794,"Un Mun House, Un Chau Estate, Sham Shui Po","22.33558,114.15765"
Yuen Long,"Block 2, Grandeur Terrace",,8795,"Block 2, Grandeur Terrace, Yuen Long","22.46912,114.00077"
Wong Tai Sin,73 King Fuk Street,,8796,"73 King Fuk Street, Wong Tai Sin","22.33443,114.19727"
Southern,"Tin Kin House, Tin Wan Estate",,8797,"Tin Kin House, Tin Wan Estate, Southern","22.25199,114.15046"
Southern,"Tin Kin House, Tin Wan Estate",,8798,"Tin Kin House, Tin Wan Estate, Southern","22.25199,114.15046"
Sham Shui Po,Tak Po Building,,8799,"Tak Po Building, Sham Shui Po","22.33248,114.16133"
Yuen Long,"Heng Kin House, Tin Heng Estate",,8802,"Heng Kin House, Tin Heng Estate, Yuen Long","22.46966,113.99854"
Islands,Hong Kong Skycity Marriott Hotel,,8803,"Hong Kong Skycity Marriott Hotel, Islands","22.31894,113.94361"
Islands,Hong Kong Skycity Marriott Hotel,,8804,"Hong Kong Skycity Marriott Hotel, Islands","22.31894,113.94361"
Tuen Mun,"Wu Tsui House, Wu King Estate",,8805,"Wu Tsui House, Wu King Estate, Tuen Mun","22.3767,113.96581"
Yau Tsim Mong,Cherry Mansion,,8806,"Cherry Mansion, Yau Tsim Mong","22.31883,114.1636"
Kwun Tong,"Lee Hong House, Shun Lee Estate",,8807,"Lee Hong House, Shun Lee Estate, Kwun Tong","22.3305,114.22634"
Kwun Tong,"Lee Hong House, Shun Lee Estate",,8808,"Lee Hong House, Shun Lee Estate, Kwun Tong","22.3305,114.22634"
Yau Tsim Mong,Delta Hotel,,8809,"Delta Hotel, Yau Tsim Mong","22.39036,114.20934"
Wong Tai Sin,"Oi Yan House, Tsz Oi Court",,8810,"Oi Yan House, Tsz Oi Court, Wong Tai Sin","22.34969,114.19881"
Wong Tai Sin,"Tan Fung House, Choi Hung Estate",,8811,"Tan Fung House, Choi Hung Estate, Wong Tai Sin","22.33497,114.20754"
Wong Tai Sin,Man Fung Building,,8812,"Man Fung Building, Wong Tai Sin","22.3465,114.20294"
Kowloon City,"Ching Man House, Ho Man Tin Estate",,8813,"Ching Man House, Ho Man Tin Estate, Kowloon City","22.31497,114.18242"
Kowloon City,"Tak Yu House, Tak Long Estate",,8814,"Tak Yu House, Tak Long Estate, Kowloon City","22.32852,114.19131"
Kwun Tong,Louisa Tower,,8815,"Louisa Tower, Kwun Tong","22.3191,114.22153"
Sha Tin,"Block 4, Carado Garden",,8816,"Block 4, Carado Garden, Sha Tin","22.36804,114.17656"
Sham Shui Po,Fook Tin Building,,8817,"Fook Tin Building, Sham Shui Po","22.33475,114.16656"
Yau Tsim Mong,26 Reclamation Street,,8818,"26 Reclamation Street, Yau Tsim Mong","22.3068,114.16929"
Wong Tai Sin,"Lung Chak House, Lower Wong Tai Sin Estate",,8819,"Lung Chak House, Lower Wong Tai Sin Estate, Wong Tai Sin","22.3383,114.19538"
Wong Tai Sin,"Wui Chi House, Tung Wui Estate",,8820,"Wui Chi House, Tung Wui Estate, Wong Tai Sin","22.33202,114.19388"
Wong Tai Sin,"Chun Wai House,Tin Ma Court",,8821,"Chun Wai House,Tin Ma Court, Wong Tai Sin","22.34354,114.1859"
Kwun Tong,"Tat Fung House, Po Tat Estate",,8822,"Tat Fung House, Po Tat Estate, Kwun Tong","22.31725,114.23809"
Wan Chai,Jet Foil Mansion,,8823,"Jet Foil Mansion, Wan Chai","22.28038,114.18051"
Kwun Tong,"Kai Shing House, Kai Yip Estate",,8824,"Kai Shing House, Kai Yip Estate, Kwun Tong","22.32969,114.20889"
Kwun Tong,Lei Yue Mun Praya Road,,8826,"Lei Yue Mun Praya Road, Kwun Tong","22.30973,114.22933"
Sham Shui Po,Shing To Building,,8827,"Shing To Building, Sham Shui Po","22.32753,114.16757"
Tuen Mun,Siu Lung Court,,8828,"Siu Lung Court, Tuen Mun","22.408,113.96441"
Kowloon City,Wah King Mansion,,8829,"Wah King Mansion, Kowloon City","22.31879,114.18897"
Sha Tin,"Block 1, Carado Garden",,8831,"Block 1, Carado Garden, Sha Tin","22.36874,114.1771"
Wong Tai Sin,"Kai Fai House, Choi Wan (II) Estate",,8832,"Kai Fai House, Choi Wan (II) Estate, Wong Tai Sin","22.33341,114.21741"
Kwun Tong,"Tat Fung House, Po Tat Estate",,8834,"Tat Fung House, Po Tat Estate, Kwun Tong","22.31725,114.23809"
Kwun Tong,"Tat Fung House, Po Tat Estate",,8835,"Tat Fung House, Po Tat Estate, Kwun Tong","22.31725,114.23809"
Wong Tai Sin,"Oi Yan House, Tsz Oi Court",,8836,"Oi Yan House, Tsz Oi Court, Wong Tai Sin","22.34969,114.19881"
Wong Tai Sin,"Fung Chak House, Choi Wan (II) Estate",,8837,"Fung Chak House, Choi Wan (II) Estate, Wong Tai Sin","22.33452,114.21764"
Sha Tin,"Block 5, Grandeur Garden",,8838,"Block 5, Grandeur Garden, Sha Tin","22.37411,114.17757"
Sham Shui Po,Ying Tat Building,,8839,"Ying Tat Building, Sham Shui Po","22.32849,114.16028"
Wong Tai Sin,"Wui Chi House, Tung Wui Estate",,8840,"Wui Chi House, Tung Wui Estate, Wong Tai Sin","22.33202,114.19388"
Wong Tai Sin,"Wui Chi House, Tung Wui Estate",,8841,"Wui Chi House, Tung Wui Estate, Wong Tai Sin","22.33202,114.19388"
Sham Shui Po,Wah Po House,,8842,"Wah Po House, Sham Shui Po","22.32771,114.16697"
Sham Shui Po,170 Nam Cheong Street,,8843,"170 Nam Cheong Street, Sham Shui Po","22.33017,114.16448"
Islands,Hong Kong Skycity Marriott Hotel,,8844,"Hong Kong Skycity Marriott Hotel, Islands","22.31894,113.94361"
Southern,"Ka Sing House, Ka Lung Court",,8845,"Ka Sing House, Ka Lung Court, Southern","22.2495,114.13897"
Islands,"Kit Yat House, Yat Tung (II) Estate",,8846,"Kit Yat House, Yat Tung (II) Estate, Islands","22.28214,113.93664"
Yau Tsim Mong,Mai Koon Building,,8847,"Mai Koon Building, Yau Tsim Mong","22.32206,114.16767"
Sham Shui Po,184 Tai Nan Street,,8848,"184 Tai Nan Street, Sham Shui Po","22.3271,114.16363"
Sham Shui Po,Wah Po House,,8849,"Wah Po House, Sham Shui Po","22.32771,114.16697"
Wong Tai Sin,Hong Kong Sheng Kung Hui Nursing Home,,8852,"Hong Kong Sheng Kung Hui Nursing Home, Wong Tai Sin","22.33998,114.19779"
Eastern,"Sui Tai House, Siu Sai Wan Estate",,8854,"Sui Tai House, Siu Sai Wan Estate, Eastern","22.26106,114.25037"
Kwai Tsing,"Lai Ying House, Lai Yan Court",,8856,"Lai Ying House, Lai Yan Court, Kwai Tsing","22.34275,114.13645"
Tuen Mun,Hotel Cozi Resort,,8857,"Hotel Cozi Resort, Tuen Mun","22.46483,114.003"
Tuen Mun,"Ting Cheung House, On Ting Estate",,8857,"Ting Cheung House, On Ting Estate, Tuen Mun","22.38771,113.97558"
Sham Shui Po,"Fook Yat House, Fortune Estate",,8858,"Fook Yat House, Fortune Estate, Sham Shui Po","22.3359,114.15366"
Sham Shui Po,"Tower 2, Heya Star",,8859,"Tower 2, Heya Star, Sham Shui Po","22.33892,114.15595"
Sham Shui Po,"Tower 2, Heya Star",,8860,"Tower 2, Heya Star, Sham Shui Po","22.33892,114.15595"
Eastern,"Yiu Fook House, Yiu Tung Estate",,8861,"Yiu Fook House, Yiu Tung Estate, Eastern","22.27777,114.22175"
Sham Shui Po,"Fu Yee House, Fu Cheong Estate",,8862,"Fu Yee House, Fu Cheong Estate, Sham Shui Po","22.32838,114.15407"
Kwun Tong,"Lee Hong House, Shun Lee Estate",,8863,"Lee Hong House, Shun Lee Estate, Kwun Tong","22.3305,114.22634"
Kowloon City,"Chi Chun Lau, Chun Seen Mei Chuen",,8864,"Chi Chun Lau, Chun Seen Mei Chuen, Kowloon City","22.32523,114.18825"
Sai Kung,"Po Chi House, Po Lam Estate",,8865,"Po Chi House, Po Lam Estate, Sai Kung","22.32591,114.25613"
Sham Shui Po,"Un Nga House, Un Chau Estate",,8866,"Un Nga House, Un Chau Estate, Sham Shui Po","22.33655,114.15624"
Yau Tsim Mong,Mai Koon Building,,8867,"Mai Koon Building, Yau Tsim Mong","22.32206,114.16767"
Kowloon City,"Hung Yan House, Hung Hom Estate",,8868,"Hung Yan House, Hung Hom Estate, Kowloon City","22.31672,114.18842"
Yuen Long,Kat Hing Wai,,8869,"Kat Hing Wai, Yuen Long","22.43797,114.06393"
Kowloon City,Kwun Hei Court,,8870,"Kwun Hei Court, Kowloon City","22.32522,114.18526"
Kwai Tsing,"Kwai Yat House, Kwai Hong Court",,8871,"Kwai Yat House, Kwai Hong Court, Kwai Tsing","22.36369,114.13045"
Kwun Tong,"Block A, Wah Fung Gardens",,8872,"Block A, Wah Fung Gardens, Kwun Tong","22.32078,114.2265"
Eastern,Tai Lung House,,8873,"Tai Lung House, Eastern","22.33161,114.17123"
Eastern,"Block 5, New Jade Garden",,8874,"Block 5, New Jade Garden, Eastern","22.2637,114.23632"
Eastern,"Block 5, New Jade Garden",,8875,"Block 5, New Jade Garden, Eastern","22.2637,114.23632"
Sham Shui Po,Tai Po House,,8876,"Tai Po House, Sham Shui Po","22.32757,114.1671"
Southern,Command Tower,,8877,"Command Tower, Southern","22.24335,114.15421"
Eastern,"Block 4, Cheerful Garden",,8878,"Block 4, Cheerful Garden, Eastern","22.26276,114.25025"
Central & Western,Grand City Hotel,,8880,"Grand City Hotel, Central & Western","22.28681,114.14115"
Yau Tsim Mong,"Kam Tong Building, 1M-1S Waterloo Road",,8881,"Kam Tong Building, 1M-1S Waterloo Road, Yau Tsim Mong","22.31276,114.16813"
Wan Chai,Monmouth Place,,8882,"Monmouth Place, Wan Chai","22.27528,114.16768"
Central & Western,Ramada Hong Kong Harbour View,,8884,"Ramada Hong Kong Harbour View, Central & Western","22.28701,114.14352"
Kwai Tsing,Dorsett Tsuen Wan Hong Kong,,8885,"Dorsett Tsuen Wan Hong Kong, Kwai Tsing","22.37063,114.12969"
Yuen Long,Kat Hing Wai,,8886,"Kat Hing Wai, Yuen Long","22.43797,114.06393"
Yuen Long,Kat Hing Wai,,8887,"Kat Hing Wai, Yuen Long","22.43797,114.06393"
Yuen Long,Kat Hing Wai,,8888,"Kat Hing Wai, Yuen Long","22.43797,114.06393"
Yuen Long,"Jumbo Building, 11-11A Pau Cheung Square",,8889,"Jumbo Building, 11-11A Pau Cheung Square, Yuen Long","22.44541,114.02983"
Wong Tai Sin,18 Choi Hung Road,,8890,"18 Choi Hung Road, Wong Tai Sin","22.33435,114.19492"
Eastern,"Block 4, Lok Hin Terrace",,8891,"Block 4, Lok Hin Terrace, Eastern","22.26429,114.24111"
Eastern,"Block 4, Lok Hin Terrace",,8892,"Block 4, Lok Hin Terrace, Eastern","22.26429,114.24111"
Kowloon City,"Magnolia House, Ma Tau Wai Estate",,8893,"Magnolia House, Ma Tau Wai Estate, Kowloon City","22.32383,114.18719"
Sham Shui Po,"Wing Hei House, Po Hei Court",,8894,"Wing Hei House, Po Hei Court, Sham Shui Po","22.33725,114.15935"
Yuen Long,Kat Hing Wai,,8895,"Kat Hing Wai, Yuen Long","22.43797,114.06393"
Sai Kung,"Po Chi House, Po Lam Estate",,8896,"Po Chi House, Po Lam Estate, Sai Kung","22.32591,114.25613"
Kowloon City,"Chi Chun Lau, Chun Seen Mei Chuen",,8897,"Chi Chun Lau, Chun Seen Mei Chuen, Kowloon City","22.32523,114.18825"
Kwai Tsing,Tai Wong Ha Resite Village,,8898,"Tai Wong Ha Resite Village, Kwai Tsing","22.354,114.1005"
Sham Shui Po,355 Tai Nan Street,,8899,"355 Tai Nan Street, Sham Shui Po","22.32968,114.15978"
Sham Shui Po,Wah Po House,,8900,"Wah Po House, Sham Shui Po","22.32771,114.16697"
Kowloon City,"Chi Chun Lau, Chun Seen Mei Chuen",,8901,"Chi Chun Lau, Chun Seen Mei Chuen, Kowloon City","22.32523,114.18825"
Yuen Long,"Chuen Shui House, Shui Pin Wai Estate",,8902,"Chuen Shui House, Shui Pin Wai Estate, Yuen Long","22.44538,114.02037"
Sai Kung,"Po Chi House, Po Lam Estate",,8903,"Po Chi House, Po Lam Estate, Sai Kung","22.32591,114.25613"
Kwun Tong,"Block 21, Laguna City",,8904,"Block 21, Laguna City, Kwun Tong","22.30506,114.22697"
North,Kai Leng Tsuen,,8905,"Kai Leng Tsuen, North","22.49335,114.12965"
Yuen Long,Kat Hing Wai,,8906,"Kat Hing Wai, Yuen Long","22.43797,114.06393"
Yau Tsim Mong,"Block A, United Mansion",,8907,"Block A, United Mansion, Yau Tsim Mong","22.30576,114.16911"
Yau Tsim Mong,"Block A, United Mansion",,8908,"Block A, United Mansion, Yau Tsim Mong","22.30576,114.16911"
Southern,"Tung Hing House, Lei Tung Estate",,8909,"Tung Hing House, Lei Tung Estate, Southern","22.24101,114.15521"
Kwun Tong,"Fung Lai House, Yau Lai Estate",,8910,"Fung Lai House, Yau Lai Estate, Kwun Tong","22.30132,114.23618"
Kowloon City,"Block 2, Majestic Park",,8911,"Block 2, Majestic Park, Kowloon City","22.32121,114.18708"
Sham Shui Po,Wah Po House,,8912,"Wah Po House, Sham Shui Po","22.32771,114.16697"
Sai Kung,"Almond Blossom, Tower 9 (Left Wing), La Splendeur, LOHAS Park",,8913,"Almond Blossom, Tower 9 (Left Wing), La Splendeur, LOHAS Park, Sai Kung","22.29508,114.27299"
Kowloon City,"Block 2, Majestic Park",,8914,"Block 2, Majestic Park, Kowloon City","22.32121,114.18708"
Kowloon City,"Block A, Lux Theatre Building",,8915,"Block A, Lux Theatre Building, Kowloon City","22.30627,114.18589"
Yuen Long,Tin Sam Tsuen,,8916,"Tin Sam Tsuen, Yuen Long","22.43301,113.99122"
Kwun Tong,"Sau Yin House, Sau Mau Ping Estate",,8917,"Sau Yin House, Sau Mau Ping Estate, Kwun Tong","22.31866,114.23413"
Wan Chai,Jet Foil Mansion,,8918,"Jet Foil Mansion, Wan Chai","22.28038,114.18051"
Wan Chai,Jet Foil Mansion,,8919,"Jet Foil Mansion, Wan Chai","22.28038,114.18051"
Yau Tsim Mong,Ramada Hong Kong Grand,,8920,"Ramada Hong Kong Grand, Yau Tsim Mong","22.28504,114.22411"
Yuen Long,"Block 2, Grandeur Terrace",,8921,"Block 2, Grandeur Terrace, Yuen Long","22.46912,114.00077"
Wong Tai Sin,"Hong Yun House, Tsz Hong Estate",,8922,"Hong Yun House, Tsz Hong Estate, Wong Tai Sin","22.34755,114.20327"
Wong Tai Sin,"Block 4, Kai Tak Garden",,8923,"Block 4, Kai Tak Garden, Wong Tai Sin","22.33814,114.19449"
Sham Shui Po,"Fook Yuet House, Fortune Estate",,8924,"Fook Yuet House, Fortune Estate, Sham Shui Po","22.33521,114.15376"
Central & Western,Tung Tat Building,,8925,"Tung Tat Building, Central & Western","22.28676,114.1371"
Kwai Tsing,Lion Building,,8926,"Lion Building, Kwai Tsing","22.3703,114.13857"
Sha Tin,"Tower 5, Phase 2, Festival City",,8927,"Tower 5, Phase 2, Festival City, Sha Tin","22.36967,114.17469"
Yau Tsim Mong,Man Ying Building,,8928,"Man Ying Building, Yau Tsim Mong","22.30721,114.16703"
Wong Tai Sin,"Sau Man House, Choi Wan (I) Estate",,8929,"Sau Man House, Choi Wan (I) Estate, Wong Tai Sin","22.33339,114.21312"
Wong Tai Sin,"Fung Chak House, Choi Wan (II) Estate",,8930,"Fung Chak House, Choi Wan (II) Estate, Wong Tai Sin","22.33452,114.21764"
Kwai Tsing,"Block 7, Greenfield Garden",,8931,"Block 7, Greenfield Garden, Kwai Tsing","22.3528,114.10829"
Sha Tin,"Golden Peace Court, Stage 2, Golden Lion Garden",,8932,"Golden Peace Court, Stage 2, Golden Lion Garden, Sha Tin","22.36729,114.18128"
Kowloon City,"Block A, College Crest",,8933,"Block A, College Crest, Kowloon City","22.32437,114.18489"
Kwun Tong,"Lee Hong House, Shun Lee Estate",,8934,"Lee Hong House, Shun Lee Estate, Kwun Tong","22.3305,114.22634"
Kwun Tong,"Ko Sui House, Ko Cheung Court",,8935,"Ko Sui House, Ko Cheung Court, Kwun Tong","22.29598,114.24025"
Sham Shui Po,Wah Po Mansion,,8937,"Wah Po Mansion, Sham Shui Po","22.32488,114.16735"
Tuen Mun,"Wu Tsui House, Wu King Estate",,8938,"Wu Tsui House, Wu King Estate, Tuen Mun","22.3767,113.96581"
Tuen Mun,"Wu Tsui House, Wu King Estate",,8939,"Wu Tsui House, Wu King Estate, Tuen Mun","22.3767,113.96581"
Kowloon City,"Block A, College Crest",,8940,"Block A, College Crest, Kowloon City","22.32437,114.18489"
Sha Tin,"Mei Sau House, Mei Tin Estate",,8941,"Mei Sau House, Mei Tin Estate, Sha Tin","22.37574,114.17088"
Yuen Long,"Block 2, Grandeur Terrace",,8942,"Block 2, Grandeur Terrace, Yuen Long","22.46912,114.00077"
Kowloon City,Yue Sun Mansion,,8943,"Yue Sun Mansion, Kowloon City","22.31775,114.18844"
Sham Shui Po,"Un Shing House, Un Chau Estate",,8944,"Un Shing House, Un Chau Estate, Sham Shui Po","22.33723,114.15491"
Kwun Tong,"Mei Tin House, Hing Tin Estate",,8945,"Mei Tin House, Hing Tin Estate, Kwun Tong","22.31284,114.23878"
Sham Shui Po,123 Nam Cheong Street,,8946,"123 Nam Cheong Street, Sham Shui Po","22.32913,114.16289"
North,"Block 7, Golf Parkview",,8947,"Block 7, Golf Parkview, North","22.50198,114.11777"
Eastern,Tai Lung House,,8948,"Tai Lung House, Eastern","22.33161,114.17123"
Wan Chai,Jet Foil Mansion,,8949,"Jet Foil Mansion, Wan Chai","22.28038,114.18051"
Wan Chai,Jet Foil Mansion,,8950,"Jet Foil Mansion, Wan Chai","22.28038,114.18051"
Wan Chai,Jet Foil Mansion,,8951,"Jet Foil Mansion, Wan Chai","22.28038,114.18051"
Yau Tsim Mong,"Block A, United Mansion",,8952,"Block A, United Mansion, Yau Tsim Mong","22.30576,114.16911"
Wong Tai Sin,"Chi Siu House, Choi Wan (I) Estate",,8953,"Chi Siu House, Choi Wan (I) Estate, Wong Tai Sin","22.33314,114.21338"
Wong Tai Sin,"Choi Wah House, Choi Fai Estate",,8954,"Choi Wah House, Choi Fai Estate, Wong Tai Sin","22.33569,114.21809"
Yau Tsim Mong,60 Battery Street,,8955,"60 Battery Street, Yau Tsim Mong","22.30786,114.16912"
Sai Kung,"Fai Lam House, Tsui Lam Estate",,8956,"Fai Lam House, Tsui Lam Estate, Sai Kung","22.32468,114.24797"
Kwun Tong,"Block 29, Laguna City",,8956,"Block 29, Laguna City, Kwun Tong","22.30591,114.22973"
Wan Chai,Jet Foil Mansion,,8957,"Jet Foil Mansion, Wan Chai","22.28038,114.18051"
Tuen Mun,"Wu Tsui House, Wu King Estate",,8959,"Wu Tsui House, Wu King Estate, Tuen Mun","22.3767,113.96581"
Kowloon City,"Chi Chun Lau, Chun Seen Mei Chuen",,8960,"Chi Chun Lau, Chun Seen Mei Chuen, Kowloon City","22.32523,114.18825"
Southern,"Ka Sing House, Ka Lung Court",,8961,"Ka Sing House, Ka Lung Court, Southern","22.2495,114.13897"
Central & Western,One Eight One Hotel & Serviced Residences,,8962,"One Eight One Hotel & Serviced Residences, Central & Western","22.28729,114.14951"
Sham Shui Po,Lai Luen Building,,8963,"Lai Luen Building, Sham Shui Po","22.32697,114.16295"
Sai Kung,"Yu Wing House, Yu Ming Court",,8964,"Yu Wing House, Yu Ming Court, Sai Kung","22.31839,114.26626"
Central & Western,The Figo,,8964,"The Figo, Central & Western","22.28804,114.1398"
Tuen Mun,"Tin Yue House, Tin King Estate",,8965,"Tin Yue House, Tin King Estate, Tuen Mun","22.4058,113.9647"
Kowloon City,Wah King Mansion,,8970,"Wah King Mansion, Kowloon City","22.31879,114.18897"
Wong Tai Sin,"Oi Yan House, Tsz Oi Court",,8971,"Oi Yan House, Tsz Oi Court, Wong Tai Sin","22.34969,114.19881"
Kowloon City,"Ching Man House, Ho Man Tin Estate",,8972,"Ching Man House, Ho Man Tin Estate, Kowloon City","22.31497,114.18242"
Kowloon City,"Tak Yu House, Tak Long Estate",,8973,"Tak Yu House, Tak Long Estate, Kowloon City","22.32852,114.19131"
Tuen Mun,Fuk Hang Tsuen,,8974,"Fuk Hang Tsuen, Tuen Mun","22.41807,113.98768"
Kowloon City,"Ching Man House, Ho Man Tin Estate",,8975,"Ching Man House, Ho Man Tin Estate, Kowloon City","22.31497,114.18242"
Kowloon City,"Ching Man House, Ho Man Tin Estate",,8976,"Ching Man House, Ho Man Tin Estate, Kowloon City","22.31497,114.18242"
Kwun Tong,"Tak Lok House, Tak Tin Estate",,8977,"Tak Lok House, Tak Tin Estate, Kwun Tong","22.30919,114.23955"
Wong Tai Sin,"Chui Yuen House, Chuk Yuen South Estate",,8978,"Chui Yuen House, Chuk Yuen South Estate, Wong Tai Sin","22.34411,114.19425"
Yuen Long,"Block A, Manhattan Plaza",,8979,"Block A, Manhattan Plaza, Yuen Long","22.44157,114.02847"
Wong Tai Sin,"Tower 1, Wing Ting Road Fire Services Married Quarters",,8980,"Tower 1, Wing Ting Road Fire Services Married Quarters, Wong Tai Sin","22.34295,114.19639"
Tsuen Wan,Tsuen Lok Building,,8981,"Tsuen Lok Building, Tsuen Wan","22.36961,114.12035"
Sai Kung,"King Tao House, King Lam Estate",,8982,"King Tao House, King Lam Estate, Sai Kung","22.32107,114.26007"
Yau Tsim Mong,Lap Tak House,,8983,"Lap Tak House, Yau Tsim Mong","22.30804,114.16887"
Yau Tsim Mong,26 Reclamation Street,,8984,"26 Reclamation Street, Yau Tsim Mong","22.3068,114.16929"
Yau Tsim Mong,104 Woosung Street,,8985,"104 Woosung Street, Yau Tsim Mong","22.30581,114.17039"
Yau Tsim Mong,28 Cheong Lok Street,,8986,"28 Cheong Lok Street, Yau Tsim Mong","22.30672,114.17249"
Yuen Long,Kam Fai Building,,8987,"Kam Fai Building, Yuen Long","22.44268,114.02638"
Yuen Long,Hing Yip Building,,8988,"Hing Yip Building, Yuen Long","22.44319,114.02352"
Yau Tsim Mong,Ealing Court,,8989,"Ealing Court, Yau Tsim Mong","22.30454,114.16945"
Yuen Long,Fook Shun Building,,8990,"Fook Shun Building, Yuen Long","22.44705,114.02153"
Eastern,"Block 4, Cheerful Garden",,8991,"Block 4, Cheerful Garden, Eastern","22.26276,114.25025"
Eastern,"Block 5, New Jade Garden",,8994,"Block 5, New Jade Garden, Eastern","22.2637,114.23632"
Eastern,"Block 4, Cheerful Garden",,8995,"Block 4, Cheerful Garden, Eastern","22.26276,114.25025"
Kwai Tsing,Lion Building,,8996,"Lion Building, Kwai Tsing","22.3703,114.13857"
Kowloon City,"Ching Man House, Ho Man Tin Estate",,8997,"Ching Man House, Ho Man Tin Estate, Kowloon City","22.31497,114.18242"
Yuen Long,"Block 2, Maywood Court, Kingswood Villas",,8998,"Block 2, Maywood Court, Kingswood Villas, Yuen Long","22.46134,114.00465"
Wan Chai,Vela Boutique Hotel,,8999,"Vela Boutique Hotel, Wan Chai","22.27906,114.17928"
Yuen Long,"Block 2, Maywood Court, Kingswood Villas",,9000,"Block 2, Maywood Court, Kingswood Villas, Yuen Long","22.46134,114.00465"
Wan Chai,Vela Boutique Hotel,,9001,"Vela Boutique Hotel, Wan Chai","22.27906,114.17928"
Wan Chai,Vela Boutique Hotel,,9002,"Vela Boutique Hotel, Wan Chai","22.27906,114.17928"
Central & Western,Ramada Hong Kong Harbour View,,9003,"Ramada Hong Kong Harbour View, Central & Western","22.28701,114.14352"
Kowloon City,Metropark Hotel Kowloon,,9004,"Metropark Hotel Kowloon, Kowloon City","22.3195,114.17578"
Central & Western,Ramada Hong Kong Harbour View,,9007,"Ramada Hong Kong Harbour View, Central & Western","22.28701,114.14352"
Central & Western,Ramada Hong Kong Harbour View,,9008,"Ramada Hong Kong Harbour View, Central & Western","22.28701,114.14352"
Yuen Long,"Chuen Shui House, Shui Pin Wai Estate",,9009,"Chuen Shui House, Shui Pin Wai Estate, Yuen Long","22.44538,114.02037"
Yuen Long,"Chuen Shui House, Shui Pin Wai Estate",,9010,"Chuen Shui House, Shui Pin Wai Estate, Yuen Long","22.44538,114.02037"
Sha Tin,"Block 1, Scenery Court",,9012,"Block 1, Scenery Court, Sha Tin","22.37915,114.18633"
Kowloon City,Wing Tak Mansion,,9013,"Wing Tak Mansion, Kowloon City","22.32852,114.19131"
Kwun Tong,"Mei Tin House, Hing Tin Estate",,9015,"Mei Tin House, Hing Tin Estate, Kwun Tong","22.31284,114.23878"
Kowloon City,Wing Tak Mansion,,9016,"Wing Tak Mansion, Kowloon City","22.32852,114.19131"
Kwun Tong,"Kwai Tong House, Yau Tong Estate",,9017,"Kwai Tong House, Yau Tong Estate, Kwun Tong","22.29767,114.23845"
Wan Chai,Jet Foil Mansion,,9018,"Jet Foil Mansion, Wan Chai","22.28038,114.18051"
Sham Shui Po,"Fu Yee House, Fu Cheong Estate",,9022,"Fu Yee House, Fu Cheong Estate, Sham Shui Po","22.32838,114.15407"
Yau Tsim Mong,Tak Fung Building,,9023,"Tak Fung Building, Yau Tsim Mong","22.32433,114.16559"
Yau Tsim Mong,Boundary Building,,9024,"Boundary Building, Yau Tsim Mong","22.32602,114.16105"
Sha Tin,"Hong Wo House, Wo Che Estate",,9025,"Hong Wo House, Wo Che Estate, Sha Tin","22.38639,114.19428"
Kwai Tsing,"Kwai Yat House, Kwai Hong Court",,9027,"Kwai Yat House, Kwai Hong Court, Kwai Tsing","22.36369,114.13045"
Kwun Tong,"Tak Lai House, Tak Tin Estate",,9028,"Tak Lai House, Tak Tin Estate, Kwun Tong","22.31019,114.23837"
Sham Shui Po,Wah On Mansion,,9029,"Wah On Mansion, Sham Shui Po","22.3304,114.16349"
Kowloon City,"Ching Man House, Ho Man Tin Estate",,9030,"Ching Man House, Ho Man Tin Estate, Kowloon City","22.31497,114.18242"
Tuen Mun,Lai Bo Building,,9032,"Lai Bo Building, Tuen Mun","22.38805,113.97922"
Yuen Long,"Chuen Shui House, Shui Pin Wai Estate",,9033,"Chuen Shui House, Shui Pin Wai Estate, Yuen Long","22.44538,114.02037"
Tsuen Wan,"Tower 3, Vision City",,9034,"Tower 3, Vision City, Tsuen Wan","22.37036,114.11369"
Tuen Mun,"Block 1, Tsui Ning Garden",,9036,"Block 1, Tsui Ning Garden, Tuen Mun","22.38478,113.97381"
Kwai Tsing,"Tower 4, Tivoli Garden",,9037,"Tower 4, Tivoli Garden, Kwai Tsing","22.35448,114.10823"
Sham Shui Po,Ming Fai Building,,9038,"Ming Fai Building, Sham Shui Po","22.32986,114.1596"
Sai Kung,"King Tao House, King Lam Estate",,9039,"King Tao House, King Lam Estate, Sai Kung","22.32107,114.26007"
Sai Kung,"Block 9, Phase 2, Metro City",,9040,"Block 9, Phase 2, Metro City, Sai Kung","22.32224,114.25917"
Sham Shui Po,"Stage 5, Mei Foo Sun Chuen",,9041,"Stage 5, Mei Foo Sun Chuen, Sham Shui Po","22.33958,114.13967"
Sham Shui Po,"Stage 5, Mei Foo Sun Chuen",,9042,"Stage 5, Mei Foo Sun Chuen, Sham Shui Po","22.33958,114.13967"
Tuen Mun,"Pacific House, Affluence Garden",,9043,"Pacific House, Affluence Garden, Tuen Mun","22.40279,113.97525"
Tuen Mun,"Civic House, Affluence Garden",,9044,"Civic House, Affluence Garden, Tuen Mun","22.4035,113.97545"
Kowloon City,"Block A, Lux Theatre Building",,9045,"Block A, Lux Theatre Building, Kowloon City","22.30627,114.18589"
Tai Po,Wing Shing Building,,9046,"Wing Shing Building, Tai Po","22.44921,114.16471"
Sham Shui Po,"Wing Hei House, Po Hei Court",,9047,"Wing Hei House, Po Hei Court, Sham Shui Po","22.33725,114.15935"
Tuen Mun,"King Lai House, Shan King Estate",,9048,"King Lai House, Shan King Estate, Tuen Mun","22.40049,113.96648"
Kowloon City,"Ching Man House, Ho Man Tin Estate",,9049,"Ching Man House, Ho Man Tin Estate, Kowloon City","22.31497,114.18242"
Kowloon City,"Ching Man House, Ho Man Tin Estate",,9050,"Ching Man House, Ho Man Tin Estate, Kowloon City","22.31497,114.18242"
Tuen Mun,"Civic House, Affluence Garden",,9053,"Civic House, Affluence Garden, Tuen Mun","22.4035,113.97545"
Sham Shui Po,"Wing Hei House, Po Hei Court",,9054,"Wing Hei House, Po Hei Court, Sham Shui Po","22.33725,114.15935"
Kowloon City,Hong Fu Mansion,,9055,"Hong Fu Mansion, Kowloon City","22.31741,114.1894"
Sham Shui Po,"Block10, Pak Tin Estate",,9056,"Block10, Pak Tin Estate, Sham Shui Po","22.33765,114.16535"
Sha Tin,"Chung Chi House, Chung On Estate",,9057,"Chung Chi House, Chung On Estate, Sha Tin","22.42264,114.22602"
Tai Po,"Block 10, Serenity Park",,9058,"Block 10, Serenity Park, Tai Po","22.4542,114.16154"
Wong Tai Sin,"The Mental Health Association of Hong Kong Irene House, Lung Gut House, Lower Wong Tai Sin (II) Estate",,9059,"The Mental Health Association of Hong Kong Irene House, Lung Gut House, Lower Wong Tai Sin (II) Estate, Wong Tai Sin","22.33981,114.19278"
Kowloon City,Hong Fu Mansion,,9060,"Hong Fu Mansion, Kowloon City","22.31741,114.1894"
Tuen Mun,"Block 8, Po Tin Estate",,9061,"Block 8, Po Tin Estate, Tuen Mun","22.41074,113.96689"
Kowloon City,"Block A, Lux Theatre Building",,9062,"Block A, Lux Theatre Building, Kowloon City","22.30627,114.18589"
Central & Western,OneArtlane,,9063,"OneArtlane, Central & Western","22.28528,114.1395"
Sha Tin,"South Court, Tower 5, Phase 2, Festival City",,9064,"South Court, Tower 5, Phase 2, Festival City, Sha Tin","22.36967,114.17469"
Wong Tai Sin,"Block 4, Kai Tak Garden",,9065,"Block 4, Kai Tak Garden, Wong Tai Sin","22.33814,114.19449"
Kowloon City,"Block A, Lux Theatre Building",,9066,"Block A, Lux Theatre Building, Kowloon City","22.30627,114.18589"
Tuen Mun,"King Yip House, Shan King Estate",,9067,"King Yip House, Shan King Estate, Tuen Mun","22.39882,113.96627"
Yuen Long,Kam Fai Building,,9068,"Kam Fai Building, Yuen Long","22.44268,114.02638"
Wong Tai Sin,"Cheong Sin House, Upper Wong Tai Sin Estate",,9069,"Cheong Sin House, Upper Wong Tai Sin Estate, Wong Tai Sin","22.3425,114.19134"
Southern,"Tower 5, Bel-air On The Peak",,9070,"Tower 5, Bel-air On The Peak, Southern","22.25319,114.13247"
Tuen Mun,"King Lai House, Shan King Estate",,9071,"King Lai House, Shan King Estate, Tuen Mun","22.40049,113.96648"
Kwai Tsing,Dorsett Tsuen Wan Hong Kong,,9072,"Dorsett Tsuen Wan Hong Kong, Kwai Tsing","22.37063,114.12969"
Tuen Mun,"Civic House, Affluence Garden",,9073,"Civic House, Affluence Garden, Tuen Mun","22.4035,113.97545"
Islands,Hong Kong SkyCity Marriott Hotel,,9074,"Hong Kong SkyCity Marriott Hotel, Islands","22.31894,113.94361"
Sai Kung,Ho Chung Village,,9076,"Ho Chung Village, Sai Kung","22.35431,114.24765"
Tsuen Wan,Tsuen Lok Building,,9077,"Tsuen Lok Building, Tsuen Wan","22.36961,114.12035"
Yuen Long,Kam Fai Building,,9079,"Kam Fai Building, Yuen Long","22.44268,114.02638"
Eastern,"Hiu Fung House, Fung Wah Estate",,9081,"Hiu Fung House, Fung Wah Estate, Eastern","22.26069,114.231"
Sham Shui Po,"Un Shing House, Un Chau Estate",,9082,"Un Shing House, Un Chau Estate, Sham Shui Po","22.33723,114.15491"
Yuen Long,"Block 3, Aster Court",,9083,"Block 3, Aster Court, Yuen Long","22.43405,113.99658"
Yuen Long,"Block 3, Aster Court",,9084,"Block 3, Aster Court, Yuen Long","22.43405,113.99658"
Southern,"Tower 5, Bel-air On The Peak",,9086,"Tower 5, Bel-air On The Peak, Southern","22.25319,114.13247"
Sham Shui Po,"Wing Hei House, Po Hei Court",,9088,"Wing Hei House, Po Hei Court, Sham Shui Po","22.33725,114.15935"
Kwai Tsing,"Tower 4, Tivoli Garden",,9089,"Tower 4, Tivoli Garden, Kwai Tsing","22.35448,114.10823"
Sham Shui Po,"Wing Hei House, Po Hei Court",,9090,"Wing Hei House, Po Hei Court, Sham Shui Po","22.33725,114.15935"
Yuen Long,"Lucky Mansion, 2 Chun Yin Square",,9091,"Lucky Mansion, 2 Chun Yin Square, Yuen Long","22.44724,114.02317"
Sham Shui Po,Tak Po Building,,9092,"Tak Po Building, Sham Shui Po","22.33248,114.16133"
Sham Shui Po,27 Kim Shin Lane,,9093,"27 Kim Shin Lane, Sham Shui Po","22.33921,114.15303"
Kowloon City,Hong Fu Mansion,,9094,"Hong Fu Mansion, Kowloon City","22.31741,114.1894"
Tuen Mun,"Pacific House, Affluence Garden",,9095,"Pacific House, Affluence Garden, Tuen Mun","22.40279,113.97525"
Sham Shui Po,Wah On Mansion,,9096,"Wah On Mansion, Sham Shui Po","22.3304,114.16349"
Sham Shui Po,Wah On Mansion,,9097,"Wah On Mansion, Sham Shui Po","22.3304,114.16349"
Tuen Mun,"Pacific House, Affluence Garden",,9098,"Pacific House, Affluence Garden, Tuen Mun","22.40279,113.97525"
Yuen Long,Kam Fai Building,,9099,"Kam Fai Building, Yuen Long","22.44268,114.02638"
Tsuen Wan,Tsuen Lok Building,,9100,"Tsuen Lok Building, Tsuen Wan","22.36961,114.12035"
Yau Tsim Mong,Lap Tak House,,9101,"Lap Tak House, Yau Tsim Mong","22.30804,114.16887"
Yuen Long,Kam Fai Building,,9102,"Kam Fai Building, Yuen Long","22.44268,114.02638"
Yuen Long,Kam Fai Building,,9104,"Kam Fai Building, Yuen Long","22.44268,114.02638"
Sai Kung,"King Tao House, King Lam Estate",,9105,"King Tao House, King Lam Estate, Sai Kung","22.32107,114.26007"
Yau Tsim Mong,160 Temple Street,,9108,"160 Temple Street, Yau Tsim Mong","22.30723,114.17032"
Yuen Long,"Block 3, Villa By The Park",,9110,"Block 3, Villa By The Park, Yuen Long","22.44445,114.01784"
Wong Tai Sin,"Block 3, Kai Tak Garden",,9113,"Block 3, Kai Tak Garden, Wong Tai Sin","22.3373,114.19479"
Central & Western,Best Western Plus Hotel Hong Kong,,9116,"Best Western Plus Hotel Hong Kong, Central & Western","22.28726,114.13908"
Sham Shui Po,Wah On Mansion,,9117,"Wah On Mansion, Sham Shui Po","22.3304,114.16349"
Sham Shui Po,Godfrey Centre,,9118,"Godfrey Centre, Sham Shui Po","22.32596,114.16349"
Wong Tai Sin,"Kwai Yuen House, Chuk Yuen South Estate",,9119,"Kwai Yuen House, Chuk Yuen South Estate, Wong Tai Sin","22.34391,114.19067"
Kowloon City,"Yan Ching House, Kai Ching Estate",,9120,"Yan Ching House, Kai Ching Estate, Kowloon City","22.33291,114.20336"
Kowloon City,"Yan Ching House, Kai Ching Estate",,9121,"Yan Ching House, Kai Ching Estate, Kowloon City","22.33291,114.20336"
Sham Shui Po,"Fu Yuet House, Fu Cheong Estate",,9122,"Fu Yuet House, Fu Cheong Estate, Sham Shui Po","22.32786,114.1554"
Sha Tin,"Mei Sau House, Mei Tin Estate",,9123,"Mei Sau House, Mei Tin Estate, Sha Tin","22.37574,114.17088"
Kwun Tong,"Sheung Hing House, Upper Ngau Tau Kok Estate",,9124,"Sheung Hing House, Upper Ngau Tau Kok Estate, Kwun Tong","22.31808,114.21699"
Kowloon City,"Block A, Lux Theatre Building",,9125,"Block A, Lux Theatre Building, Kowloon City","22.30627,114.18589"
Kowloon City,"Block A, Lux Theatre Building",,9126,"Block A, Lux Theatre Building, Kowloon City","22.30627,114.18589"
Yuen Long,"Block 3, Sun Yuen Long Centre",,9127,"Block 3, Sun Yuen Long Centre, Yuen Long","22.44571,114.03498"
Central & Western,Szeto Lim Shek Mansion,,9128,"Szeto Lim Shek Mansion, Central & Western","22.36489,114.1394"
Sham Shui Po,"Wing Hei House, Po Hei Court",,9129,"Wing Hei House, Po Hei Court, Sham Shui Po","22.33725,114.15935"
Yuen Long,"Tower 1, The Spectra",,9130,"Tower 1, The Spectra, Yuen Long","22.44812,114.02717"
Sham Shui Po,"Fu Yuet House, Fu Cheong Estate",,9131,"Fu Yuet House, Fu Cheong Estate, Sham Shui Po","22.32786,114.1554"
Sham Shui Po,"Fu Yuet House, Fu Cheong Estate",,9132,"Fu Yuet House, Fu Cheong Estate, Sham Shui Po","22.32786,114.1554"
Yau Tsim Mong,Dao Hing Building,,9134,"Dao Hing Building, Yau Tsim Mong","22.3053,114.16898"
Kwai Tsing,"Tak Yam House, On Yam Estate",,9135,"Tak Yam House, On Yam Estate, Kwai Tsing","22.37075,114.14226"
Kowloon City,"Block A, Lux Theatre Building",,9136,"Block A, Lux Theatre Building, Kowloon City","22.30627,114.18589"
Sham Shui Po,Wah Po House,,9137,"Wah Po House, Sham Shui Po","22.32771,114.16697"
Sha Tin,"Block C, Scenery Garden",,9138,"Block C, Scenery Garden, Sha Tin","22.39374,114.19242"
Yuen Long,"Block 3, Aster Court",,9139,"Block 3, Aster Court, Yuen Long","22.43405,113.99658"
North,"Ching Long House, Ching Ho Estate",,9140,"Ching Long House, Ching Ho Estate, North","22.49311,114.12577"
Sai Kung,"Block 9,Phase 2, Metro City",,9141,"Block 9,Phase 2, Metro City, Sai Kung","22.32224,114.25917"
Wong Tai Sin,"Block 3, Kai Tak Garden",,9142,"Block 3, Kai Tak Garden, Wong Tai Sin","22.3373,114.19479"
Wong Tai Sin,"Block 3, Kai Tak Garden",,9143,"Block 3, Kai Tak Garden, Wong Tai Sin","22.3373,114.19479"
Tai Po,"Hong Yan Court, Sun Hing Garden",,9144,"Hong Yan Court, Sun Hing Garden, Tai Po","22.4533,114.17345"
Yau Tsim Mong,26 Reclamation Street,,9145,"26 Reclamation Street, Yau Tsim Mong","22.3068,114.16929"
Yau Tsim Mong,60 Woosung Street,,9146,"60 Woosung Street, Yau Tsim Mong","22.30701,114.17071"
Kowloon City,"Block A, Lux Theatre Building",,9147,"Block A, Lux Theatre Building, Kowloon City","22.30627,114.18589"
Wong Tai Sin,"King Kung House, Choi Wan Estate",,9148,"King Kung House, Choi Wan Estate, Wong Tai Sin","22.33456,114.21606"
Sham Shui Po,Nan Yuen Building,,9149,"Nan Yuen Building, Sham Shui Po","22.32477,114.16666"
Eastern,"Tower 8, Island Resort",,9150,"Tower 8, Island Resort, Eastern","22.26666,114.25097"
Kowloon City,Metropark Hotel Kowloon,,9151,"Metropark Hotel Kowloon, Kowloon City","22.3195,114.17578"
Kwai Tsing,"Nga Kwai House, Kwai Chung Estate",,9152,"Nga Kwai House, Kwai Chung Estate, Kwai Tsing","22.36953,114.12694"
Kowloon City,"Block A, Lux Theatre Building",,9153,"Block A, Lux Theatre Building, Kowloon City","22.30627,114.18589"
Kwun Tong,On Tat Shopping Centre (non-residential),11/12/2020,7246,"On Tat Shopping Centre (non-residential), Kwun Tong","22.3203,114.23492"
Kwun Tong,On Tat Shopping Centre (non-residential),11/12/2020,7548,"On Tat Shopping Centre (non-residential), Kwun Tong","22.3203,114.23492"
Central & Western,"Glow Salon & Spa, 8/F, Silver Fortune Plaza (non-residential)",11/12/2020,7467,"Glow Salon & Spa, 8/F, Silver Fortune Plaza (non-residential), Central & Western","22.28113,114.15615"
Central & Western,"Glow Salon & Spa, 8/F, Silver Fortune Plaza (non-residential)",11/12/2020,7494,"Glow Salon & Spa, 8/F, Silver Fortune Plaza (non-residential), Central & Western","22.28113,114.15615"
Central & Western,"Glow Salon & Spa, 8/F, Silver Fortune Plaza (non-residential)",11/12/2020,7698,"Glow Salon & Spa, 8/F, Silver Fortune Plaza (non-residential), Central & Western","22.28113,114.15615"
Central & Western,"Glow Salon & Spa, 8/F, Silver Fortune Plaza (non-residential)",11/12/2020,7765,"Glow Salon & Spa, 8/F, Silver Fortune Plaza (non-residential), Central & Western","22.28113,114.15615"
Central & Western,"Glow Salon & Spa, 8/F, Silver Fortune Plaza (non-residential)",11/12/2020,7853,"Glow Salon & Spa, 8/F, Silver Fortune Plaza (non-residential), Central & Western","22.28113,114.15615"
Central & Western,"Glow Salon & Spa, 8/F, Silver Fortune Plaza (non-residential)",11/12/2020,7992,"Glow Salon & Spa, 8/F, Silver Fortune Plaza (non-residential), Central & Western","22.28113,114.15615"
Central & Western,"Glow Salon & Spa, 8/F, Silver Fortune Plaza (non-residential)",11/12/2020,8206,"Glow Salon & Spa, 8/F, Silver Fortune Plaza (non-residential), Central & Western","22.28113,114.15615"
Sai Kung,MTR Tseung Kwan O Station (non-residential),11/12/2020,7787,"MTR Tseung Kwan O Station (non-residential), Sai Kung","22.31735,114.26813"
Sai Kung,MTR Tseung Kwan O Station (non-residential),11/12/2020,7838,"MTR Tseung Kwan O Station (non-residential), Sai Kung","22.31735,114.26813"
Sha Tin,Heng on Shopping Centre (non-residential),12/12/2020,6967,"Heng on Shopping Centre (non-residential), Sha Tin","22.41686,114.22777"
Sha Tin,Heng on Shopping Centre (non-residential),12/12/2020,6993,"Heng on Shopping Centre (non-residential), Sha Tin","22.41686,114.22777"
Sha Tin,Heng on Shopping Centre (non-residential),12/12/2020,7525,"Heng on Shopping Centre (non-residential), Sha Tin","22.41686,114.22777"
Islands,Hong Kong-Zhuhai-Macao Bridge Hong Kong Port Passenger Clearance Building (non-residential),12/12/2020,7192,"Hong Kong-Zhuhai-Macao Bridge Hong Kong Port Passenger Clearance Building (non-residential), Islands","22.31723,113.93023"
Islands,Hong Kong-Zhuhai-Macao Bridge Hong Kong Port Passenger Clearance Building (non-residential),12/12/2020,7488,"Hong Kong-Zhuhai-Macao Bridge Hong Kong Port Passenger Clearance Building (non-residential), Islands","22.31723,113.93023"
Islands,Hong Kong-Zhuhai-Macao Bridge Hong Kong Port Passenger Clearance Building (non-residential),12/12/2020,7506,"Hong Kong-Zhuhai-Macao Bridge Hong Kong Port Passenger Clearance Building (non-residential), Islands","22.31723,113.93023"
Sham Shui Po,89-91 Hing Wah Street West (non-residential),12/12/2020,7476,"89-91 Hing Wah Street West (non-residential), Sham Shui Po","22.33206,114.14949"
Sham Shui Po,89-91 Hing Wah Street West (non-residential),12/12/2020,8151,"89-91 Hing Wah Street West (non-residential), Sham Shui Po","22.33206,114.14949"
Wan Chai,Lee Garden One (non-residential),12/12/2020,7490,"Lee Garden One (non-residential), Wan Chai","22.27847,114.18464"
Wan Chai,Lee Garden One (non-residential),12/12/2020,7620,"Lee Garden One (non-residential), Wan Chai","22.27847,114.18464"
Kwun Tong,Domain Peace Cuisine (non-residential),12/12/2020,7572,"Domain Peace Cuisine (non-residential), Kwun Tong","22.29622,114.23861"
Kwun Tong,Domain Peace Cuisine (non-residential),12/12/2020,7579,"Domain Peace Cuisine (non-residential), Kwun Tong","22.29622,114.23861"
Wong Tai Sin,Tsz Wan Shan Shopping Centre Meet Point (non-residential),12/12/2020,7591,"Tsz Wan Shan Shopping Centre Meet Point (non-residential), Wong Tai Sin","22.3486,114.20036"
Wong Tai Sin,Tsz Wan Shan Shopping Centre Meet Point (non-residential),12/12/2020,7600,"Tsz Wan Shan Shopping Centre Meet Point (non-residential), Wong Tai Sin","22.3486,114.20036"
Wong Tai Sin,Tsz Wan Shan Shopping Centre Tai Hing (non-residential),12/12/2020,7591,"Tsz Wan Shan Shopping Centre Tai Hing (non-residential), Wong Tai Sin","22.3496,114.20212"
Wong Tai Sin,Tsz Wan Shan Shopping Centre Tai Hing (non-residential),12/12/2020,7600,"Tsz Wan Shan Shopping Centre Tai Hing (non-residential), Wong Tai Sin","22.3496,114.20212"
Sha Tin,Lucky Plaza (non-residential),13/12/2020,5813,"Lucky Plaza (non-residential), Sha Tin","22.38271,114.19124"
Sha Tin,Lucky Plaza (non-residential),13/12/2020,6016,"Lucky Plaza (non-residential), Sha Tin","22.38271,114.19124"
Sha Tin,Lucky Plaza (non-residential),13/12/2020,6892,"Lucky Plaza (non-residential), Sha Tin","22.38271,114.19124"
Sha Tin,Lucky Plaza (non-residential),13/12/2020,6934,"Lucky Plaza (non-residential), Sha Tin","22.38271,114.19124"
Sha Tin,Lucky Plaza (non-residential),13/12/2020,7601,"Lucky Plaza (non-residential), Sha Tin","22.38271,114.19124"
Tai Po,"Unit 1C Fung Nin Building, 28-32 Tai Wing Lane (non-residential)",13/12/2020,7605,"Unit 1C Fung Nin Building, 28-32 Tai Wing Lane (non-residential), Tai Po","22.44723,114.16678"
Tai Po,"Unit 1C Fung Nin Building, 28-32 Tai Wing Lane (non-residential)",13/12/2020,7694,"Unit 1C Fung Nin Building, 28-32 Tai Wing Lane (non-residential), Tai Po","22.44723,114.16678"
Tai Po,"Unit 1C Fung Nin Building, 28-32 Tai Wing Lane (non-residential)",13/12/2020,7697,"Unit 1C Fung Nin Building, 28-32 Tai Wing Lane (non-residential), Tai Po","22.44723,114.16678"
Wong Tai Sin,New Trend Centre (non-residential),13/12/2020,7639,"New Trend Centre (non-residential), Wong Tai Sin","22.3344,114.19872"
Wong Tai Sin,New Trend Centre (non-residential),13/12/2020,7657,"New Trend Centre (non-residential), Wong Tai Sin","22.3344,114.19872"
Wong Tai Sin,New Trend Centre (non-residential),13/12/2020,7686,"New Trend Centre (non-residential), Wong Tai Sin","22.3344,114.19872"
Wong Tai Sin,New Trend Centre (non-residential),13/12/2020,7702,"New Trend Centre (non-residential), Wong Tai Sin","22.3344,114.19872"
Wong Tai Sin,New Trend Centre (non-residential),13/12/2020,7866,"New Trend Centre (non-residential), Wong Tai Sin","22.3344,114.19872"
Wong Tai Sin,New Trend Centre (non-residential),13/12/2020,7871,"New Trend Centre (non-residential), Wong Tai Sin","22.3344,114.19872"
Wong Tai Sin,New Trend Centre (non-residential),13/12/2020,7873,"New Trend Centre (non-residential), Wong Tai Sin","22.3344,114.19872"
Wong Tai Sin,New Trend Centre (non-residential),13/12/2020,8078,"New Trend Centre (non-residential), Wong Tai Sin","22.3344,114.19872"
Sha Tin,G/F Tin Po Building (non-residential),13/12/2020,7683,"G/F Tin Po Building (non-residential), Sha Tin","22.36076,114.17364"
Sha Tin,G/F Tin Po Building (non-residential),13/12/2020,7798,"G/F Tin Po Building (non-residential), Sha Tin","22.36076,114.17364"
Wan Chai,Jubilee Centre Majesty Chinese Restaurant (non-residential),13/12/2020,7939,"Jubilee Centre Majesty Chinese Restaurant (non-residential), Wan Chai","22.27888,114.17066"
Wan Chai,Jubilee Centre Majesty Chinese Restaurant (non-residential),13/12/2020,8075,"Jubilee Centre Majesty Chinese Restaurant (non-residential), Wan Chai","22.27888,114.17066"
Kowloon City,Hung Hom Municipal Services Building (non-residential),14/12/2020,5613,"Hung Hom Municipal Services Building (non-residential), Kowloon City","22.32955,114.18902"
Kowloon City,Hung Hom Municipal Services Building (non-residential),14/12/2020,6134,"Hung Hom Municipal Services Building (non-residential), Kowloon City","22.32955,114.18902"
Kowloon City,Hung Hom Municipal Services Building (non-residential),14/12/2020,6327,"Hung Hom Municipal Services Building (non-residential), Kowloon City","22.32955,114.18902"
Kowloon City,Hung Hom Municipal Services Building (non-residential),14/12/2020,6551,"Hung Hom Municipal Services Building (non-residential), Kowloon City","22.32955,114.18902"
Kowloon City,Hung Hom Municipal Services Building (non-residential),14/12/2020,6893,"Hung Hom Municipal Services Building (non-residential), Kowloon City","22.32955,114.18902"
Kowloon City,Hung Hom Municipal Services Building (non-residential),14/12/2020,7367,"Hung Hom Municipal Services Building (non-residential), Kowloon City","22.32955,114.18902"
Kowloon City,Hung Hom Municipal Services Building (non-residential),14/12/2020,7652,"Hung Hom Municipal Services Building (non-residential), Kowloon City","22.32955,114.18902"
Wong Tai Sin,G/F Kam Pik House Choi Hung Estate (non-residential),14/12/2020,7688,"G/F Kam Pik House Choi Hung Estate (non-residential), Wong Tai Sin","22.33509,114.20537"
Wong Tai Sin,G/F Kam Pik House Choi Hung Estate (non-residential),14/12/2020,7821,"G/F Kam Pik House Choi Hung Estate (non-residential), Wong Tai Sin","22.33509,114.20537"
Kwun Tong,Mow Hing Factory Building (non-residential),14/12/2020,7748,"Mow Hing Factory Building (non-residential), Kwun Tong","22.30978,114.22181"
Kwun Tong,Mow Hing Factory Building (non-residential),14/12/2020,7829,"Mow Hing Factory Building (non-residential), Kwun Tong","22.30978,114.22181"
Sha Tin,Saddle Ridge Garden Commercial Centre (non-residential),14/12/2020,7791,"Saddle Ridge Garden Commercial Centre (non-residential), Sha Tin","22.42481,114.23746"
Sha Tin,Saddle Ridge Garden Commercial Centre (non-residential),14/12/2020,7844,"Saddle Ridge Garden Commercial Centre (non-residential), Sha Tin","22.42481,114.23746"
Sha Tin,Saddle Ridge Garden Commercial Centre (non-residential),14/12/2020,7845,"Saddle Ridge Garden Commercial Centre (non-residential), Sha Tin","22.42481,114.23746"
Sha Tin,Saddle Ridge Garden Commercial Centre (non-residential),14/12/2020,7846,"Saddle Ridge Garden Commercial Centre (non-residential), Sha Tin","22.42481,114.23746"
Sham Shui Po,V Walk (non-residential),14/12/2020,7853,"V Walk (non-residential), Sham Shui Po","22.37257,113.96675"
Sham Shui Po,V Walk (non-residential),14/12/2020,7911,"V Walk (non-residential), Sham Shui Po","22.37257,113.96675"
Sha Tin,MOSTown Phase 4 (non-residential),15/12/2020,6588,"MOSTown Phase 4 (non-residential), Sha Tin","22.42461,114.23245"
Sha Tin,MOSTown Phase 4 (non-residential),15/12/2020,6967,"MOSTown Phase 4 (non-residential), Sha Tin","22.42461,114.23245"
Sha Tin,MOSTown Phase 4 (non-residential),15/12/2020,7268,"MOSTown Phase 4 (non-residential), Sha Tin","22.42461,114.23245"
Sha Tin,MOSTown Phase 4 (non-residential),15/12/2020,7844,"MOSTown Phase 4 (non-residential), Sha Tin","22.42461,114.23245"
Sha Tin,MOSTown Phase 4 (non-residential),15/12/2020,7845,"MOSTown Phase 4 (non-residential), Sha Tin","22.42461,114.23245"
Sha Tin,MOSTown Phase 4 (non-residential),15/12/2020,7945,"MOSTown Phase 4 (non-residential), Sha Tin","22.42461,114.23245"
Eastern,Olympia Plaza Choi Fook Delight Banquet (non-residential),15/12/2020,6895,"Olympia Plaza Choi Fook Delight Banquet (non-residential), Eastern","22.28984,114.19447"
Eastern,Olympia Plaza Choi Fook Delight Banquet (non-residential),15/12/2020,7104,"Olympia Plaza Choi Fook Delight Banquet (non-residential), Eastern","22.28984,114.19447"
Eastern,Olympia Plaza Choi Fook Delight Banquet (non-residential),15/12/2020,7802,"Olympia Plaza Choi Fook Delight Banquet (non-residential), Eastern","22.28984,114.19447"
Sham Shui Po,Cheung Sha Wan Government Offices (non-residential),15/12/2020,7396,"Cheung Sha Wan Government Offices (non-residential), Sham Shui Po","22.33182,114.16035"
Sham Shui Po,Cheung Sha Wan Government Offices (non-residential),15/12/2020,7647,"Cheung Sha Wan Government Offices (non-residential), Sham Shui Po","22.33182,114.16035"
Sham Shui Po,Cheung Sha Wan Government Offices (non-residential),15/12/2020,7650,"Cheung Sha Wan Government Offices (non-residential), Sham Shui Po","22.33182,114.16035"
Sham Shui Po,Cheung Sha Wan Government Offices (non-residential),15/12/2020,7757,"Cheung Sha Wan Government Offices (non-residential), Sham Shui Po","22.33182,114.16035"
Sham Shui Po,Cheung Sha Wan Government Offices (non-residential),15/12/2020,7994,"Cheung Sha Wan Government Offices (non-residential), Sham Shui Po","22.33182,114.16035"
Kwun Tong,1 Hung To Road (non-residential),15/12/2020,7459,"1 Hung To Road (non-residential), Kwun Tong","22.31461,114.21855"
Kwun Tong,1 Hung To Road (non-residential),15/12/2020,7794,"1 Hung To Road (non-residential), Kwun Tong","22.31461,114.21855"
Kwun Tong,1 Hung To Road (non-residential),15/12/2020,7882,"1 Hung To Road (non-residential), Kwun Tong","22.31461,114.21855"
Kwun Tong,1 Hung To Road (non-residential),15/12/2020,8019,"1 Hung To Road (non-residential), Kwun Tong","22.31461,114.21855"
Yau Tsim Mong,Mong Kok Market (non-residential),15/12/2020,7556,"Mong Kok Market (non-residential), Yau Tsim Mong","22.40625,113.96671"
Yau Tsim Mong,Mong Kok Market (non-residential),15/12/2020,7960,"Mong Kok Market (non-residential), Yau Tsim Mong","22.40625,113.96671"
Wan Chai,Times Square Sen-ryo (non-residential),15/12/2020,7672,"Times Square Sen-ryo (non-residential), Wan Chai","22.27828,114.18247"
Wan Chai,Times Square Sen-ryo (non-residential),15/12/2020,7851,"Times Square Sen-ryo (non-residential), Wan Chai","22.27828,114.18247"
Sha Tin,Mei Lam Commercial Centre Green River Restaurant (non-residential),15/12/2020,7953,"Mei Lam Commercial Centre Green River Restaurant (non-residential), Sha Tin","22.32267,114.24897"
Sha Tin,Mei Lam Commercial Centre Green River Restaurant (non-residential),15/12/2020,7955,"Mei Lam Commercial Centre Green River Restaurant (non-residential), Sha Tin","22.32267,114.24897"
Eastern,Hing Wah Plaza  (non-residential),15/12/2020,7968,"Hing Wah Plaza  (non-residential), Eastern","22.26287,114.23548"
Eastern,Hing Wah Plaza  (non-residential),15/12/2020,7969,"Hing Wah Plaza  (non-residential), Eastern","22.26287,114.23548"
Eastern,Hing Wah Plaza  (non-residential),15/12/2020,8025,"Hing Wah Plaza  (non-residential), Eastern","22.26287,114.23548"
Kowloon City,78A To Kwa Wan Road Hon Po Restaurant (non-residential),15/12/2020,8044,"78A To Kwa Wan Road Hon Po Restaurant (non-residential), Kowloon City","22.31556,114.18599"
Kowloon City,78A To Kwa Wan Road Hon Po Restaurant (non-residential),15/12/2020,8152,"78A To Kwa Wan Road Hon Po Restaurant (non-residential), Kowloon City","22.31556,114.18599"
Sha Tin,Tai Wai Market (non-residential),16/12/2020,5730,"Tai Wai Market (non-residential), Sha Tin","22.31733,114.18811"
Sha Tin,Tai Wai Market (non-residential),16/12/2020,5883,"Tai Wai Market (non-residential), Sha Tin","22.31733,114.18811"
Sha Tin,Tai Wai Market (non-residential),16/12/2020,6892,"Tai Wai Market (non-residential), Sha Tin","22.31733,114.18811"
Sha Tin,Tai Wai Market (non-residential),16/12/2020,7601,"Tai Wai Market (non-residential), Sha Tin","22.31733,114.18811"
Sha Tin,Tai Wai Market (non-residential),16/12/2020,7955,"Tai Wai Market (non-residential), Sha Tin","22.31733,114.18811"
Tsuen Wan,Yeung Uk Road Municipal Services Building (non-residential),16/12/2020,6509,"Yeung Uk Road Municipal Services Building (non-residential), Tsuen Wan","22.36601,114.12028"
Tsuen Wan,Yeung Uk Road Municipal Services Building (non-residential),16/12/2020,6860,"Yeung Uk Road Municipal Services Building (non-residential), Tsuen Wan","22.36601,114.12028"
Tsuen Wan,Yeung Uk Road Municipal Services Building (non-residential),16/12/2020,7006,"Yeung Uk Road Municipal Services Building (non-residential), Tsuen Wan","22.36601,114.12028"
Tsuen Wan,Yeung Uk Road Municipal Services Building (non-residential),16/12/2020,7520,"Yeung Uk Road Municipal Services Building (non-residential), Tsuen Wan","22.36601,114.12028"
Tsuen Wan,Yeung Uk Road Municipal Services Building (non-residential),16/12/2020,7795,"Yeung Uk Road Municipal Services Building (non-residential), Tsuen Wan","22.36601,114.12028"
Tsuen Wan,Yeung Uk Road Municipal Services Building (non-residential),16/12/2020,8201,"Yeung Uk Road Municipal Services Building (non-residential), Tsuen Wan","22.36601,114.12028"
Yau Tsim Mong,Good Hope Building (non-residential),16/12/2020,7499,"Good Hope Building (non-residential), Yau Tsim Mong","22.3173,114.17013"
Yau Tsim Mong,Good Hope Building (non-residential),16/12/2020,7889,"Good Hope Building (non-residential), Yau Tsim Mong","22.3173,114.17013"
Wong Tai Sin,G/F 1 Fu Chi Path (non-residential),16/12/2020,7599,"G/F 1 Fu Chi Path (non-residential), Wong Tai Sin","22.33584,114.20803"
Wong Tai Sin,G/F 1 Fu Chi Path (non-residential),16/12/2020,7962,"G/F 1 Fu Chi Path (non-residential), Wong Tai Sin","22.33584,114.20803"
Tai Po,Fu Heng Shopping Centre Carnival Seafood Restaurant (non-residential),16/12/2020,7728,"Fu Heng Shopping Centre Carnival Seafood Restaurant (non-residential), Tai Po","22.45831,114.17135"
Tai Po,Fu Heng Shopping Centre Carnival Seafood Restaurant (non-residential),16/12/2020,7990,"Fu Heng Shopping Centre Carnival Seafood Restaurant (non-residential), Tai Po","22.45831,114.17135"
Sha Tin,MOSTown (non-residential),16/12/2020,7961,"MOSTown (non-residential), Sha Tin","22.42508,114.23021"
Sha Tin,MOSTown (non-residential),16/12/2020,8135,"MOSTown (non-residential), Sha Tin","22.42508,114.23021"
Yau Tsim Mong,Langham Place Office Tower (non-residential),17/12/2020,7123,"Langham Place Office Tower (non-residential), Yau Tsim Mong","22.31883,114.16849"
Yau Tsim Mong,Langham Place Office Tower (non-residential),17/12/2020,8116,"Langham Place Office Tower (non-residential), Yau Tsim Mong","22.31883,114.16849"
Yau Tsim Mong,Langham Place Office Tower (non-residential),17/12/2020,8135,"Langham Place Office Tower (non-residential), Yau Tsim Mong","22.31883,114.16849"
Sha Tin,Chung On Shopping Centre (non-residential),17/12/2020,7604,"Chung On Shopping Centre (non-residential), Sha Tin","22.4218,114.22659"
Sha Tin,Chung On Shopping Centre (non-residential),17/12/2020,8174,"Chung On Shopping Centre (non-residential), Sha Tin","22.4218,114.22659"
Sha Tin,MTR Ho Tung Lau Depot (non-residential),17/12/2020,7756,"MTR Ho Tung Lau Depot (non-residential), Sha Tin","22.30918,113.99008"
Sha Tin,MTR Ho Tung Lau Depot (non-residential),17/12/2020,7974,"MTR Ho Tung Lau Depot (non-residential), Sha Tin","22.30918,113.99008"
Sha Tin,Lung Hang Shopping Centre Rich Forex Restaurant (non-residential),17/12/2020,7953,"Lung Hang Shopping Centre Rich Forex Restaurant (non-residential), Sha Tin","22.36824,114.17964"
Sha Tin,Lung Hang Shopping Centre Rich Forex Restaurant (non-residential),17/12/2020,7955,"Lung Hang Shopping Centre Rich Forex Restaurant (non-residential), Sha Tin","22.36824,114.17964"
Eastern,Siu Sai Wan Plaza (non-residential),17/12/2020,8023,"Siu Sai Wan Plaza (non-residential), Eastern","22.26268,114.24875"
Eastern,Siu Sai Wan Plaza (non-residential),17/12/2020,8148,"Siu Sai Wan Plaza (non-residential), Eastern","22.26268,114.24875"
Eastern,North Point Government Offices (non-residential),18/12/2020,7819,"North Point Government Offices (non-residential), Eastern","22.29229,114.20839"
Eastern,North Point Government Offices (non-residential),18/12/2020,8276,"North Point Government Offices (non-residential), Eastern","22.29229,114.20839"
Kwun Tong,On Tat Shopping Centre South Wing Kam Yuen Restaurant (non-residential),18/12/2020,8028,"On Tat Shopping Centre South Wing Kam Yuen Restaurant (non-residential), Kwun Tong","22.3203,114.23492"
Kwun Tong,On Tat Shopping Centre South Wing Kam Yuen Restaurant (non-residential),18/12/2020,8061,"On Tat Shopping Centre South Wing Kam Yuen Restaurant (non-residential), Kwun Tong","22.3203,114.23492"
Sai Kung,MCP Discovery Euphoric Banquet (non-residential),18/12/2020,8127,"MCP Discovery Euphoric Banquet (non-residential), Sai Kung","22.32239,114.25688"
Sai Kung,MCP Discovery Euphoric Banquet (non-residential),18/12/2020,8162,"MCP Discovery Euphoric Banquet (non-residential), Sai Kung","22.32239,114.25688"
Sha Tin,Lung Hang Market (non-residential),19/12/2020,5909,"Lung Hang Market (non-residential), Sha Tin","22.36791,114.17875"
Sha Tin,Lung Hang Market (non-residential),19/12/2020,6778,"Lung Hang Market (non-residential), Sha Tin","22.36791,114.17875"
Sha Tin,Lung Hang Market (non-residential),19/12/2020,6779,"Lung Hang Market (non-residential), Sha Tin","22.36791,114.17875"
Sha Tin,Lung Hang Market (non-residential),19/12/2020,7286,"Lung Hang Market (non-residential), Sha Tin","22.36791,114.17875"
Sha Tin,Lung Hang Market (non-residential),19/12/2020,8341,"Lung Hang Market (non-residential), Sha Tin","22.36791,114.17875"
Kwun Tong,Kwun Tong Industrial Centre Phase 2 (non-residential),19/12/2020,6302,"Kwun Tong Industrial Centre Phase 2 (non-residential), Kwun Tong","22.31065,114.22765"
Kwun Tong,Kwun Tong Industrial Centre Phase 2 (non-residential),19/12/2020,6305,"Kwun Tong Industrial Centre Phase 2 (non-residential), Kwun Tong","22.31065,114.22765"
Kwun Tong,Kwun Tong Industrial Centre Phase 2 (non-residential),19/12/2020,8324,"Kwun Tong Industrial Centre Phase 2 (non-residential), Kwun Tong","22.31065,114.22765"
Sha Tin,Shek Mun Shopping Centre (non-residential),19/12/2020,7343,"Shek Mun Shopping Centre (non-residential), Sha Tin","22.36493,114.13832"
Sha Tin,Shek Mun Shopping Centre (non-residential),19/12/2020,7505,"Shek Mun Shopping Centre (non-residential), Sha Tin","22.36493,114.13832"
Sha Tin,Shek Mun Shopping Centre (non-residential),19/12/2020,8112,"Shek Mun Shopping Centre (non-residential), Sha Tin","22.36493,114.13832"
Wan Chai,Lockhart Road Market (non-residential),19/12/2020,7493,"Lockhart Road Market (non-residential), Wan Chai","22.27896,114.17752"
Wan Chai,Lockhart Road Market (non-residential),19/12/2020,7939,"Lockhart Road Market (non-residential), Wan Chai","22.27896,114.17752"
Wan Chai,Lockhart Road Market (non-residential),19/12/2020,8075,"Lockhart Road Market (non-residential), Wan Chai","22.27896,114.17752"
Wan Chai,Lockhart Road Market (non-residential),19/12/2020,8304,"Lockhart Road Market (non-residential), Wan Chai","22.27896,114.17752"
Kwai Tsing,Kwai Shing East Shopping Centre (non-residential),20/12/2020,7058,"Kwai Shing East Shopping Centre (non-residential), Kwai Tsing","22.36417,114.1269"
Kwai Tsing,Kwai Shing East Shopping Centre (non-residential),20/12/2020,7178,"Kwai Shing East Shopping Centre (non-residential), Kwai Tsing","22.36417,114.1269"
Kwai Tsing,Kwai Shing East Shopping Centre (non-residential),20/12/2020,7994,"Kwai Shing East Shopping Centre (non-residential), Kwai Tsing","22.36417,114.1269"
Kwai Tsing,Kwai Shing East Shopping Centre (non-residential),20/12/2020,8325,"Kwai Shing East Shopping Centre (non-residential), Kwai Tsing","22.36417,114.1269"
Kwun Tong,Sceneway Plaza (non-residential),20/12/2020,7398,"Sceneway Plaza (non-residential), Kwun Tong","22.30695,114.23313"
Kwun Tong,Sceneway Plaza (non-residential),20/12/2020,7790,"Sceneway Plaza (non-residential), Kwun Tong","22.30695,114.23313"
Kwun Tong,Sceneway Plaza (non-residential),20/12/2020,8397,"Sceneway Plaza (non-residential), Kwun Tong","22.30695,114.23313"
Kwun Tong,Sceneway Plaza (non-residential),20/12/2020,8447,"Sceneway Plaza (non-residential), Kwun Tong","22.30695,114.23313"
Sai Kung,TKO Spot (non-residential),21/12/2020,7388,"TKO Spot (non-residential), Sai Kung","22.35341,114.24869"
Sai Kung,TKO Spot (non-residential),21/12/2020,7819,"TKO Spot (non-residential), Sai Kung","22.35341,114.24869"
Sai Kung,TKO Spot (non-residential),21/12/2020,8266,"TKO Spot (non-residential), Sai Kung","22.35341,114.24869"
Sai Kung,TKO Spot (non-residential),21/12/2020,8295,"TKO Spot (non-residential), Sai Kung","22.35341,114.24869"
Sai Kung,TKO Spot (non-residential),21/12/2020,8519,"TKO Spot (non-residential), Sai Kung","22.35341,114.24869"
Wong Tai Sin,67 Lung Chi Path  (non-residential),21/12/2020,8401,"67 Lung Chi Path  (non-residential), Wong Tai Sin","22.33552,114.20878"
Wong Tai Sin,67 Lung Chi Path  (non-residential),21/12/2020,8414,"67 Lung Chi Path  (non-residential), Wong Tai Sin","22.33552,114.20878"
Kwun Tong,Kai Tin Shopping Centre (non-residential),22/12/2020,5897,"Kai Tin Shopping Centre (non-residential), Kwun Tong","22.30864,114.23485"
Kwun Tong,Kai Tin Shopping Centre (non-residential),22/12/2020,6570,"Kai Tin Shopping Centre (non-residential), Kwun Tong","22.30864,114.23485"
Kwun Tong,Kai Tin Shopping Centre (non-residential),22/12/2020,6735,"Kai Tin Shopping Centre (non-residential), Kwun Tong","22.30864,114.23485"
Kwun Tong,Kai Tin Shopping Centre (non-residential),22/12/2020,6988,"Kai Tin Shopping Centre (non-residential), Kwun Tong","22.30864,114.23485"
Kwun Tong,Kai Tin Shopping Centre (non-residential),22/12/2020,7398,"Kai Tin Shopping Centre (non-residential), Kwun Tong","22.30864,114.23485"
Kwun Tong,Kai Tin Shopping Centre (non-residential),22/12/2020,7478,"Kai Tin Shopping Centre (non-residential), Kwun Tong","22.30864,114.23485"
Kwun Tong,Kai Tin Shopping Centre (non-residential),22/12/2020,7539,"Kai Tin Shopping Centre (non-residential), Kwun Tong","22.30864,114.23485"
Kwun Tong,Kai Tin Shopping Centre (non-residential),22/12/2020,8028,"Kai Tin Shopping Centre (non-residential), Kwun Tong","22.30864,114.23485"
Kwun Tong,Kai Tin Shopping Centre (non-residential),22/12/2020,8358,"Kai Tin Shopping Centre (non-residential), Kwun Tong","22.30864,114.23485"
Kwun Tong,Kai Tin Shopping Centre (non-residential),22/12/2020,8577,"Kai Tin Shopping Centre (non-residential), Kwun Tong","22.30864,114.23485"
Sai Kung,Monterey Place (non-residential),22/12/2020,8198,"Monterey Place (non-residential), Sai Kung","22.30177,114.26232"
Sai Kung,Monterey Place (non-residential),22/12/2020,8623,"Monterey Place (non-residential), Sai Kung","22.30177,114.26232"
Kowloon City,Kowloon City Municipal Services Building Lok Yuen (non-residential),22/12/2020,8430,"Kowloon City Municipal Services Building Lok Yuen (non-residential), Kowloon City","22.32955,114.18902"
Kowloon City,Kowloon City Municipal Services Building Lok Yuen (non-residential),22/12/2020,8434,"Kowloon City Municipal Services Building Lok Yuen (non-residential), Kowloon City","22.32955,114.18902"
Kowloon City,To Kwa Wan Market (non-residential),23/12/2020,5663,"To Kwa Wan Market (non-residential), Kowloon City","22.31556,114.18599"
Kowloon City,To Kwa Wan Market (non-residential),23/12/2020,5925,"To Kwa Wan Market (non-residential), Kowloon City","22.31556,114.18599"
Kowloon City,To Kwa Wan Market (non-residential),23/12/2020,8172,"To Kwa Wan Market (non-residential), Kowloon City","22.31556,114.18599"
Kowloon City,To Kwa Wan Market (non-residential),23/12/2020,8509,"To Kwa Wan Market (non-residential), Kowloon City","22.31556,114.18599"
Kwun Tong,Shui Wo Street Municipal Services Building (non-residential),23/12/2020,6977,"Shui Wo Street Municipal Services Building (non-residential), Kwun Tong","22.31568,114.22429"
Kwun Tong,Shui Wo Street Municipal Services Building (non-residential),23/12/2020,7090,"Shui Wo Street Municipal Services Building (non-residential), Kwun Tong","22.31568,114.22429"
Kwun Tong,Shui Wo Street Municipal Services Building (non-residential),23/12/2020,7401,"Shui Wo Street Municipal Services Building (non-residential), Kwun Tong","22.31568,114.22429"
Kwun Tong,Shui Wo Street Municipal Services Building (non-residential),23/12/2020,7555,"Shui Wo Street Municipal Services Building (non-residential), Kwun Tong","22.31568,114.22429"
Kwun Tong,Shui Wo Street Municipal Services Building (non-residential),23/12/2020,7564,"Shui Wo Street Municipal Services Building (non-residential), Kwun Tong","22.31568,114.22429"
Kwun Tong,Shui Wo Street Municipal Services Building (non-residential),23/12/2020,7639,"Shui Wo Street Municipal Services Building (non-residential), Kwun Tong","22.31568,114.22429"
Kwun Tong,Shui Wo Street Municipal Services Building (non-residential),23/12/2020,8099,"Shui Wo Street Municipal Services Building (non-residential), Kwun Tong","22.31568,114.22429"
Kwun Tong,Shui Wo Street Municipal Services Building (non-residential),23/12/2020,8632,"Shui Wo Street Municipal Services Building (non-residential), Kwun Tong","22.31568,114.22429"
Wong Tai Sin,Tsz Wan Shan Shopping Centre (non-residential),23/12/2020,7591,"Tsz Wan Shan Shopping Centre (non-residential), Wong Tai Sin","22.3486,114.20036"
Wong Tai Sin,Tsz Wan Shan Shopping Centre (non-residential),23/12/2020,7600,"Tsz Wan Shan Shopping Centre (non-residential), Wong Tai Sin","22.3486,114.20036"
Wong Tai Sin,Tsz Wan Shan Shopping Centre (non-residential),23/12/2020,8472,"Tsz Wan Shan Shopping Centre (non-residential), Wong Tai Sin","22.3486,114.20036"
Eastern,98 Java Road Kung Fu Dim Sum (non-residential),23/12/2020,7802,"98 Java Road Kung Fu Dim Sum (non-residential), Eastern","22.29203,114.1997"
Eastern,98 Java Road Kung Fu Dim Sum (non-residential),23/12/2020,8416,"98 Java Road Kung Fu Dim Sum (non-residential), Eastern","22.29203,114.1997"
Eastern,98 Java Road Kung Fu Dim Sum (non-residential),23/12/2020,8454,"98 Java Road Kung Fu Dim Sum (non-residential), Eastern","22.29203,114.1997"
Yau Tsim Mong,K11 Musea (non-residential),23/12/2020,7945,"K11 Musea (non-residential), Yau Tsim Mong","22.29774,114.17324"
Yau Tsim Mong,K11 Musea (non-residential),23/12/2020,8165,"K11 Musea (non-residential), Yau Tsim Mong","22.29774,114.17324"
Yau Tsim Mong,K11 Musea (non-residential),23/12/2020,8578,"K11 Musea (non-residential), Yau Tsim Mong","22.29774,114.17324"
Central & Western,Smithfield Municipal Services Building (non-residential),23/12/2020,8167,"Smithfield Municipal Services Building (non-residential), Central & Western","22.28177,114.12868"
Central & Western,Smithfield Municipal Services Building (non-residential),23/12/2020,8214,"Smithfield Municipal Services Building (non-residential), Central & Western","22.28177,114.12868"
Central & Western,Smithfield Municipal Services Building (non-residential),23/12/2020,8428,"Smithfield Municipal Services Building (non-residential), Central & Western","22.28177,114.12868"
Yau Tsim Mong,Star House (non-residential),23/12/2020,8255,"Star House (non-residential), Yau Tsim Mong","22.29468,114.169"
Yau Tsim Mong,Star House (non-residential),23/12/2020,8726,"Star House (non-residential), Yau Tsim Mong","22.29468,114.169"
Tai Po,Tai Wo Plaza (non-residential),23/12/2020,8327,"Tai Wo Plaza (non-residential), Tai Po","22.45058,114.16081"
Tai Po,Tai Wo Plaza (non-residential),23/12/2020,8488,"Tai Wo Plaza (non-residential), Tai Po","22.45058,114.16081"
Kwun Tong,MegaBox (non-residential),23/12/2020,8333,"MegaBox (non-residential), Kwun Tong","22.31959,114.2085"
Kwun Tong,MegaBox (non-residential),23/12/2020,8508,"MegaBox (non-residential), Kwun Tong","22.31959,114.2085"
Yau Tsim Mong,Good Hope Building London Restaurant (non-residential),24/12/2020,5892,"Good Hope Building London Restaurant (non-residential), Yau Tsim Mong","22.3173,114.17013"
Yau Tsim Mong,Good Hope Building London Restaurant (non-residential),24/12/2020,6838,"Good Hope Building London Restaurant (non-residential), Yau Tsim Mong","22.3173,114.17013"
Yau Tsim Mong,Good Hope Building London Restaurant (non-residential),24/12/2020,8469,"Good Hope Building London Restaurant (non-residential), Yau Tsim Mong","22.3173,114.17013"
Yuen Long,T Town (non-residential),24/12/2020,8096,"T Town (non-residential), Yuen Long","22.46244,113.99786"
Yuen Long,T Town (non-residential),24/12/2020,8482,"T Town (non-residential), Yuen Long","22.46244,113.99786"
Yau Tsim Mong,MOKO (non-residential),24/12/2020,8198,"MOKO (non-residential), Yau Tsim Mong","22.39095,114.31826"
Yau Tsim Mong,MOKO (non-residential),24/12/2020,8761,"MOKO (non-residential), Yau Tsim Mong","22.39095,114.31826"
Kwai Tsing,South China Industrial Building (non-residential),24/12/2020,8518,"South China Industrial Building (non-residential), Kwai Tsing","22.3692,114.13679"
Kwai Tsing,South China Industrial Building (non-residential),24/12/2020,8586,"South China Industrial Building (non-residential), Kwai Tsing","22.3692,114.13679"
Yau Tsim Mong,One Knutsford (non-residential),24/12/2020,8579,"One Knutsford (non-residential), Yau Tsim Mong","22.30122,114.17312"
Yau Tsim Mong,One Knutsford (non-residential),24/12/2020,8687,"One Knutsford (non-residential), Yau Tsim Mong","22.30122,114.17312"
Tsuen Wan,Tai Hung Fai (Tsuen Wan) E Pot (non-residential),24/12/2020,8840,"Tai Hung Fai (Tsuen Wan) E Pot (non-residential), Tsuen Wan","22.37007,114.11671"
Tsuen Wan,Tai Hung Fai (Tsuen Wan) E Pot (non-residential),24/12/2020,8841,"Tai Hung Fai (Tsuen Wan) E Pot (non-residential), Tsuen Wan","22.37007,114.11671"
Sai Kung,Beverly Garden Shopping Centre (non-residential),25/12/2020,7819,"Beverly Garden Shopping Centre (non-residential), Sai Kung","22.31031,114.26172"
Sai Kung,Beverly Garden Shopping Centre (non-residential),25/12/2020,8266,"Beverly Garden Shopping Centre (non-residential), Sai Kung","22.31031,114.26172"
Sai Kung,Beverly Garden Shopping Centre (non-residential),25/12/2020,8519,"Beverly Garden Shopping Centre (non-residential), Sai Kung","22.31031,114.26172"
Sai Kung,Beverly Garden Shopping Centre (non-residential),25/12/2020,8686,"Beverly Garden Shopping Centre (non-residential), Sai Kung","22.31031,114.26172"
Kwai Tsing,Metroplaza (non-residential),25/12/2020,7991,"Metroplaza (non-residential), Kwai Tsing","22.35709,114.12709"
Kwai Tsing,Metroplaza (non-residential),25/12/2020,8394,"Metroplaza (non-residential), Kwai Tsing","22.35709,114.12709"
Kwai Tsing,Metroplaza (non-residential),25/12/2020,8579,"Metroplaza (non-residential), Kwai Tsing","22.35709,114.12709"
Yau Tsim Mong,Harbour City (non-residential),25/12/2020,8168,"Harbour City (non-residential), Yau Tsim Mong","22.296,114.16867"
Yau Tsim Mong,Harbour City (non-residential),25/12/2020,8777,"Harbour City (non-residential), Yau Tsim Mong","22.296,114.16867"
Yau Tsim Mong,Harbour City (non-residential),25/12/2020,8835,"Harbour City (non-residential), Yau Tsim Mong","22.296,114.16867"
Sai Kung,Tsui Lam Square (non-residential),25/12/2020,8392,"Tsui Lam Square (non-residential), Sai Kung","22.32468,114.24797"
Sai Kung,Tsui Lam Square (non-residential),25/12/2020,8621,"Tsui Lam Square (non-residential), Sai Kung","22.32468,114.24797"
Eastern,G/F Perfect Mount Gardens (non-residential),25/12/2020,8508,"G/F Perfect Mount Gardens (non-residential), Eastern","22.27906,114.22927"
Eastern,G/F Perfect Mount Gardens (non-residential),25/12/2020,8577,"G/F Perfect Mount Gardens (non-residential), Eastern","22.27906,114.22927"
Southern,Hong Kong Ocean Park Marriott Hotel (non-residential),25/12/2020,8520,"Hong Kong Ocean Park Marriott Hotel (non-residential), Southern","22.24795,114.17588"
Sai Kung,Metro City Phase II King Harbour Restaurant (non-residential),25/12/2020,8522,"Metro City Phase II King Harbour Restaurant (non-residential), Sai Kung","22.32427,114.25765"
Southern,Lei Tung Commercial Centre Caf de Coral (non-residential),25/12/2020,8565,"Lei Tung Commercial Centre Caf de Coral (non-residential), Southern","22.24105,114.15583"
Southern,Lei Tung Commercial Centre Caf de Coral (non-residential),25/12/2020,8569,"Lei Tung Commercial Centre Caf de Coral (non-residential), Southern","22.24105,114.15583"
Sai Kung,Kai Ham Tsuen (non-residential),25/12/2020,8579,"Kai Ham Tsuen (non-residential), Sai Kung","22.35905,114.23592"
Kwai Tsing,Kwai Chung Plaza  (non-residential),25/12/2020,8579,"Kwai Chung Plaza  (non-residential), Kwai Tsing","22.3581,114.12762"
Sai Kung,The LOHAS Tai Hing (non-residential),25/12/2020,8581,"The LOHAS Tai Hing (non-residential), Sai Kung","22.39214,114.29794"
Yuen Long,Fortune Kingswood Phase 2 Yat Palace Dining (non-residential),25/12/2020,8586,"Fortune Kingswood Phase 2 Yat Palace Dining (non-residential), Yuen Long","22.43193,114.02491"
Sham Shui Po,Lai Chi Kok Reception Centre (non-residential),25/12/2020,8593,"Lai Chi Kok Reception Centre (non-residential), Sham Shui Po","22.34016,114.13851"
Sham Shui Po,Sing Shun Centre Subway (non-residential),25/12/2020,8593,"Sing Shun Centre Subway (non-residential), Sham Shui Po","22.32989,114.22651"
North,Sheung Shui Division Police Station (non-residential),25/12/2020,8599,"Sheung Shui Division Police Station (non-residential), North","22.28474,113.94225"
North,Ta Kwu Ling Division Police Station (non-residential),25/12/2020,8599,"Ta Kwu Ling Division Police Station (non-residential), North","22.31531,114.17771"
Sai Kung,Park Central (non-residential),25/12/2020,8605,"Park Central (non-residential), Sai Kung","22.39788,114.31954"
Yau Tsim Mong,Chow Tai Fook Centre (non-residential),25/12/2020,8608,"Chow Tai Fook Centre (non-residential), Yau Tsim Mong","22.31561,114.1704"
Yau Tsim Mong,Nathan Centre (non-residential),25/12/2020,8608,"Nathan Centre (non-residential), Yau Tsim Mong","22.31586,114.17039"
Kowloon City,Block 1 Dragon View (non-residential),25/12/2020,8610,"Block 1 Dragon View (non-residential), Kowloon City","22.31611,114.17879"
Central & Western,IFC Mall (non-residential),25/12/2020,8615,"IFC Mall (non-residential), Central & Western","22.28468,114.15805"
Sai Kung,Tsui Lam Square Tsui Yeun Sing Kitchen (non-residential),25/12/2020,8621,"Tsui Lam Square Tsui Yeun Sing Kitchen (non-residential), Sai Kung","22.32094,114.24849"
Kwai Tsing,Cho Yiu Centre (non-residential),25/12/2020,8644,"Cho Yiu Centre (non-residential), Kwai Tsing","22.34579,114.12872"
Sham Shui Po,G/F Aquamarine (non-residential),25/12/2020,8652,"G/F Aquamarine (non-residential), Sham Shui Po","22.33268,114.14847"
Yau Tsim Mong,Kam Lung Building  (non-residential),25/12/2020,8657,"Kam Lung Building  (non-residential), Yau Tsim Mong","22.3253,114.16629"
Yau Tsim Mong,Nan Yuen Building  (non-residential),25/12/2020,8657,"Nan Yuen Building  (non-residential), Yau Tsim Mong","22.32477,114.16666"
Yau Tsim Mong,Mongkok Commercial Centre (non-residential),25/12/2020,8686,"Mongkok Commercial Centre (non-residential), Yau Tsim Mong","22.31991,114.16609"
Wong Tai Sin,Ka Ying House Ka Keung Court (non-residential),25/12/2020,8688,"Ka Ying House Ka Keung Court (non-residential), Wong Tai Sin","22.34148,114.18467"
Wong Tai Sin,Lok Fu Shopping Centre TeaWood Taiwanese Cafe & Restaurant (non-residential),25/12/2020,8688,"Lok Fu Shopping Centre TeaWood Taiwanese Cafe & Restaurant (non-residential), Wong Tai Sin","22.35639,114.25195"
Eastern,Block 10 Aldrich Garden (non-residential),25/12/2020,8689,"Block 10 Aldrich Garden (non-residential), Eastern","22.2819,114.22847"
Tuen Mun,Leung King Plaza Caf de Itamomo (non-residential),25/12/2020,8689,"Leung King Plaza Caf de Itamomo (non-residential), Tuen Mun","22.40634,113.96271"
Tsuen Wan,L'hotel (non-residential),25/12/2020,8689,"L'hotel (non-residential), Tsuen Wan","22.36876,114.11295"
Eastern,Block 4 Lok Hin Terrace (non-residential),25/12/2020,8710,"Block 4 Lok Hin Terrace (non-residential), Eastern","22.26429,114.24111"
Yau Tsim Mong,1881 Heritage (non-residential),25/12/2020,8712,"1881 Heritage (non-residential), Yau Tsim Mong","22.29544,114.16997"
Yau Tsim Mong,Eltanin  Square Mile Lost Stars Livehouse Bar & Eatery (non-residential),25/12/2020,8712,"Eltanin  Square Mile Lost Stars Livehouse Bar & Eatery (non-residential), Yau Tsim Mong","22.32074,114.16096"
Kwun Tong,Kai Tin Shopping Centre Sushiro (non-residential),25/12/2020,8746,"Kai Tin Shopping Centre Sushiro (non-residential), Kwun Tong","22.30864,114.23485"
Sha Tin,MOSTown Victoria Harbour Restaurant (non-residential),25/12/2020,8777,"MOSTown Victoria Harbour Restaurant (non-residential), Sha Tin","22.35639,114.25195"
Yau Tsim Mong,The Toy House (non-residential),25/12/2020,8777,"The Toy House (non-residential), Yau Tsim Mong","22.29917,114.16878"
Tuen Mun,Tuen Mun Town Plaza Phase 1 Outback Steakhouse (non-residential),25/12/2020,8805,"Tuen Mun Town Plaza Phase 1 Outback Steakhouse (non-residential), Tuen Mun","22.39414,113.97613"
Kowloon City,89 Bulkeley Street (non-residential),25/12/2020,8813,"89 Bulkeley Street (non-residential), Kowloon City","22.30717,114.18545"
Sha Tin,Lung Hang Shopping Centre (non-residential),25/12/2020,8816,"Lung Hang Shopping Centre (non-residential), Sha Tin","22.36824,114.17964"
Sha Tin,Sun Chui Shopping Centre (non-residential),25/12/2020,8816,"Sun Chui Shopping Centre (non-residential), Sha Tin","22.36925,114.1811"
Yau Tsim Mong,Hong Kong Museum of Art Hue Dining (non-residential),25/12/2020,8896,"Hong Kong Museum of Art Hue Dining (non-residential), Yau Tsim Mong","22.29354,114.17217"
Tuen Mun,San Hui Market (non-residential),26/12/2020,7073,"San Hui Market (non-residential), Tuen Mun","22.39731,113.97584"
Tuen Mun,San Hui Market (non-residential),26/12/2020,7550,"San Hui Market (non-residential), Tuen Mun","22.39731,113.97584"
Tuen Mun,San Hui Market (non-residential),26/12/2020,8527,"San Hui Market (non-residential), Tuen Mun","22.39731,113.97584"
Tuen Mun,San Hui Market (non-residential),26/12/2020,8805,"San Hui Market (non-residential), Tuen Mun","22.39731,113.97584"
Kwun Tong,Tak Tin Plaza (non-residential),26/12/2020,7285,"Tak Tin Plaza (non-residential), Kwun Tong","22.31029,114.23795"
Kwun Tong,Tak Tin Plaza (non-residential),26/12/2020,7398,"Tak Tin Plaza (non-residential), Kwun Tong","22.31029,114.23795"
Kwun Tong,Tak Tin Plaza (non-residential),26/12/2020,8650,"Tak Tin Plaza (non-residential), Kwun Tong","22.31029,114.23795"
Yau Tsim Mong,Wing On Kowloon Centre (non-residential),26/12/2020,8028,"Wing On Kowloon Centre (non-residential), Yau Tsim Mong","22.30744,114.17104"
Yau Tsim Mong,Wing On Kowloon Centre (non-residential),26/12/2020,8521,"Wing On Kowloon Centre (non-residential), Yau Tsim Mong","22.30744,114.17104"
Yau Tsim Mong,Wing On Kowloon Centre (non-residential),26/12/2020,8595,"Wing On Kowloon Centre (non-residential), Yau Tsim Mong","22.30744,114.17104"
Kwun Tong,Shun Lee Shopping Centre (non-residential),26/12/2020,8169,"Shun Lee Shopping Centre (non-residential), Kwun Tong","22.33146,114.22496"
Kwun Tong,Shun Lee Shopping Centre (non-residential),26/12/2020,8808,"Shun Lee Shopping Centre (non-residential), Kwun Tong","22.33146,114.22496"
Sai Kung,PopCorn (non-residential),26/12/2020,8581,"PopCorn (non-residential), Sai Kung","22.30759,114.25965"
Sai Kung,PopCorn (non-residential),26/12/2020,8605,"PopCorn (non-residential), Sai Kung","22.30759,114.25965"
Sai Kung,The LOHAS (non-residential),26/12/2020,8588,"The LOHAS (non-residential), Sai Kung","22.29592,114.27185"
Sai Kung,The LOHAS (non-residential),26/12/2020,8931,"The LOHAS (non-residential), Sai Kung","22.29592,114.27185"
Sai Kung,Sheung Tak Plaza (non-residential),26/12/2020,8605,"Sheung Tak Plaza (non-residential), Sai Kung","22.31098,114.25887"
Kwai Tsing,Maple Tree Tsing Yi Logistics Center (non-residential),26/12/2020,8608,"Maple Tree Tsing Yi Logistics Center (non-residential), Kwai Tsing","22.3339,114.11051"
Kwai Tsing,Rambler Plaza  (non-residential),26/12/2020,8608,"Rambler Plaza  (non-residential), Kwai Tsing","22.34323,114.11029"
Sham Shui Po,Festival Walk Moon Palace (non-residential),26/12/2020,8610,"Festival Walk Moon Palace (non-residential), Sham Shui Po","22.3373,114.17457"
Kwun Tong,G/F Kwun Tong Lap Shing Building Morito (non-residential),26/12/2020,8623,"G/F Kwun Tong Lap Shing Building Morito (non-residential), Kwun Tong","22.31508,114.22166"
Yuen Long,2-4 Tai Ching Street Sam Shing Seafood Restaurant (non-residential),26/12/2020,8632,"2-4 Tai Ching Street Sam Shing Seafood Restaurant (non-residential), Yuen Long","22.44193,114.02691"
Sham Shui Po,Dragon Centre Saizeriya Italian Restaurant (non-residential),26/12/2020,8651,"Dragon Centre Saizeriya Italian Restaurant (non-residential), Sham Shui Po","22.33109,114.15977"
Sham Shui Po,Tak Po Building (non-residential),26/12/2020,8651,"Tak Po Building (non-residential), Sham Shui Po","22.31902,114.1721"
Yuen Long,Tin Shing Shopping Centre Ngan Lung Restaurant (non-residential),26/12/2020,8655,"Tin Shing Shopping Centre Ngan Lung Restaurant (non-residential), Yuen Long","22.44901,114.00275"
Tuen Mun,G/F Treasure Court (non-residential),26/12/2020,8668,"G/F Treasure Court (non-residential), Tuen Mun","22.4331,113.99792"
Kwai Tsing,Tsing Yi Municipal Services Building (non-residential),26/12/2020,8669,"Tsing Yi Municipal Services Building (non-residential), Kwai Tsing","22.35412,114.10651"
Wong Tai Sin,Temple Mall South Caf de Coral (non-residential),26/12/2020,8692,"Temple Mall South Caf de Coral (non-residential), Wong Tai Sin","22.34133,114.19419"
Kowloon City,Tak Shing Mansion (non-residential),26/12/2020,8713,"Tak Shing Mansion (non-residential), Kowloon City","22.31737,114.18876"
Wong Tai Sin,Choi Wan Commercial Complex Fairwood (non-residential),26/12/2020,8726,"Choi Wan Commercial Complex Fairwood (non-residential), Wong Tai Sin","22.3329,114.21463"
Yau Tsim Mong,Ocean Centre Cova Pasticceria & Confetteria (non-residential),26/12/2020,8751,"Ocean Centre Cova Pasticceria & Confetteria (non-residential), Yau Tsim Mong","22.296,114.16867"
Central & Western,Tung Tat Building (non-residential),26/12/2020,8753,"Tung Tat Building (non-residential), Central & Western","22.28676,114.1371"
Central & Western,Tung Tat Building (non-residential),26/12/2020,8754,"Tung Tat Building (non-residential), Central & Western","22.28676,114.1371"
Kwun Tong,Cheuk Lai House Yau Lai Estate (non-residential),26/12/2020,8767,"Cheuk Lai House Yau Lai Estate (non-residential), Kwun Tong","22.301,114.235"
Kwun Tong,"Tin Kam House, Shun Tin Estate (non-residential)",26/12/2020,8771,"Tin Kam House, Shun Tin Estate (non-residential), Kwun Tong","22.3245,114.22741"
Yuen Long,Tower 10 The Reach (non-residential),26/12/2020,8806,"Tower 10 The Reach (non-residential), Yuen Long","22.43626,114.03226"
Kwai Tsing,Mapletree logistics Hub Tsing Yi (non-residential),26/12/2020,8812,"Mapletree logistics Hub Tsing Yi (non-residential), Kwai Tsing","22.33816,114.10809"
Wan Chai,Sun Hung Kai Centre Dragon Gown (non-residential),26/12/2020,8861,"Sun Hung Kai Centre Dragon Gown (non-residential), Wan Chai","22.28032,114.17693"
Eastern,Block F Healthy Gardens (non-residential),26/12/2020,8913,"Block F Healthy Gardens (non-residential), Eastern","22.29134,114.20337"
Sai Kung,Yu Wing House Yu Ming Court (non-residential),26/12/2020,8913,"Yu Wing House Yu Ming Court (non-residential), Sai Kung","22.31839,114.26626"
Yuen Long,Hung Fuk Shopping Centre (non-residential),26/12/2020,8916,"Hung Fuk Shopping Centre (non-residential), Yuen Long","22.36493,114.13832"
Kwun Tong,Lei Yue Mun Plaza Star Seafood Restaurant (non-residential),27/12/2020,7572,"Lei Yue Mun Plaza Star Seafood Restaurant (non-residential), Kwun Tong","22.2972,114.23913"
Kwun Tong,Lei Yue Mun Plaza Star Seafood Restaurant (non-residential),27/12/2020,7579,"Lei Yue Mun Plaza Star Seafood Restaurant (non-residential), Kwun Tong","22.2972,114.23913"
Kwun Tong,Lei Yue Mun Plaza Star Seafood Restaurant (non-residential),27/12/2020,7594,"Lei Yue Mun Plaza Star Seafood Restaurant (non-residential), Kwun Tong","22.2972,114.23913"
Kwun Tong,Lei Yue Mun Plaza Star Seafood Restaurant (non-residential),27/12/2020,7596,"Lei Yue Mun Plaza Star Seafood Restaurant (non-residential), Kwun Tong","22.2972,114.23913"
Kwun Tong,Lei Yue Mun Plaza Star Seafood Restaurant (non-residential),27/12/2020,8329,"Lei Yue Mun Plaza Star Seafood Restaurant (non-residential), Kwun Tong","22.2972,114.23913"
Kwun Tong,Lei Yue Mun Plaza Star Seafood Restaurant (non-residential),27/12/2020,8335,"Lei Yue Mun Plaza Star Seafood Restaurant (non-residential), Kwun Tong","22.2972,114.23913"
Kwun Tong,Lei Yue Mun Plaza Star Seafood Restaurant (non-residential),27/12/2020,8532,"Lei Yue Mun Plaza Star Seafood Restaurant (non-residential), Kwun Tong","22.2972,114.23913"
Kwun Tong,Lei Yue Mun Plaza Star Seafood Restaurant (non-residential),27/12/2020,8533,"Lei Yue Mun Plaza Star Seafood Restaurant (non-residential), Kwun Tong","22.2972,114.23913"
Kwun Tong,Lei Yue Mun Plaza Star Seafood Restaurant (non-residential),27/12/2020,8747,"Lei Yue Mun Plaza Star Seafood Restaurant (non-residential), Kwun Tong","22.2972,114.23913"
Kwun Tong,Lei Yue Mun Plaza (non-residential),27/12/2020,7594,"Lei Yue Mun Plaza (non-residential), Kwun Tong","22.2972,114.23913"
Kwun Tong,Lei Yue Mun Plaza (non-residential),27/12/2020,7596,"Lei Yue Mun Plaza (non-residential), Kwun Tong","22.2972,114.23913"
Kwun Tong,Lei Yue Mun Plaza (non-residential),27/12/2020,8483,"Lei Yue Mun Plaza (non-residential), Kwun Tong","22.2972,114.23913"
Kwun Tong,Lei Yue Mun Plaza (non-residential),27/12/2020,8515,"Lei Yue Mun Plaza (non-residential), Kwun Tong","22.2972,114.23913"
Kwun Tong,Lei Yue Mun Plaza (non-residential),27/12/2020,8747,"Lei Yue Mun Plaza (non-residential), Kwun Tong","22.2972,114.23913"
Tuen Mun,Leung King Plaza (non-residential),27/12/2020,7884,"Leung King Plaza (non-residential), Tuen Mun","22.40634,113.96271"
Tuen Mun,Leung King Plaza (non-residential),27/12/2020,8521,"Leung King Plaza (non-residential), Tuen Mun","22.40634,113.96271"
Tuen Mun,Leung King Plaza (non-residential),27/12/2020,8689,"Leung King Plaza (non-residential), Tuen Mun","22.40634,113.96271"
Kwun Tong,Shun Lee Market (non-residential),27/12/2020,8169,"Shun Lee Market (non-residential), Kwun Tong","22.32989,114.22651"
Kwun Tong,Shun Lee Market (non-residential),27/12/2020,8676,"Shun Lee Market (non-residential), Kwun Tong","22.32989,114.22651"
Kwun Tong,United Christian Hospital (non-residential),27/12/2020,8375,"United Christian Hospital (non-residential), Kwun Tong","22.32328,114.22789"
Kwun Tong,United Christian Hospital (non-residential),27/12/2020,8376,"United Christian Hospital (non-residential), Kwun Tong","22.32328,114.22789"
Kwun Tong,United Christian Hospital (non-residential),27/12/2020,8377,"United Christian Hospital (non-residential), Kwun Tong","22.32328,114.22789"
Kwun Tong,United Christian Hospital (non-residential),27/12/2020,8512,"United Christian Hospital (non-residential), Kwun Tong","22.32328,114.22789"
Kwun Tong,United Christian Hospital (non-residential),27/12/2020,8514,"United Christian Hospital (non-residential), Kwun Tong","22.32328,114.22789"
Kwun Tong,United Christian Hospital (non-residential),27/12/2020,8540,"United Christian Hospital (non-residential), Kwun Tong","22.32328,114.22789"
Kwun Tong,United Christian Hospital (non-residential),27/12/2020,8542,"United Christian Hospital (non-residential), Kwun Tong","22.32328,114.22789"
Kwun Tong,United Christian Hospital (non-residential),27/12/2020,8545,"United Christian Hospital (non-residential), Kwun Tong","22.32328,114.22789"
Kwun Tong,United Christian Hospital (non-residential),27/12/2020,8546,"United Christian Hospital (non-residential), Kwun Tong","22.32328,114.22789"
Kwun Tong,United Christian Hospital (non-residential),27/12/2020,8547,"United Christian Hospital (non-residential), Kwun Tong","22.32328,114.22789"
Kwun Tong,United Christian Hospital (non-residential),27/12/2020,8562,"United Christian Hospital (non-residential), Kwun Tong","22.32328,114.22789"
Kwun Tong,United Christian Hospital (non-residential),27/12/2020,8563,"United Christian Hospital (non-residential), Kwun Tong","22.32328,114.22789"
Kwun Tong,United Christian Hospital (non-residential),27/12/2020,8604,"United Christian Hospital (non-residential), Kwun Tong","22.32328,114.22789"
Kwun Tong,United Christian Hospital (non-residential),27/12/2020,8623,"United Christian Hospital (non-residential), Kwun Tong","22.32328,114.22789"
Kwun Tong,United Christian Hospital (non-residential),27/12/2020,8624,"United Christian Hospital (non-residential), Kwun Tong","22.32328,114.22789"
Kwun Tong,United Christian Hospital (non-residential),27/12/2020,8625,"United Christian Hospital (non-residential), Kwun Tong","22.32328,114.22789"
Kwun Tong,United Christian Hospital (non-residential),27/12/2020,8626,"United Christian Hospital (non-residential), Kwun Tong","22.32328,114.22789"
Kwun Tong,United Christian Hospital (non-residential),27/12/2020,8633,"United Christian Hospital (non-residential), Kwun Tong","22.32328,114.22789"
Kwun Tong,United Christian Hospital (non-residential),27/12/2020,8777,"United Christian Hospital (non-residential), Kwun Tong","22.32328,114.22789"
Kwun Tong,United Christian Hospital (non-residential),27/12/2020,8848,"United Christian Hospital (non-residential), Kwun Tong","22.32328,114.22789"
Islands,Cathay Pacific Cargo Terminal (non-residential),27/12/2020,8484,"Cathay Pacific Cargo Terminal (non-residential), Islands","22.29817,113.92483"
Islands,Cathay Pacific Cargo Terminal (non-residential),27/12/2020,8691,"Cathay Pacific Cargo Terminal (non-residential), Islands","22.29817,113.92483"
Kwun Tong,Shun Lee Commercial Complex Ming Harbour Restaurant (non-residential),27/12/2020,8676,"Shun Lee Commercial Complex Ming Harbour Restaurant (non-residential), Kwun Tong","22.35174,114.1369"
Yuen Long,Kuen Yick Building (non-residential),27/12/2020,8684,"Kuen Yick Building (non-residential), Yuen Long","22.44645,114.02321"
Wong Tai Sin,Temple Mall North Tsui Wah Restaurant (non-residential),27/12/2020,8687,"Temple Mall North Tsui Wah Restaurant (non-residential), Wong Tai Sin","22.34196,114.19281"
Wong Tai Sin,Temple Mall North Tsui Wah Restaurant (non-residential),27/12/2020,8824,"Temple Mall North Tsui Wah Restaurant (non-residential), Wong Tai Sin","22.34196,114.19281"
Wong Tai Sin,Temple Mall North Fairwood (non-residential),27/12/2020,8692,"Temple Mall North Fairwood (non-residential), Wong Tai Sin","22.34196,114.19281"
Kwun Tong,"Tsuen Shek House, Ping Shek Estate  (non-residential)",27/12/2020,8750,"Tsuen Shek House, Ping Shek Estate  (non-residential), Kwun Tong","22.33378,114.20917"
Sham Shui Po,68&70 Fuk Wing Street Kung Fu Dim Sum (non-residential),27/12/2020,8751,"68&70 Fuk Wing Street Kung Fu Dim Sum (non-residential), Sham Shui Po","22.33933,114.15354"
Wan Chai,Pearl City (non-residential),27/12/2020,8751,"Pearl City (non-residential), Wan Chai","22.28099,114.18586"
Wan Chai,Windsor House (non-residential),27/12/2020,8751,"Windsor House (non-residential), Wan Chai","22.28032,114.18656"
Wan Chai,151 Lockhart Road Caf de Coral (non-residential),27/12/2020,8756,"151 Lockhart Road Caf de Coral (non-residential), Wan Chai","22.27843,114.17338"
Wan Chai,Tai Yau Plaza Delifrance (non-residential),27/12/2020,8756,"Tai Yau Plaza Delifrance (non-residential), Wan Chai","22.27699,114.17455"
Islands,Citygate (non-residential),27/12/2020,8759,"Citygate (non-residential), Islands","22.29114,113.94232"
Kwun Tong,56 Hong Ling Road Tamjai Yunnan Mixian (non-residential),27/12/2020,8764,"56 Hong Ling Road Tamjai Yunnan Mixian (non-residential), Kwun Tong","22.3156,114.22373"
Kwun Tong,Yan On Mansion (non-residential),27/12/2020,8764,"Yan On Mansion (non-residential), Kwun Tong","22.31464,114.22333"
Yau Tsim Mong,Silvercord Genki Sushi (non-residential),27/12/2020,8771,"Silvercord Genki Sushi (non-residential), Yau Tsim Mong","22.29753,114.16939"
Kowloon City,G/F Site 3 Whampoa Garden (non-residential),27/12/2020,8813,"G/F Site 3 Whampoa Garden (non-residential), Kowloon City","22.30273,114.19052"
Tuen Mun,Siu Hong Court Siu Ping House (non-residential),27/12/2020,8828,"Siu Hong Court Siu Ping House (non-residential), Tuen Mun","22.41335,113.9784"
Yuen Long,Tai Tong Organic EcoPark (non-residential),27/12/2020,8828,"Tai Tong Organic EcoPark (non-residential), Yuen Long","22.44422,114.02947"
Islands,Yat Tung Shopping Centre (non-residential),27/12/2020,8846,"Yat Tung Shopping Centre (non-residential), Islands","22.28076,113.93538"
Eastern,Siu Sai Wan Plaza Super Super Congee & Noodle (non-residential),27/12/2020,8854,"Siu Sai Wan Plaza Super Super Congee & Noodle (non-residential), Eastern","22.26268,114.24875"
Southern,The Repulse Bay The Verandah (non-residential),27/12/2020,8861,"The Repulse Bay The Verandah (non-residential), Southern","22.23897,114.19557"
Central & Western,OneArtlane (non-residential),27/12/2020,8913,"OneArtlane (non-residential), Central & Western","22.28528,114.1395"
Sham Shui Po,Golden Computer Arcade (non-residential),27/12/2020,8916,"Golden Computer Arcade (non-residential), Sham Shui Po","22.33201,114.16203"
Yau Tsim Mong,iSQUARE King's Dumpling (non-residential),27/12/2020,8916,"iSQUARE King's Dumpling (non-residential), Yau Tsim Mong","22.29699,114.17185"
Wong Tai Sin,Ngau Chi Wan Municipal Services Building (non-residential),28/12/2020,6882,"Ngau Chi Wan Municipal Services Building (non-residential), Wong Tai Sin","22.3345,114.20912"
Wong Tai Sin,Ngau Chi Wan Municipal Services Building (non-residential),28/12/2020,7028,"Ngau Chi Wan Municipal Services Building (non-residential), Wong Tai Sin","22.3345,114.20912"
Wong Tai Sin,Ngau Chi Wan Municipal Services Building (non-residential),28/12/2020,7113,"Ngau Chi Wan Municipal Services Building (non-residential), Wong Tai Sin","22.3345,114.20912"
Wong Tai Sin,Ngau Chi Wan Municipal Services Building (non-residential),28/12/2020,7439,"Ngau Chi Wan Municipal Services Building (non-residential), Wong Tai Sin","22.3345,114.20912"
Wong Tai Sin,Ngau Chi Wan Municipal Services Building (non-residential),28/12/2020,7569,"Ngau Chi Wan Municipal Services Building (non-residential), Wong Tai Sin","22.3345,114.20912"
Wong Tai Sin,Ngau Chi Wan Municipal Services Building (non-residential),28/12/2020,7688,"Ngau Chi Wan Municipal Services Building (non-residential), Wong Tai Sin","22.3345,114.20912"
Wong Tai Sin,Ngau Chi Wan Municipal Services Building (non-residential),28/12/2020,7756,"Ngau Chi Wan Municipal Services Building (non-residential), Wong Tai Sin","22.3345,114.20912"
Wong Tai Sin,Ngau Chi Wan Municipal Services Building (non-residential),28/12/2020,7771,"Ngau Chi Wan Municipal Services Building (non-residential), Wong Tai Sin","22.3345,114.20912"
Wong Tai Sin,Ngau Chi Wan Municipal Services Building (non-residential),28/12/2020,8042,"Ngau Chi Wan Municipal Services Building (non-residential), Wong Tai Sin","22.3345,114.20912"
Wong Tai Sin,Ngau Chi Wan Municipal Services Building (non-residential),28/12/2020,8128,"Ngau Chi Wan Municipal Services Building (non-residential), Wong Tai Sin","22.3345,114.20912"
Wong Tai Sin,Ngau Chi Wan Municipal Services Building (non-residential),28/12/2020,8270,"Ngau Chi Wan Municipal Services Building (non-residential), Wong Tai Sin","22.3345,114.20912"
Wong Tai Sin,Ngau Chi Wan Municipal Services Building (non-residential),28/12/2020,8414,"Ngau Chi Wan Municipal Services Building (non-residential), Wong Tai Sin","22.3345,114.20912"
Wong Tai Sin,Ngau Chi Wan Municipal Services Building (non-residential),28/12/2020,8478,"Ngau Chi Wan Municipal Services Building (non-residential), Wong Tai Sin","22.3345,114.20912"
Wong Tai Sin,Ngau Chi Wan Municipal Services Building (non-residential),28/12/2020,8479,"Ngau Chi Wan Municipal Services Building (non-residential), Wong Tai Sin","22.3345,114.20912"
Wong Tai Sin,Ngau Chi Wan Municipal Services Building (non-residential),28/12/2020,8506,"Ngau Chi Wan Municipal Services Building (non-residential), Wong Tai Sin","22.3345,114.20912"
Wong Tai Sin,Ngau Chi Wan Municipal Services Building (non-residential),28/12/2020,8763,"Ngau Chi Wan Municipal Services Building (non-residential), Wong Tai Sin","22.3345,114.20912"
Wong Tai Sin,Ngau Chi Wan Municipal Services Building (non-residential),28/12/2020,8837,"Ngau Chi Wan Municipal Services Building (non-residential), Wong Tai Sin","22.3345,114.20912"
Wong Tai Sin,Temple Mall North (non-residential),28/12/2020,7387,"Temple Mall North (non-residential), Wong Tai Sin","22.34196,114.19281"
Wong Tai Sin,Temple Mall North (non-residential),28/12/2020,7958,"Temple Mall North (non-residential), Wong Tai Sin","22.34196,114.19281"
Wong Tai Sin,Temple Mall North (non-residential),28/12/2020,8812,"Temple Mall North (non-residential), Wong Tai Sin","22.34196,114.19281"
Kowloon City,Kowloon City Plaza (non-residential),28/12/2020,8556,"Kowloon City Plaza (non-residential), Kowloon City","22.32437,114.18489"
Kowloon City,Kowloon City Plaza (non-residential),28/12/2020,8608,"Kowloon City Plaza (non-residential), Kowloon City","22.32437,114.18489"
Kowloon City,Kowloon City Plaza (non-residential),28/12/2020,8820,"Kowloon City Plaza (non-residential), Kowloon City","22.32437,114.18489"
Kowloon City,Kowloon City Plaza (non-residential),28/12/2020,8841,"Kowloon City Plaza (non-residential), Kowloon City","22.32437,114.18489"
Tsuen Wan,Excelsior Building (non-residential),28/12/2020,8685,"Excelsior Building (non-residential), Tsuen Wan","22.3729,114.11"
Sha Tin,Kinho Industrial Building (non-residential),28/12/2020,8706,"Kinho Industrial Building (non-residential), Sha Tin","22.39799,114.1949"
Wan Chai,Greenfield Mansion King Ludwig Beerhall (non-residential),28/12/2020,8707,"Greenfield Mansion King Ludwig Beerhall (non-residential), Wan Chai","22.28165,114.18623"
Kwai Tsing,Kwai Shing Industrial Building (non-residential),28/12/2020,8711,"Kwai Shing Industrial Building (non-residential), Kwai Tsing","22.3644,114.13361"
Eastern,Harbour Plaza North Point (non-residential),28/12/2020,8724,"Harbour Plaza North Point (non-residential), Eastern","22.29153,114.20865"
Wong Tai Sin,Choi Wan Commercial Complex (non-residential),28/12/2020,8726,"Choi Wan Commercial Complex (non-residential), Wong Tai Sin","22.3329,114.21463"
Wong Tai Sin,Choi Wan Commercial Complex (non-residential),28/12/2020,8728,"Choi Wan Commercial Complex (non-residential), Wong Tai Sin","22.3329,114.21463"
Wong Tai Sin,Choi Wan Commercial Complex (non-residential),28/12/2020,8837,"Choi Wan Commercial Complex (non-residential), Wong Tai Sin","22.3329,114.21463"
North,Fanling Centre (non-residential),28/12/2020,8743,"Fanling Centre (non-residential), North","22.48997,114.14256"
Wong Tai Sin,Lok Fu Plaza (non-residential),28/12/2020,8765,"Lok Fu Plaza (non-residential), Wong Tai Sin","22.33847,114.18751"
Wong Tai Sin,Lok Fu Shopping Centre  (non-residential),28/12/2020,8765,"Lok Fu Shopping Centre  (non-residential), Wong Tai Sin","22.36493,114.13832"
Kowloon City,19 Yuk Yat Street (non-residential),28/12/2020,8770,"19 Yuk Yat Street (non-residential), Kowloon City","22.31669,114.19192"
Islands,Ying Tung Shopping Centre  (non-residential),28/12/2020,8828,"Ying Tung Shopping Centre  (non-residential), Islands","22.29653,113.95307"
Wong Tai Sin,G/F Man Tak House (non-residential),28/12/2020,8837,"G/F Man Tak House (non-residential), Wong Tai Sin","22.34137,114.19504"
Kowloon City,Fuk Lo Tsun Road Ngan Lung Restaurant (non-residential),28/12/2020,8840,"Fuk Lo Tsun Road Ngan Lung Restaurant (non-residential), Kowloon City","22.32961,114.18778"
Kowloon City,Lion Rock Road  (non-residential),28/12/2020,8840,"Lion Rock Road  (non-residential), Kowloon City","22.32786,114.18794"
Southern,Parkview House (non-residential),28/12/2020,8845,"Parkview House (non-residential), Southern","22.24753,114.15598"
Eastern,46 Tanner Road  (non-residential),28/12/2020,8875,"46 Tanner Road  (non-residential), Eastern","22.29061,114.20284"
Yau Tsim Mong,G/F Tai On House (non-residential),28/12/2020,8881,"G/F Tai On House (non-residential), Yau Tsim Mong","22.32214,114.16516"
Kwun Tong,Yau Lee Building Le Three (non-residential),28/12/2020,8896,"Yau Lee Building Le Three (non-residential), Kwun Tong","22.31549,114.22218"
Yau Tsim Mong,CTMA Centre  (non-residential),28/12/2020,8901,"CTMA Centre  (non-residential), Yau Tsim Mong","22.31578,114.17057"
Sham Shui Po,G/F Yau Luen Apartments (non-residential),28/12/2020,8912,"G/F Yau Luen Apartments (non-residential), Sham Shui Po","22.32875,114.16697"
Sham Shui Po,G/F 298D Un Chau Street (non-residential),28/12/2020,8944,"G/F 298D Un Chau Street (non-residential), Sham Shui Po","22.33587,114.159"
Sham Shui Po,G/F 298D Un Chau Street (non-residential),28/12/2020,9082,"G/F 298D Un Chau Street (non-residential), Sham Shui Po","22.33587,114.159"
Tuen Mun,Winfield Industrial Building (non-residential),28/12/2020,9033,"Winfield Industrial Building (non-residential), Tuen Mun","22.39633,113.96899"
Kwun Tong,Ping Shek Shopping Centre  (non-residential),28/12/2020,9040,"Ping Shek Shopping Centre  (non-residential), Kwun Tong","22.36493,114.13832"
Sham Shui Po,167B Pratas Street Yuen Long Bistro (non-residential),28/12/2020,9082,"167B Pratas Street Yuen Long Bistro (non-residential), Sham Shui Po","22.33549,114.15946"
Yuen Long,G/F Tak Cheung Building (non-residential),28/12/2020,9084,"G/F Tak Cheung Building (non-residential), Yuen Long","22.43271,113.9958"
Kowloon City,Kowloon City Municipal Services Building (non-residential),29/12/2020,8404,"Kowloon City Municipal Services Building (non-residential), Kowloon City","22.32955,114.18902"
Kowloon City,Kowloon City Municipal Services Building (non-residential),29/12/2020,8430,"Kowloon City Municipal Services Building (non-residential), Kowloon City","22.32955,114.18902"
Kowloon City,Kowloon City Municipal Services Building (non-residential),29/12/2020,8765,"Kowloon City Municipal Services Building (non-residential), Kowloon City","22.32955,114.18902"
Sai Kung,MCP One Victoria Harbour Restaurant (non-residential),29/12/2020,8522,"MCP One Victoria Harbour Restaurant (non-residential), Sai Kung","22.35639,114.25195"
Sai Kung,MCP One Victoria Harbour Restaurant (non-residential),29/12/2020,8865,"MCP One Victoria Harbour Restaurant (non-residential), Sai Kung","22.35639,114.25195"
Kowloon City,Horae Plaza Happy Together (non-residential),29/12/2020,8713,"Horae Plaza Happy Together (non-residential), Kowloon City","22.31575,114.18815"
Kowloon City,Horae Plaza Happy Together (non-residential),29/12/2020,8767,"Horae Plaza Happy Together (non-residential), Kowloon City","22.31575,114.18815"
Kowloon City,Horae Plaza Happy Together (non-residential),29/12/2020,8768,"Horae Plaza Happy Together (non-residential), Kowloon City","22.31575,114.18815"
Kowloon City,Horae Plaza Happy Together (non-residential),29/12/2020,8769,"Horae Plaza Happy Together (non-residential), Kowloon City","22.31575,114.18815"
Kowloon City,Horae Plaza Happy Together (non-residential),29/12/2020,8770,"Horae Plaza Happy Together (non-residential), Kowloon City","22.31575,114.18815"
Kowloon City,Horae Plaza Happy Together (non-residential),29/12/2020,8864,"Horae Plaza Happy Together (non-residential), Kowloon City","22.31575,114.18815"
Wong Tai Sin,Lions Rise Mall (non-residential),29/12/2020,8760,"Lions Rise Mall (non-residential), Wong Tai Sin","22.34068,114.19728"
Kowloon City,Homantin Market  (non-residential),29/12/2020,8813,"Homantin Market  (non-residential), Kowloon City","22.31606,114.17496"
Yau Tsim Mong,Chuang's London Plaza Sun Sun Restaurant (non-residential),29/12/2020,8823,"Chuang's London Plaza Sun Sun Restaurant (non-residential), Yau Tsim Mong","22.30345,114.17149"
Central & Western,Canossa Hospital (non-residential),29/12/2020,8834,"Canossa Hospital (non-residential), Central & Western","22.27742,114.15383"
Sham Shui Po,323 Lai Chi Kok Road  (non-residential),29/12/2020,8839,"323 Lai Chi Kok Road  (non-residential), Sham Shui Po","22.32857,114.16012"
Tsuen Wan,8 (non-residential),29/12/2020,8840,"8 (non-residential), Tsuen Wan","22.28612,114.19837"
Tsuen Wan,8 (non-residential),29/12/2020,8898,"8 (non-residential), Tsuen Wan","22.28612,114.19837"
Islands,Office Building Cathay Pacific Cargo Terminal (non-residential),29/12/2020,8846,"Office Building Cathay Pacific Cargo Terminal (non-residential), Islands","22.29817,113.92483"
Kowloon City,Fuk Lo Tsun Road Seaview Food Shop (non-residential),29/12/2020,8864,"Fuk Lo Tsun Road Seaview Food Shop (non-residential), Kowloon City","22.33003,114.18778"
Yau Tsim Mong,New East Ocean Centre (non-residential),29/12/2020,8882,"New East Ocean Centre (non-residential), Yau Tsim Mong","22.30152,114.179"
Tsuen Wan,Skyline Plaza Shopping Arcade (non-residential),29/12/2020,8898,"Skyline Plaza Shopping Arcade (non-residential), Tsuen Wan","22.36955,114.11206"
Kwun Tong,Laguna Plaza (non-residential),29/12/2020,8904,"Laguna Plaza (non-residential), Kwun Tong","22.30688,114.22798"
Kowloon City,Jubilant Place Shopping Arcade (non-residential),29/12/2020,8911,"Jubilant Place Shopping Arcade (non-residential), Kowloon City","22.32158,114.18957"
Kowloon City,The Whampoa (non-residential),29/12/2020,8911,"The Whampoa (non-residential), Kowloon City","22.32437,114.18489"
Kowloon City,The Whampoa (non-residential),29/12/2020,8915,"The Whampoa (non-residential), Kowloon City","22.32437,114.18489"
Southern,Mojo Nomad Aberdeen Harbour (non-residential),29/12/2020,8912,"Mojo Nomad Aberdeen Harbour (non-residential), Southern","22.24871,114.14912"
Kowloon City,56 Ma Tau Chung Road (non-residential),29/12/2020,8914,"56 Ma Tau Chung Road (non-residential), Kowloon City","22.32285,114.18813"
Kowloon City,G/F 31 Tak Man Street (non-residential),29/12/2020,8915,"G/F 31 Tak Man Street (non-residential), Kowloon City","22.30606,114.18854"
Yuen Long,Cheong Fat Mansion  (non-residential),29/12/2020,8942,"Cheong Fat Mansion  (non-residential), Yuen Long","22.31282,114.16755"
Sham Shui Po,120-122 Fuk Wing Street Madrid Caf (non-residential),29/12/2020,8944,"120-122 Fuk Wing Street Madrid Caf (non-residential), Sham Shui Po","22.33261,114.1622"
Wan Chai,Times Square (non-residential),29/12/2020,8950,"Times Square (non-residential), Wan Chai","22.27828,114.18247"
Yau Tsim Mong,Argyle Centre (non-residential),30/12/2020,8063,"Argyle Centre (non-residential), Yau Tsim Mong","22.32011,114.16959"
Yau Tsim Mong,Argyle Centre (non-residential),30/12/2020,8467,"Argyle Centre (non-residential), Yau Tsim Mong","22.32011,114.16959"
Yau Tsim Mong,Argyle Centre (non-residential),30/12/2020,8917,"Argyle Centre (non-residential), Yau Tsim Mong","22.32011,114.16959"
Kowloon City,St Teresa's Hospital (non-residential),30/12/2020,8282,"St Teresa's Hospital (non-residential), Kowloon City","22.32631,114.18481"
Kowloon City,St Teresa's Hospital (non-residential),30/12/2020,8897,"St Teresa's Hospital (non-residential), Kowloon City","22.32631,114.18481"
Yuen Long,Kingswood Richly Plaza (non-residential),30/12/2020,8527,"Kingswood Richly Plaza (non-residential), Yuen Long","22.45208,114.00049"
Yuen Long,Kingswood Richly Plaza (non-residential),30/12/2020,8916,"Kingswood Richly Plaza (non-residential), Yuen Long","22.45208,114.00049"
Wong Tai Sin,Temple Mall South Mcdonald's (non-residential),30/12/2020,8792,"Temple Mall South Mcdonald's (non-residential), Wong Tai Sin","22.34133,114.19419"
Wong Tai Sin,Temple Mall South Mcdonald's (non-residential),30/12/2020,8923,"Temple Mall South Mcdonald's (non-residential), Wong Tai Sin","22.34133,114.19419"
Yau Tsim Mong,Gateway Arcade Cova Ristorante & Caffe (non-residential),30/12/2020,8806,"Gateway Arcade Cova Ristorante & Caffe (non-residential), Yau Tsim Mong","22.35639,114.25195"
Central & Western,Admiralty Centre (non-residential),30/12/2020,8862,"Admiralty Centre (non-residential), Central & Western","22.27945,114.16485"
Sham Shui Po,Nam Cheong Place (non-residential),30/12/2020,8862,"Nam Cheong Place (non-residential), Sham Shui Po","22.32665,114.15704"
Sai Kung,MCP Central (Phase 2) Super Super Congee & Noodles (non-residential),30/12/2020,8865,"MCP Central (Phase 2) Super Super Congee & Noodles (non-residential), Sai Kung","22.32319,114.2582"
Yau Tsim Mong,G/F Man Ying Building (non-residential),30/12/2020,8881,"G/F Man Ying Building (non-residential), Yau Tsim Mong","22.30721,114.16703"
Kwai Tsing,Maritime Square Xiao Wang Beef Noodle (non-residential),30/12/2020,8898,"Maritime Square Xiao Wang Beef Noodle (non-residential), Kwai Tsing","22.35927,114.10782"
Sham Shui Po,Dragon Centre Heyday Cuisine (non-residential),30/12/2020,8899,"Dragon Centre Heyday Cuisine (non-residential), Sham Shui Po","22.33109,114.15977"
Wong Tai Sin,Lee King Industrial Building Wing Fat Food Centre (non-residential),30/12/2020,8901,"Lee King Industrial Building Wing Fat Food Centre (non-residential), Wong Tai Sin","22.33782,114.19991"
Yau Tsim Mong,Sun Mong House  (non-residential),30/12/2020,8912,"Sun Mong House  (non-residential), Yau Tsim Mong","22.3214,114.17099"
Yuen Long,Tin Shing Shopping Centre (non-residential),30/12/2020,8916,"Tin Shing Shopping Centre (non-residential), Yuen Long","22.44901,114.00275"
Yau Tsim Mong,Tai Chuen Building Master 13 (non-residential),30/12/2020,8917,"Tai Chuen Building Master 13 (non-residential), Yau Tsim Mong","22.45891,114.18435"
Wong Tai Sin,G/F 42 Yuk Wah Street (non-residential),30/12/2020,8922,"G/F 42 Yuk Wah Street (non-residential), Wong Tai Sin","22.34716,114.20124"
Central & Western,Pacific Place Apartments (non-residential),30/12/2020,8922,"Pacific Place Apartments (non-residential), Central & Western","22.27681,114.16527"
Wong Tai Sin,Tsz Wan Shan Shopping Centre Fairwood (non-residential),30/12/2020,8922,"Tsz Wan Shan Shopping Centre Fairwood (non-residential), Wong Tai Sin","22.3486,114.20036"
Tuen Mun,Butterfly Market (non-residential),30/12/2020,8939,"Butterfly Market (non-residential), Tuen Mun","22.37413,113.96367"
Tai Po,Gold Reserved Court TamJai SamGor (non-residential),30/12/2020,8942,"Gold Reserved Court TamJai SamGor (non-residential), Tai Po","22.44718,114.16785"
Kwun Tong,Elite Centre (non-residential),30/12/2020,8947,"Elite Centre (non-residential), Kwun Tong","22.31327,114.21908"
Kwun Tong,Everest Industrial Centre Hong Lin Restaurant (non-residential),30/12/2020,8956,"Everest Industrial Centre Hong Lin Restaurant (non-residential), Kwun Tong","22.3135,114.22236"
Kowloon City,107 Ma Tau Chung Road (non-residential),30/12/2020,8960,"107 Ma Tau Chung Road (non-residential), Kowloon City","22.3244,114.18844"
Kowloon City,Wearbest Building (non-residential),30/12/2020,8970,"Wearbest Building (non-residential), Kowloon City","22.31565,114.18863"
Wan Chai,Hennessy Apartments Caf de Carol (non-residential),30/12/2020,9009,"Hennessy Apartments Caf de Carol (non-residential), Wan Chai","22.27977,114.18302"
Kwun Tong,Lei Yue Mun Municipal Services Building (non-residential),31/12/2020,7440,"Lei Yue Mun Municipal Services Building (non-residential), Kwun Tong","22.29205,114.23865"
Kwun Tong,Lei Yue Mun Municipal Services Building (non-residential),31/12/2020,7656,"Lei Yue Mun Municipal Services Building (non-residential), Kwun Tong","22.29205,114.23865"
Kwun Tong,Lei Yue Mun Municipal Services Building (non-residential),31/12/2020,7716,"Lei Yue Mun Municipal Services Building (non-residential), Kwun Tong","22.29205,114.23865"
Kwun Tong,Lei Yue Mun Municipal Services Building (non-residential),31/12/2020,8335,"Lei Yue Mun Municipal Services Building (non-residential), Kwun Tong","22.29205,114.23865"
Kwun Tong,Lei Yue Mun Municipal Services Building (non-residential),31/12/2020,8543,"Lei Yue Mun Municipal Services Building (non-residential), Kwun Tong","22.29205,114.23865"
Kwun Tong,Lei Yue Mun Municipal Services Building (non-residential),31/12/2020,9017,"Lei Yue Mun Municipal Services Building (non-residential), Kwun Tong","22.29205,114.23865"
Islands,AsiaWorld-Expo (non-residential),31/12/2020,8872,"AsiaWorld-Expo (non-residential), Islands","22.32058,113.94085"
Wong Tai Sin,Wing Shing Industrial Building (non-residential),31/12/2020,8901,"Wing Shing Industrial Building (non-residential), Wong Tai Sin","22.33742,114.20048"
Yuen Long,Yuen Long MTR Station V Cuisine (non-residential),31/12/2020,8902,"Yuen Long MTR Station V Cuisine (non-residential), Yuen Long","22.43592,114.06111"
Yuen Long,Yuen Long Plaza Chao Inn (non-residential),31/12/2020,8902,"Yuen Long Plaza Chao Inn (non-residential), Yuen Long","22.44492,114.02403"
Sham Shui Po,Cheung On Building Eat Together (non-residential),31/12/2020,8912,"Cheung On Building Eat Together (non-residential), Sham Shui Po","22.32901,114.16492"
Kowloon City,G/F Po Sun Mansion (non-residential),31/12/2020,8915,"G/F Po Sun Mansion (non-residential), Kowloon City","22.32121,114.19015"
Yau Tsim Mong,Mirror Tower (non-residential),31/12/2020,8915,"Mirror Tower (non-residential), Yau Tsim Mong","22.29755,114.17645"
Yuen Long,Yan Yee Building  (non-residential),31/12/2020,8916,"Yan Yee Building  (non-residential), Yuen Long","22.44241,114.03142"
Kwun Tong,"Hiu Shun House, Hiu Lai Court (non-residential)",31/12/2020,8917,"Hiu Shun House, Hiu Lai Court (non-residential), Kwun Tong","22.31907,114.23008"
Kwun Tong,Ning Po No.2 College (non-residential),31/12/2020,8917,"Ning Po No.2 College (non-residential), Kwun Tong","22.32487,114.22838"
Central & Western,Kimley Commercial Building (non-residential),31/12/2020,8931,"Kimley Commercial Building (non-residential), Central & Western","22.28409,114.15396"
Tai Po,Tai Po Plaza  (non-residential),31/12/2020,8942,"Tai Po Plaza  (non-residential), Tai Po","22.45242,114.17047"
Wan Chai,SOGO Hong Kong (non-residential),31/12/2020,8950,"SOGO Hong Kong (non-residential), Wan Chai","22.26535,114.23417"
Southern,Gleneagles Hong Kong Hospital (non-residential),31/12/2020,8951,"Gleneagles Hong Kong Hospital (non-residential), Southern","22.25212,114.17626"
Kwun Tong,AIA Kowloon Tower (non-residential),31/12/2020,8956,"AIA Kowloon Tower (non-residential), Kwun Tong","22.31251,114.22227"
Kwun Tong,APM Kam Kee Caf (non-residential),31/12/2020,8956,"APM Kam Kee Caf (non-residential), Kwun Tong","22.31235,114.2252"
Kwun Tong,Laguna Plaza Super Super Congee & Noodles (non-residential),31/12/2020,8956,"Laguna Plaza Super Super Congee & Noodles (non-residential), Kwun Tong","22.30688,114.22798"
Kowloon City,Summit Building (non-residential),31/12/2020,8976,"Summit Building (non-residential), Kowloon City","22.30843,114.18838"
Yau Tsim Mong,Tower 2 Silvercord (non-residential),31/12/2020,8997,"Tower 2 Silvercord (non-residential), Yau Tsim Mong","22.29775,114.1693"
Yuen Long,Tin Shui Shopping Centre (non-residential),31/12/2020,9000,"Tin Shui Shopping Centre (non-residential), Yuen Long","22.37414,113.961"
Kowloon City,To Kwa Wan Post Office (non-residential),31/12/2020,9042,"To Kwa Wan Post Office (non-residential), Kowloon City","22.3119,114.18972"
Tuen Mun,Block 3 Affluence Garden (non-residential),31/12/2020,9043,"Block 3 Affluence Garden (non-residential), Tuen Mun","22.4035,113.97545"
Eastern,Ying Wong House Tai O Tak Fat (non-residential),31/12/2020,9049,"Ying Wong House Tai O Tak Fat (non-residential), Eastern","22.25278,113.86527"
Yau Tsim Mong,Kowloon Shangri-La Lobby Lounge (non-residential),31/12/2020,9069,"Kowloon Shangri-La Lobby Lounge (non-residential), Yau Tsim Mong","22.29708,114.17695"
Yau Tsim Mong,Langham Place (non-residential),01/01/2021,5964,"Langham Place (non-residential), Yau Tsim Mong","22.31883,114.16849"
Yau Tsim Mong,Langham Place (non-residential),01/01/2021,6003,"Langham Place (non-residential), Yau Tsim Mong","22.31883,114.16849"
Yau Tsim Mong,Langham Place (non-residential),01/01/2021,6928,"Langham Place (non-residential), Yau Tsim Mong","22.31883,114.16849"
Yau Tsim Mong,Langham Place (non-residential),01/01/2021,7360,"Langham Place (non-residential), Yau Tsim Mong","22.31883,114.16849"
Yau Tsim Mong,Langham Place (non-residential),01/01/2021,7889,"Langham Place (non-residential), Yau Tsim Mong","22.31883,114.16849"
Yau Tsim Mong,Langham Place (non-residential),01/01/2021,7961,"Langham Place (non-residential), Yau Tsim Mong","22.31883,114.16849"
Yau Tsim Mong,Langham Place (non-residential),01/01/2021,8503,"Langham Place (non-residential), Yau Tsim Mong","22.31883,114.16849"
Yau Tsim Mong,Langham Place (non-residential),01/01/2021,8771,"Langham Place (non-residential), Yau Tsim Mong","22.31883,114.16849"
Yau Tsim Mong,Langham Place (non-residential),01/01/2021,8980,"Langham Place (non-residential), Yau Tsim Mong","22.31883,114.16849"
Sai Kung,Tseung Kwan O Plaza (non-residential),01/01/2021,7819,"Tseung Kwan O Plaza (non-residential), Sai Kung","22.30918,114.26191"
Sai Kung,Tseung Kwan O Plaza (non-residential),01/01/2021,7838,"Tseung Kwan O Plaza (non-residential), Sai Kung","22.30918,114.26191"
Sai Kung,Tseung Kwan O Plaza (non-residential),01/01/2021,7876,"Tseung Kwan O Plaza (non-residential), Sai Kung","22.30918,114.26191"
Sai Kung,Tseung Kwan O Plaza (non-residential),01/01/2021,8519,"Tseung Kwan O Plaza (non-residential), Sai Kung","22.30918,114.26191"
Sai Kung,Tseung Kwan O Plaza (non-residential),01/01/2021,8956,"Tseung Kwan O Plaza (non-residential), Sai Kung","22.30918,114.26191"
Yau Tsim Mong,Hollywood Plaza (non-residential),01/01/2021,8324,"Hollywood Plaza (non-residential), Yau Tsim Mong","22.3169,114.1702"
Yau Tsim Mong,Hollywood Plaza (non-residential),01/01/2021,8980,"Hollywood Plaza (non-residential), Yau Tsim Mong","22.3169,114.1702"
Wan Chai,The Harbourview (non-residential),01/01/2021,8912,"The Harbourview (non-residential), Wan Chai","22.28016,114.1711"
Kwun Tong,Sau Mau Ping Shopping Centre (non-residential),01/01/2021,8917,"Sau Mau Ping Shopping Centre (non-residential), Kwun Tong","22.31957,114.23202"
Kwun Tong,Sau Mau Ping Shopping Centre Little Onion (non-residential),01/01/2021,8917,"Sau Mau Ping Shopping Centre Little Onion (non-residential), Kwun Tong","22.31957,114.23202"
Kwai Tsing,Maritime Square (non-residential),01/01/2021,8931,"Maritime Square (non-residential), Kwai Tsing","22.35927,114.10782"
Kowloon City,Harbour Plaza 8 Degrees Caf 8 Degrees (non-residential),01/01/2021,8933,"Harbour Plaza 8 Degrees Caf 8 Degrees (non-residential), Kowloon City","22.32307,114.19042"
Kowloon City,Harbour Plaza 8 Degrees Caf 8 Degrees (non-residential),01/01/2021,8940,"Harbour Plaza 8 Degrees Caf 8 Degrees (non-residential), Kowloon City","22.32307,114.19042"
Tai Po,Fortune Plaza  (non-residential),01/01/2021,8942,"Fortune Plaza  (non-residential), Tai Po","22.4527,114.16777"
Wong Tai Sin,Choi Hung Road Market and Cooked Food Centre (non-residential),01/01/2021,8953,"Choi Hung Road Market and Cooked Food Centre (non-residential), Wong Tai Sin","22.20727,114.02837"
Sai Kung,Park Central ANA ZAKKA (non-residential),01/01/2021,8956,"Park Central ANA ZAKKA (non-residential), Sai Kung","22.39788,114.31954"
Yau Tsim Mong,Gala Place (non-residential),01/01/2021,8980,"Gala Place (non-residential), Yau Tsim Mong","22.31519,114.17111"
Yau Tsim Mong,Tak Cheong Commerical Building Tamjai Yunnan Mixian (non-residential),01/01/2021,8980,"Tak Cheong Commerical Building Tamjai Yunnan Mixian (non-residential), Yau Tsim Mong","22.31266,114.16991"
Tsuen Wan,Tower 1 Ocean Pride (non-residential),01/01/2021,9009,"Tower 1 Ocean Pride (non-residential), Tsuen Wan","22.36765,114.11014"
Kowloon City,28A Pak Tai Street  (non-residential),01/01/2021,9013,"28A Pak Tai Street  (non-residential), Kowloon City","22.32437,114.18489"
Kowloon City,Grand Waterfront Plaza  (non-residential),01/01/2021,9013,"Grand Waterfront Plaza  (non-residential), Kowloon City","22.31923,114.19362"
Yau Tsim Mong,Harbour Hotel (non-residential),01/01/2021,9034,"Harbour Hotel (non-residential), Yau Tsim Mong","22.31671,114.16779"
Central & Western,Nam Pak Hong Building (non-residential),01/01/2021,9036,"Nam Pak Hong Building (non-residential), Central & Western","22.28666,114.14856"
Sai Kung,87-89 Man Nin Street Chuen Kee Seafood Restaurant (non-residential),01/01/2021,9037,"87-89 Man Nin Street Chuen Kee Seafood Restaurant (non-residential), Sai Kung","22.38084,114.27312"
Sham Shui Po,Cheong Chit House Nam Cheong Estate (non-residential),01/01/2021,9038,"Cheong Chit House Nam Cheong Estate (non-residential), Sham Shui Po","22.32535,114.1577"
Sham Shui Po,305 Castle Peak Road Green River Restaurant (non-residential),01/01/2021,9082,"305 Castle Peak Road Green River Restaurant (non-residential), Sham Shui Po","22.33784,114.1568"
Sham Shui Po,Un Chau Shopping Centre Crown Caf (non-residential),01/01/2021,9082,"Un Chau Shopping Centre Crown Caf (non-residential), Sham Shui Po","22.33827,114.15508"
Wan Chai,Causeway Bay Centre (non-residential),01/01/2021,9124,"Causeway Bay Centre (non-residential), Wan Chai","22.28003,114.18665"
Sha Tin,G/F Sha Tin Galleria Mcdonald's (non-residential),01/01/2021,9138,"G/F Sha Tin Galleria Mcdonald's (non-residential), Sha Tin","22.39737,114.19328"
Kwai Tsing,Cheung Fat Plaza Cafe de Itamomo (non-residential),01/01/2021,9148,"Cheung Fat Plaza Cafe de Itamomo (non-residential), Kwai Tsing","22.36239,114.10305"
Kwun Tong,The construction sites of Tseung Kwan O  Lam Tin Tunnel (non-residential),02/01/2021,7139,"The construction sites of Tseung Kwan O  Lam Tin Tunnel (non-residential), Kwun Tong","22.32668,114.25635"
Kwun Tong,The construction sites of Tseung Kwan O  Lam Tin Tunnel (non-residential),02/01/2021,7228,"The construction sites of Tseung Kwan O  Lam Tin Tunnel (non-residential), Kwun Tong","22.32668,114.25635"
Kwun Tong,The construction sites of Tseung Kwan O  Lam Tin Tunnel (non-residential),02/01/2021,7229,"The construction sites of Tseung Kwan O  Lam Tin Tunnel (non-residential), Kwun Tong","22.32668,114.25635"
Kwun Tong,The construction sites of Tseung Kwan O  Lam Tin Tunnel (non-residential),02/01/2021,7230,"The construction sites of Tseung Kwan O  Lam Tin Tunnel (non-residential), Kwun Tong","22.32668,114.25635"
Kwun Tong,The construction sites of Tseung Kwan O  Lam Tin Tunnel (non-residential),02/01/2021,7231,"The construction sites of Tseung Kwan O  Lam Tin Tunnel (non-residential), Kwun Tong","22.32668,114.25635"
Kwun Tong,The construction sites of Tseung Kwan O  Lam Tin Tunnel (non-residential),02/01/2021,7250,"The construction sites of Tseung Kwan O  Lam Tin Tunnel (non-residential), Kwun Tong","22.32668,114.25635"
Kwun Tong,The construction sites of Tseung Kwan O  Lam Tin Tunnel (non-residential),02/01/2021,7254,"The construction sites of Tseung Kwan O  Lam Tin Tunnel (non-residential), Kwun Tong","22.32668,114.25635"
Kwun Tong,The construction sites of Tseung Kwan O  Lam Tin Tunnel (non-residential),02/01/2021,7255,"The construction sites of Tseung Kwan O  Lam Tin Tunnel (non-residential), Kwun Tong","22.32668,114.25635"
Kwun Tong,The construction sites of Tseung Kwan O  Lam Tin Tunnel (non-residential),02/01/2021,7353,"The construction sites of Tseung Kwan O  Lam Tin Tunnel (non-residential), Kwun Tong","22.32668,114.25635"
Kwun Tong,The construction sites of Tseung Kwan O  Lam Tin Tunnel (non-residential),02/01/2021,7542,"The construction sites of Tseung Kwan O  Lam Tin Tunnel (non-residential), Kwun Tong","22.32668,114.25635"
Kwun Tong,The construction sites of Tseung Kwan O  Lam Tin Tunnel (non-residential),02/01/2021,7588,"The construction sites of Tseung Kwan O  Lam Tin Tunnel (non-residential), Kwun Tong","22.32668,114.25635"
Kwun Tong,The construction sites of Tseung Kwan O  Lam Tin Tunnel (non-residential),02/01/2021,7667,"The construction sites of Tseung Kwan O  Lam Tin Tunnel (non-residential), Kwun Tong","22.32668,114.25635"
Kwun Tong,The construction sites of Tseung Kwan O  Lam Tin Tunnel (non-residential),02/01/2021,7682,"The construction sites of Tseung Kwan O  Lam Tin Tunnel (non-residential), Kwun Tong","22.32668,114.25635"
Kwun Tong,The construction sites of Tseung Kwan O  Lam Tin Tunnel (non-residential),02/01/2021,7738,"The construction sites of Tseung Kwan O  Lam Tin Tunnel (non-residential), Kwun Tong","22.32668,114.25635"
Kwun Tong,The construction sites of Tseung Kwan O  Lam Tin Tunnel (non-residential),02/01/2021,7941,"The construction sites of Tseung Kwan O  Lam Tin Tunnel (non-residential), Kwun Tong","22.32668,114.25635"
Kwun Tong,The construction sites of Tseung Kwan O  Lam Tin Tunnel (non-residential),02/01/2021,8064,"The construction sites of Tseung Kwan O  Lam Tin Tunnel (non-residential), Kwun Tong","22.32668,114.25635"
Kwun Tong,The construction sites of Tseung Kwan O  Lam Tin Tunnel (non-residential),02/01/2021,8955,"The construction sites of Tseung Kwan O  Lam Tin Tunnel (non-residential), Kwun Tong","22.32668,114.25635"
Kwun Tong,The construction sites of Tseung Kwan O  Lam Tin Tunnel (non-residential),02/01/2021,8979,"The construction sites of Tseung Kwan O  Lam Tin Tunnel (non-residential), Kwun Tong","22.32668,114.25635"
Kwun Tong,The construction sites of Tseung Kwan O  Lam Tin Tunnel (non-residential),02/01/2021,8981,"The construction sites of Tseung Kwan O  Lam Tin Tunnel (non-residential), Kwun Tong","22.32668,114.25635"
Kwun Tong,The construction sites of Tseung Kwan O  Lam Tin Tunnel (non-residential),02/01/2021,8982,"The construction sites of Tseung Kwan O  Lam Tin Tunnel (non-residential), Kwun Tong","22.32668,114.25635"
Kwun Tong,The construction sites of Tseung Kwan O  Lam Tin Tunnel (non-residential),02/01/2021,8983,"The construction sites of Tseung Kwan O  Lam Tin Tunnel (non-residential), Kwun Tong","22.32668,114.25635"
Kwun Tong,The construction sites of Tseung Kwan O  Lam Tin Tunnel (non-residential),02/01/2021,8984,"The construction sites of Tseung Kwan O  Lam Tin Tunnel (non-residential), Kwun Tong","22.32668,114.25635"
Kwun Tong,The construction sites of Tseung Kwan O  Lam Tin Tunnel (non-residential),02/01/2021,8985,"The construction sites of Tseung Kwan O  Lam Tin Tunnel (non-residential), Kwun Tong","22.32668,114.25635"
Kwun Tong,The construction sites of Tseung Kwan O  Lam Tin Tunnel (non-residential),02/01/2021,8986,"The construction sites of Tseung Kwan O  Lam Tin Tunnel (non-residential), Kwun Tong","22.32668,114.25635"
Kwun Tong,The construction sites of Tseung Kwan O  Lam Tin Tunnel (non-residential),02/01/2021,8987,"The construction sites of Tseung Kwan O  Lam Tin Tunnel (non-residential), Kwun Tong","22.32668,114.25635"
Kwun Tong,The construction sites of Tseung Kwan O  Lam Tin Tunnel (non-residential),02/01/2021,8988,"The construction sites of Tseung Kwan O  Lam Tin Tunnel (non-residential), Kwun Tong","22.32668,114.25635"
Kwun Tong,The construction sites of Tseung Kwan O  Lam Tin Tunnel (non-residential),02/01/2021,8989,"The construction sites of Tseung Kwan O  Lam Tin Tunnel (non-residential), Kwun Tong","22.32668,114.25635"
Kwun Tong,The construction sites of Tseung Kwan O  Lam Tin Tunnel (non-residential),02/01/2021,8990,"The construction sites of Tseung Kwan O  Lam Tin Tunnel (non-residential), Kwun Tong","22.32668,114.25635"
Kwun Tong,The construction sites of Tseung Kwan O  Lam Tin Tunnel (non-residential),02/01/2021,9061,"The construction sites of Tseung Kwan O  Lam Tin Tunnel (non-residential), Kwun Tong","22.32668,114.25635"
Kwun Tong,The construction sites of Tseung Kwan O  Lam Tin Tunnel (non-residential),02/01/2021,9078,"The construction sites of Tseung Kwan O  Lam Tin Tunnel (non-residential), Kwun Tong","22.32668,114.25635"
Kwun Tong,The construction sites of Tseung Kwan O  Lam Tin Tunnel (non-residential),02/01/2021,9093,"The construction sites of Tseung Kwan O  Lam Tin Tunnel (non-residential), Kwun Tong","22.32668,114.25635"
Kwun Tong,The construction sites of Tseung Kwan O  Lam Tin Tunnel (non-residential),02/01/2021,9110,"The construction sites of Tseung Kwan O  Lam Tin Tunnel (non-residential), Kwun Tong","22.32668,114.25635"
Sha Tin,Mei Tin Shopping Centre New City Restaurant (non-residential),02/01/2021,8941,"Mei Tin Shopping Centre New City Restaurant (non-residential), Sha Tin","22.3782,114.17638"
Wan Chai,Wan Chai Market (non-residential),02/01/2021,8949,"Wan Chai Market (non-residential), Wan Chai","22.26335,114.24"
Wong Tai Sin,Lok Fu Shopping Centre Ming Garden Restaurant (non-residential),02/01/2021,8963,"Lok Fu Shopping Centre Ming Garden Restaurant (non-residential), Wong Tai Sin","22.37414,113.961"
Yuen Long,Tin Ching Shopping Centre (non-residential),02/01/2021,8998,"Tin Ching Shopping Centre (non-residential), Yuen Long","22.44901,114.00275"
Yuen Long,Tin Ching Shopping Centre Maxim's MX (non-residential),02/01/2021,8998,"Tin Ching Shopping Centre Maxim's MX (non-residential), Yuen Long","22.44901,114.00275"
Kowloon City,Planet Square (non-residential),02/01/2021,9013,"Planet Square (non-residential), Kowloon City","22.32307,114.19042"
Kowloon City,Planet Square (non-residential),02/01/2021,9016,"Planet Square (non-residential), Kowloon City","22.32307,114.19042"
Kowloon City,43 Man Tai Street Golden Thai (non-residential),02/01/2021,9016,"43 Man Tai Street Golden Thai (non-residential), Kowloon City","22.30674,114.18841"
Kwun Tong,Domain Hak Ka Hut (non-residential),02/01/2021,9017,"Domain Hak Ka Hut (non-residential), Kwun Tong","22.29622,114.23861"
Yau Tsim Mong,European Asian Bank Building (non-residential),02/01/2021,9029,"European Asian Bank Building (non-residential), Yau Tsim Mong","22.3235,114.16823"
Kwai Tsing,Hong Cheung House Cheung Hong Estate (non-residential),02/01/2021,9032,"Hong Cheung House Cheung Hong Estate (non-residential), Kwai Tsing","22.34894,114.10536"
Tuen Mun,New Town Commercial Arcade (non-residential),02/01/2021,9032,"New Town Commercial Arcade (non-residential), Tuen Mun","22.39088,113.97832"
Tuen Mun,Phase 1 Tuen Mun Town Plaza (non-residential),02/01/2021,9032,"Phase 1 Tuen Mun Town Plaza (non-residential), Tuen Mun","22.39414,113.97613"
Tuen Mun,Phase 1 Tuen Mun Town Plaza Bari-Uma Ramen (non-residential),02/01/2021,9032,"Phase 1 Tuen Mun Town Plaza Bari-Uma Ramen (non-residential), Tuen Mun","22.39414,113.97613"
Yau Tsim Mong,ELEMENTS (non-residential),02/01/2021,9036,"ELEMENTS (non-residential), Yau Tsim Mong","22.30492,114.16166"
Kowloon City,Homantin Plaza Star Seafood and Roasted Goose Restaurant (non-residential),02/01/2021,9049,"Homantin Plaza Star Seafood and Roasted Goose Restaurant (non-residential), Kowloon City","22.31622,114.18184"
Eastern,Princess Mansion Congee Wonderland (non-residential),02/01/2021,9049,"Princess Mansion Congee Wonderland (non-residential), Eastern","22.28884,114.19371"
Sham Shui Po,77-79 Un Chau Street Luk Lum Dessert (non-residential),02/01/2021,9056,"77-79 Un Chau Street Luk Lum Dessert (non-residential), Sham Shui Po","22.33254,114.16267"
Kwai Tsing,"Yan Shek House, Shek Yam Estate (non-residential)",02/01/2021,9056,"Yan Shek House, Shek Yam Estate (non-residential), Kwai Tsing","22.371,114.13921"
Yau Tsim Mong,G/F 33 Fife Street (non-residential),02/01/2021,9082,"G/F 33 Fife Street (non-residential), Yau Tsim Mong","22.32029,114.17075"
Sham Shui Po,Pei Ho Street Municipal Services Building (non-residential),03/01/2021,6341,"Pei Ho Street Municipal Services Building (non-residential), Sham Shui Po","22.32927,114.16101"
Sham Shui Po,Pei Ho Street Municipal Services Building (non-residential),03/01/2021,6885,"Pei Ho Street Municipal Services Building (non-residential), Sham Shui Po","22.32927,114.16101"
Sham Shui Po,Pei Ho Street Municipal Services Building (non-residential),03/01/2021,7364,"Pei Ho Street Municipal Services Building (non-residential), Sham Shui Po","22.32927,114.16101"
Sham Shui Po,Pei Ho Street Municipal Services Building (non-residential),03/01/2021,7872,"Pei Ho Street Municipal Services Building (non-residential), Sham Shui Po","22.32927,114.16101"
Sham Shui Po,Pei Ho Street Municipal Services Building (non-residential),03/01/2021,7911,"Pei Ho Street Municipal Services Building (non-residential), Sham Shui Po","22.32927,114.16101"
Sham Shui Po,Pei Ho Street Municipal Services Building (non-residential),03/01/2021,8284,"Pei Ho Street Municipal Services Building (non-residential), Sham Shui Po","22.32927,114.16101"
Sham Shui Po,Pei Ho Street Municipal Services Building (non-residential),03/01/2021,8587,"Pei Ho Street Municipal Services Building (non-residential), Sham Shui Po","22.32927,114.16101"
Sham Shui Po,Pei Ho Street Municipal Services Building (non-residential),03/01/2021,8653,"Pei Ho Street Municipal Services Building (non-residential), Sham Shui Po","22.32927,114.16101"
Sham Shui Po,Pei Ho Street Municipal Services Building (non-residential),03/01/2021,9038,"Pei Ho Street Municipal Services Building (non-residential), Sham Shui Po","22.32927,114.16101"
Kowloon City,Homantin Plaza (non-residential),03/01/2021,8813,"Homantin Plaza (non-residential), Kowloon City","22.31622,114.18184"
Kowloon City,Homantin Plaza (non-residential),03/01/2021,8870,"Homantin Plaza (non-residential), Kowloon City","22.31622,114.18184"
Kowloon City,Homantin Plaza (non-residential),03/01/2021,9029,"Homantin Plaza (non-residential), Kowloon City","22.31622,114.18184"
Kowloon City,Homantin Plaza (non-residential),03/01/2021,9049,"Homantin Plaza (non-residential), Kowloon City","22.31622,114.18184"
Kowloon City,Homantin Plaza (non-residential),03/01/2021,9050,"Homantin Plaza (non-residential), Kowloon City","22.31622,114.18184"
Kwai Tsing,Princess Margaret Hospital (non-residential),03/01/2021,8937,"Princess Margaret Hospital (non-residential), Kwai Tsing","22.34014,114.13469"
Kwai Tsing,Princess Margaret Hospital (non-residential),03/01/2021,9034,"Princess Margaret Hospital (non-residential), Kwai Tsing","22.34014,114.13469"
Kwai Tsing,Princess Margaret Hospital (non-residential),03/01/2021,9036,"Princess Margaret Hospital (non-residential), Kwai Tsing","22.34014,114.13469"
Kwai Tsing,Princess Margaret Hospital (non-residential),03/01/2021,9037,"Princess Margaret Hospital (non-residential), Kwai Tsing","22.34014,114.13469"
Kwai Tsing,Princess Margaret Hospital (non-residential),03/01/2021,9038,"Princess Margaret Hospital (non-residential), Kwai Tsing","22.34014,114.13469"
Kwun Tong,Tak Tin Market (non-residential),03/01/2021,8977,"Tak Tin Market (non-residential), Kwun Tong","22.3438,114.19996"
Wong Tai Sin,Chuk Yuen Plaza (non-residential),03/01/2021,8978,"Chuk Yuen Plaza (non-residential), Wong Tai Sin","22.34493,114.19248"
Yuen Long,Long Ping Commercial Centre (non-residential),03/01/2021,8987,"Long Ping Commercial Centre (non-residential), Yuen Long","22.45033,114.02326"
Kwai Tsing,Life@KCC Dragon King Restaurant (non-residential),03/01/2021,9037,"Life@KCC Dragon King Restaurant (non-residential), Kwai Tsing","22.35639,114.25195"
Yau Tsim Mong,G/F Mascot House (non-residential),03/01/2021,9042,"G/F Mascot House (non-residential), Yau Tsim Mong","22.32192,114.16904"
Tuen Mun,G/F 6B Lee Fat Path (non-residential),03/01/2021,9043,"G/F 6B Lee Fat Path (non-residential), Tuen Mun","22.39842,113.97631"
Tuen Mun,G/F Kam Men Mansion (non-residential),03/01/2021,9043,"G/F Kam Men Mansion (non-residential), Tuen Mun","22.40242,113.97787"
Kowloon City,Homantin Plaza Fairwood (non-residential),03/01/2021,9049,"Homantin Plaza Fairwood (non-residential), Kowloon City","22.31622,114.18184"
Islands,Air Mail Centre (non-residential),03/01/2021,9053,"Air Mail Centre (non-residential), Islands","22.30254,113.92987"
Islands,Hong Kong International Airport Terminal 1 Delifrance (non-residential),03/01/2021,9053,"Hong Kong International Airport Terminal 1 Delifrance (non-residential), Islands","22.31723,113.93023"
Sham Shui Po,Manhattan Mid-town Cafe de Itamomo (non-residential),03/01/2021,9054,"Manhattan Mid-town Cafe de Itamomo (non-residential), Sham Shui Po","22.3979,114.19772"
Yuen Long,Fook Shun Building (non-residential),03/01/2021,9091,"Fook Shun Building (non-residential), Yuen Long","22.44705,114.02153"
Kowloon City,Block 16 Laguna Verde (non-residential),03/01/2021,9125,"Block 16 Laguna Verde (non-residential), Kowloon City","22.30848,114.19229"
Sham Shui Po,Ka Wui Building Tim Ho Wan the Dim-Sum Specialists (non-residential),03/01/2021,9137,"Ka Wui Building Tim Ho Wan the Dim-Sum Specialists (non-residential), Sham Shui Po","22.32893,114.16636"
Kowloon City,To Kwa Wan Market and Government Offices (non-residential),04/01/2021,7588,"To Kwa Wan Market and Government Offices (non-residential), Kowloon City","22.31712,114.188"
Kowloon City,To Kwa Wan Market and Government Offices (non-residential),04/01/2021,8044,"To Kwa Wan Market and Government Offices (non-residential), Kowloon City","22.31712,114.188"
Kowloon City,To Kwa Wan Market and Government Offices (non-residential),04/01/2021,8897,"To Kwa Wan Market and Government Offices (non-residential), Kowloon City","22.31712,114.188"
Kowloon City,To Kwa Wan Market and Government Offices (non-residential),04/01/2021,9094,"To Kwa Wan Market and Government Offices (non-residential), Kowloon City","22.31712,114.188"
Yau Tsim Mong,Pioneer Centre Victoria Harbour Restaurant (non-residential),04/01/2021,8069,"Pioneer Centre Victoria Harbour Restaurant (non-residential), Yau Tsim Mong","22.3229,114.16905"
Yau Tsim Mong,Pioneer Centre Victoria Harbour Restaurant (non-residential),04/01/2021,8442,"Pioneer Centre Victoria Harbour Restaurant (non-residential), Yau Tsim Mong","22.3229,114.16905"
Yau Tsim Mong,Pioneer Centre Victoria Harbour Restaurant (non-residential),04/01/2021,8827,"Pioneer Centre Victoria Harbour Restaurant (non-residential), Yau Tsim Mong","22.3229,114.16905"
Yau Tsim Mong,Pioneer Centre Victoria Harbour Restaurant (non-residential),04/01/2021,8847,"Pioneer Centre Victoria Harbour Restaurant (non-residential), Yau Tsim Mong","22.3229,114.16905"
Yau Tsim Mong,Pioneer Centre Victoria Harbour Restaurant (non-residential),04/01/2021,9118,"Pioneer Centre Victoria Harbour Restaurant (non-residential), Yau Tsim Mong","22.3229,114.16905"
Sham Shui Po,Po On Road Municipal Services Building (non-residential),04/01/2021,8438,"Po On Road Municipal Services Building (non-residential), Sham Shui Po","22.33837,114.15805"
Sham Shui Po,Po On Road Municipal Services Building (non-residential),04/01/2021,8944,"Po On Road Municipal Services Building (non-residential), Sham Shui Po","22.33837,114.15805"
Sham Shui Po,Po On Road Municipal Services Building (non-residential),04/01/2021,9090,"Po On Road Municipal Services Building (non-residential), Sham Shui Po","22.33837,114.15805"
Yau Tsim Mong,One Grand Tower (non-residential),04/01/2021,8579,"One Grand Tower (non-residential), Yau Tsim Mong","22.31794,114.16927"
Yau Tsim Mong,One Grand Tower (non-residential),04/01/2021,9056,"One Grand Tower (non-residential), Yau Tsim Mong","22.31794,114.16927"
Yuen Long,G/F Ho King Building (non-residential),04/01/2021,9033,"G/F Ho King Building (non-residential), Yuen Long","22.44627,114.02407"
Yuen Long,G/F Ho King Building (non-residential),04/01/2021,9084,"G/F Ho King Building (non-residential), Yuen Long","22.44627,114.02407"
Tai Po,G/F Central Plaza (non-residential),04/01/2021,9046,"G/F Central Plaza (non-residential), Tai Po","22.44912,114.16658"
Tai Po,Tai Po Fire Station (non-residential),04/01/2021,9058,"Tai Po Fire Station (non-residential), Tai Po","22.4619,114.19054"
Sham Shui Po,Kwai Cheung Building Caf de Coral (non-residential),04/01/2021,9096,"Kwai Cheung Building Caf de Coral (non-residential), Sham Shui Po","22.45829,114.18532"
Yau Tsim Mong,Pioneer Centre    (non-residential),04/01/2021,9118,"Pioneer Centre    (non-residential), Yau Tsim Mong","22.3229,114.16905"
Kwun Tong,Block 3 Sceneway Garden (non-residential),04/01/2021,9125,"Block 3 Sceneway Garden (non-residential), Kwun Tong","22.3078,114.23357"
Sham Shui Po,Block A Wing Kut Industrial Building (non-residential),04/01/2021,9131,"Block A Wing Kut Industrial Building (non-residential), Sham Shui Po","22.339,114.14916"
Kowloon City,G/F 34 Wuhu Street (non-residential),04/01/2021,9147,"G/F 34 Wuhu Street (non-residential), Kowloon City","22.30705,114.18656"
Sham Shui Po,Fortune Shopping Centre Bao Dim Sin Seng (non-residential),05/01/2021,9090,"Fortune Shopping Centre Bao Dim Sin Seng (non-residential), Sham Shui Po","22.33527,114.15441"
Sham Shui Po,G/F 273 Un Chau Street (non-residential),05/01/2021,9090,"G/F 273 Un Chau Street (non-residential), Sham Shui Po","22.33672,114.15726"
Tsuen Wan,Yeung Uk Road Market (non-residential),05/01/2021,6683,"Yeung Uk Road Market (non-residential), Tsuen Wan","22.36899,114.11452"
Tsuen Wan,Yeung Uk Road Market (non-residential),05/01/2021,7060,"Yeung Uk Road Market (non-residential), Tsuen Wan","22.36899,114.11452"
Tsuen Wan,Yeung Uk Road Market (non-residential),05/01/2021,7208,"Yeung Uk Road Market (non-residential), Tsuen Wan","22.36899,114.11452"
Tsuen Wan,Yeung Uk Road Market (non-residential),05/01/2021,7460,"Yeung Uk Road Market (non-residential), Tsuen Wan","22.36899,114.11452"
Tsuen Wan,Yeung Uk Road Market (non-residential),05/01/2021,7655,"Yeung Uk Road Market (non-residential), Tsuen Wan","22.36899,114.11452"
Tsuen Wan,Yeung Uk Road Market (non-residential),05/01/2021,9108,"Yeung Uk Road Market (non-residential), Tsuen Wan","22.36899,114.11452"
Sham Shui Po,Festival Walk (non-residential),05/01/2021,9137,"Festival Walk (non-residential), Sham Shui Po","22.3373,114.17457"
Sham Shui Po,Festival Walk Lady M (non-residential),05/01/2021,9137,"Festival Walk Lady M (non-residential), Sham Shui Po","22.3373,114.17457"
Kowloon City,Ching Long Shopping Centre (non-residential),06/01/2021,6374,"Ching Long Shopping Centre (non-residential), Kowloon City","22.32039,114.18964"
Kowloon City,Ching Long Shopping Centre (non-residential),06/01/2021,6959,"Ching Long Shopping Centre (non-residential), Kowloon City","22.32039,114.18964"
Kowloon City,Ching Long Shopping Centre (non-residential),06/01/2021,6992,"Ching Long Shopping Centre (non-residential), Kowloon City","22.32039,114.18964"
Kowloon City,Ching Long Shopping Centre (non-residential),06/01/2021,8556,"Ching Long Shopping Centre (non-residential), Kowloon City","22.32039,114.18964"
Kowloon City,Ching Long Shopping Centre (non-residential),06/01/2021,8728,"Ching Long Shopping Centre (non-residential), Kowloon City","22.32039,114.18964"
Kowloon City,Ching Long Shopping Centre (non-residential),06/01/2021,8814,"Ching Long Shopping Centre (non-residential), Kowloon City","22.32039,114.18964"
Kowloon City,Ching Long Shopping Centre (non-residential),06/01/2021,9121,"Ching Long Shopping Centre (non-residential), Kowloon City","22.32039,114.18964"
Wong Tai Sin,Tai Shing Street Market (non-residential),06/01/2021,6866,"Tai Shing Street Market (non-residential), Wong Tai Sin","22.34012,114.19542"
Wong Tai Sin,Tai Shing Street Market (non-residential),06/01/2021,6915,"Tai Shing Street Market (non-residential), Wong Tai Sin","22.34012,114.19542"
Wong Tai Sin,Tai Shing Street Market (non-residential),06/01/2021,7190,"Tai Shing Street Market (non-residential), Wong Tai Sin","22.34012,114.19542"
Wong Tai Sin,Tai Shing Street Market (non-residential),06/01/2021,7586,"Tai Shing Street Market (non-residential), Wong Tai Sin","22.34012,114.19542"
Wong Tai Sin,Tai Shing Street Market (non-residential),06/01/2021,7606,"Tai Shing Street Market (non-residential), Wong Tai Sin","22.34012,114.19542"
Wong Tai Sin,Tai Shing Street Market (non-residential),06/01/2021,7835,"Tai Shing Street Market (non-residential), Wong Tai Sin","22.34012,114.19542"
Wong Tai Sin,Tai Shing Street Market (non-residential),06/01/2021,8494,"Tai Shing Street Market (non-residential), Wong Tai Sin","22.34012,114.19542"
Wong Tai Sin,Tai Shing Street Market (non-residential),06/01/2021,8649,"Tai Shing Street Market (non-residential), Wong Tai Sin","22.34012,114.19542"
Wong Tai Sin,Tai Shing Street Market (non-residential),06/01/2021,9143,"Tai Shing Street Market (non-residential), Wong Tai Sin","22.34012,114.19542"
Sham Shui Po,Shek Kip Mei Commercial Centre (non-residential),06/01/2021,8595,"Shek Kip Mei Commercial Centre (non-residential), Sham Shui Po","22.33238,114.1659"
Sham Shui Po,Shek Kip Mei Commercial Centre (non-residential),06/01/2021,8653,"Shek Kip Mei Commercial Centre (non-residential), Sham Shui Po","22.33238,114.1659"
Sham Shui Po,Shek Kip Mei Commercial Centre (non-residential),06/01/2021,9056,"Shek Kip Mei Commercial Centre (non-residential), Sham Shui Po","22.33238,114.1659"
Sham Shui Po,Shek Kip Mei Commercial Centre (non-residential),06/01/2021,9137,"Shek Kip Mei Commercial Centre (non-residential), Sham Shui Po","22.33238,114.1659"
Yau Tsim Mong,Yau Ma Tei Market (non-residential),06/01/2021,8870,"Yau Ma Tei Market (non-residential), Yau Tsim Mong","22.31733,114.18811"
Yau Tsim Mong,Yau Ma Tei Market (non-residential),06/01/2021,8881,"Yau Ma Tei Market (non-residential), Yau Tsim Mong","22.31733,114.18811"
Yau Tsim Mong,Yau Ma Tei Market (non-residential),06/01/2021,9118,"Yau Ma Tei Market (non-residential), Yau Tsim Mong","22.31733,114.18811"
Yau Tsim Mong,Nathan Hotel Tao Heung (non-residential),06/01/2021,9118,"Nathan Hotel Tao Heung (non-residential), Yau Tsim Mong","22.30761,114.17167"
Sham Shui Po,G/F 162 Tai Po Road (non-residential),06/01/2021,9137,"G/F 162 Tai Po Road (non-residential), Sham Shui Po","22.33087,114.16574"
Kowloon City,Hong Kong Baptist Hospital (non-residential),06/01/2021,9138,"Hong Kong Baptist Hospital (non-residential), Kowloon City","22.33709,114.18225"
Eastern,Island Resort Mall (non-residential),06/01/2021,9150,"Island Resort Mall (non-residential), Eastern","22.26626,114.2508"
Kowloon City,United Building (non-residential),06/01/2021,9153,"United Building (non-residential), Kowloon City","22.3062,114.1865"
Sai Kung,Sai Kung Tseung Kwan O Government Complex (non-residential),07/01/2021,9136,"Sai Kung Tseung Kwan O Government Complex (non-residential), Sai Kung","22.31735,114.26813"
