District,Building name,Last date of residence of the case(s),Related probable/confirmed cases,long_address,LatLong
Sai Kung,Yee Ching House Yee Ming Estate,,58,"Yee Ching House Yee Ming Estate, Sai Kung","22.30705,114.26329"
Sai Kung,Yee Ching House Yee Ming Estate,,128,"Yee Ching House Yee Ming Estate, Sai Kung","22.30705,114.26329"
Wan Chai,Envoy Garden,,114,"Envoy Garden, Wan Chai","22.26459,114.1886"
Wan Chai,Envoy Garden,,213,"Envoy Garden, Wan Chai","22.26459,114.1886"
Southern,"8Block 28, Baguio Villa",,117,"8Block 28, Baguio Villa, Southern","22.26269,114.1317"
Southern,"8Block 28, Baguio Villa",,118,"8Block 28, Baguio Villa, Southern","22.26269,114.1317"
Tai Po,"Heng Tai House, Fu Heng Estate",,119,"Heng Tai House, Fu Heng Estate, Tai Po","22.45709,114.17104"
Tai Po,"Heng Tai House, Fu Heng Estate",,124,"Heng Tai House, Fu Heng Estate, Tai Po","22.45709,114.17104"
Tai Po,"Heng Tai House, Fu Heng Estate",,140,"Heng Tai House, Fu Heng Estate, Tai Po","22.45709,114.17104"
Tuen Mun,"On Hei House, Siu Hei Court",,120,"On Hei House, Siu Hei Court, Tuen Mun","22.37319,113.96767"
Tuen Mun,"On Hei House, Siu Hei Court",,121,"On Hei House, Siu Hei Court, Tuen Mun","22.37319,113.96767"
Sha Tin,"Mau Lam House, Kwong Lam Court",,122,"Mau Lam House, Kwong Lam Court, Sha Tin","22.38056,114.21583"
Tsuen Wan,"Tower 7, Bellagio",,123,"Tower 7, Bellagio, Tsuen Wan","22.36685,114.0611"
Tsuen Wan,"Tower 7, Bellagio",,129,"Tower 7, Bellagio, Tsuen Wan","22.36685,114.0611"
Kwun Tong,"Block T, Telford Gardens",,125,"Block T, Telford Gardens, Kwun Tong","22.32472,114.21342"
Kwun Tong,"Block 26, Phase 2, Laguna City",,126,"Block 26, Phase 2, Laguna City, Kwun Tong","22.30759,114.22792"
Kwun Tong,"Block 26, Phase 2, Laguna City",,127,"Block 26, Phase 2, Laguna City, Kwun Tong","22.30759,114.22792"
Kwai Tsing,iPlace,,130,"iPlace, Kwai Tsing","22.36014,114.13489"
Kwai Tsing,iPlace,,131,"iPlace, Kwai Tsing","22.36014,114.13489"
Kwai Tsing,iPlace,,133,"iPlace, Kwai Tsing","22.36014,114.13489"
Kwai Tsing,iPlace,,138,"iPlace, Kwai Tsing","22.36014,114.13489"
Central & Western,"Serene Court, 35 Sai Ning Street",,132,"Serene Court, 35 Sai Ning Street, Central & Western","22.28129,114.12075"
Tai Po,"Ng Tung Chai, Lam Tsuen",,134,"Ng Tung Chai, Lam Tsuen, Tai Po","22.43711,114.12799"
Central & Western,View Villa,,135,"View Villa, Central & Western","22.28492,114.14791"
Southern,18 Stanley Main Street,,136,"18 Stanley Main Street, Southern","22.21748,114.21297"
Wan Chai,"Block A, Tai Hang Terrace",,137,"Block A, Tai Hang Terrace, Wan Chai","22.27409,114.19412"
Eastern,Cornell Centre,,139,"Cornell Centre, Eastern","22.26748,114.24283"
Sai Kung,684 Clear Water Bay Road,,141,"684 Clear Water Bay Road, Sai Kung","22.32982,114.26251"
Kwai Tsing,Tivoli Garden,,142,"Tivoli Garden, Kwai Tsing","22.35448,114.10764"
North,"Lai Ming House, Wah Ming Estate",,143,"Lai Ming House, Wah Ming Estate, North","22.48514,114.14005"
Sai Kung,The Palisades,,145,"The Palisades, Sai Kung","22.3197,114.27713"
Eastern,Fort Mansion,,146,"Fort Mansion, Eastern","22.28997,114.19712"
Central & Western,"Kellett View Town Houses, 65 Mount Kellett Road",,147,"Kellett View Town Houses, 65 Mount Kellett Road, Central & Western","22.26316,114.14773"
Central & Western,"Kellett View Town Houses, 65 Mount Kellett Road",,148,"Kellett View Town Houses, 65 Mount Kellett Road, Central & Western","22.26316,114.14773"
Southern,"Wah Cheong House, Wah Fu 2 Estate",,149,"Wah Cheong House, Wah Fu 2 Estate, Southern","22.25139,114.13717"
Yau Tsim Mong,Hotel ICON,,150,"Hotel ICON, Yau Tsim Mong","22.21966,114.20449"
Yau Tsim Mong,"Block A, Chungking Mansions",,151,"Block A, Chungking Mansions, Yau Tsim Mong","22.29646,114.17251"
Tuen Mun,"Tower 1, Oceania Heights",,152,"Tower 1, Oceania Heights, Tuen Mun","22.38376,113.97098"
Sha Tin,"Block 10, Pristine Villa",,153,"Block 10, Pristine Villa, Sha Tin","22.3826,114.18245"
Kowloon City,8 Hok Ling Street,,154,"8 Hok Ling Street, Kowloon City","22.3207,114.19351"
Wong Tai Sin,"Lung Chu House, Lung Poon Court",,155,"Lung Chu House, Lung Poon Court, Wong Tai Sin","22.34244,114.20018"
Central & Western,Island Shangri-La,,156,"Island Shangri-La, Central & Western","22.2772,114.16442"
Tai Po,"Block 16, Mayfair By The Sea",,157,"Block 16, Mayfair By The Sea, Tai Po","22.4312,114.20658"
Tai Po,"Block 16, Mayfair By The Sea",,158,"Block 16, Mayfair By The Sea, Tai Po","22.4312,114.20658"
Southern,The Redhill Peninsula,,160,"The Redhill Peninsula, Southern","22.23034,114.22668"
Southern,The Redhill Peninsula,,235,"The Redhill Peninsula, Southern","22.23034,114.22668"
Tuen Mun,"Block 4, Tuen Mun Town Plaza",,161,"Block 4, Tuen Mun Town Plaza, Tuen Mun","22.39288,113.97645"
Yau Tsim Mong,"Tower 7, the Coronation",,162,"Tower 7, the Coronation, Yau Tsim Mong","22.30927,114.16613"
Central & Western,"Emerald Garden, 86 Pok Fu Lam Road",,163,"Emerald Garden, 86 Pok Fu Lam Road, Central & Western","22.279,114.13166"
Wong Tai Sin,"Choi Wah House, Choi Fai Estate",,167,"Choi Wah House, Choi Fai Estate, Wong Tai Sin","22.33569,114.21809"
Wan Chai,"Tower 2, the Zenith",,168,"Tower 2, the Zenith, Wan Chai","22.27472,114.17386"
Eastern,Hyatt Centric Victoria Harbour Hong Kong,,169,"Hyatt Centric Victoria Harbour Hong Kong, Eastern","22.28128,114.17203"
Eastern,"Block 2, Island Resort",,170,"Block 2, Island Resort, Eastern","22.26643,114.2499"
Sha Tin,"Block 8, Saddle Ridge Garden",,171,"Block 8, Saddle Ridge Garden, Sha Tin","22.42421,114.23945"
Sha Tin,Hong Kong Sports Institute Athletes' Hostel,,172,"Hong Kong Sports Institute Athletes' Hostel, Sha Tin","22.27643,114.18259"
Wong Tai Sin,"Oi Wai House, Tsz Oi Court",,173,"Oi Wai House, Tsz Oi Court, Wong Tai Sin","22.3501,114.19948"
Yau Tsim Mong,"Tower 3, Hampton Place",,174,"Tower 3, Hampton Place, Yau Tsim Mong","22.32078,114.15558"
Yau Tsim Mong,"Tower 3, Hampton Place",,222,"Tower 3, Hampton Place, Yau Tsim Mong","22.32078,114.15558"
Kwun Tong,"Ying Lai House, Yau Lai Estate",,175,"Ying Lai House, Yau Lai Estate, Kwun Tong","22.29992,114.23684"
Kwun Tong,"Ying Lai House, Yau Lai Estate",,176,"Ying Lai House, Yau Lai Estate, Kwun Tong","22.29992,114.23684"
Central & Western,Rich View Terrace,,177,"Rich View Terrace, Central & Western","22.28436,114.14923"
Central & Western,Rich View Terrace,,178,"Rich View Terrace, Central & Western","22.28436,114.14923"
Central & Western,3A Tregunter Path,,180,"3A Tregunter Path, Central & Western","22.27301,114.15509"
Wan Chai,Sakura Court,,181,"Sakura Court, Wan Chai","22.27436,114.1694"
Wan Chai,Sakura Court,,215,"Sakura Court, Wan Chai","22.27436,114.1694"
Sai Kung,Tai Mong Tsai Road,,182,"Tai Mong Tsai Road, Sai Kung","22.38776,114.29936"
Central & Western,"Seymour Place,60 Robinson Road",,183,"Seymour Place,60 Robinson Road, Central & Western","22.28076,114.15058"
Southern,"Block 47, Baguio Villa",,184,"Block 47, Baguio Villa, Southern","22.26089,114.13254"
Wan Chai,"King Cheung Mansion, 5 King Kwong Street",,185,"King Cheung Mansion, 5 King Kwong Street, Wan Chai","22.2689,114.18541"
Eastern,"Block 1, Island Resort",,186,"Block 1, Island Resort, Eastern","22.26666,114.25018"
Sham Shui Po,E hotel Hong Kong,,190,"E hotel Hong Kong, Sham Shui Po","22.37097,114.11928"
Sha Tin,"Block C, Sunshine City",,191,"Block C, Sunshine City, Sha Tin","22.42391,114.23371"
Yau Tsim Mong,Hang Yue Court,,192,"Hang Yue Court, Yau Tsim Mong","22.31323,114.16758"
Tuen Mun,Pentahotel Hong Kong,,193,"Pentahotel Hong Kong, Tuen Mun","22.39847,113.9748"
Central & Western,Conway Mansion,,194,"Conway Mansion, Central & Western","22.2801,114.14941"
Kowloon City,Hang Tak Yuen,,195,"Hang Tak Yuen, Kowloon City","22.32852,114.19131"
Kwai Tsing,"Kwai On House, Kwai Fong Estate",,196,"Kwai On House, Kwai Fong Estate, Kwai Tsing","22.36081,114.13049"
Sai Kung,"Kwong Ning House, Kwong Ming Court",,198,"Kwong Ning House, Kwong Ming Court, Sai Kung","22.31262,114.26012"
Yau Tsim Mong,26 Kimberley Road,,199,"26 Kimberley Road, Yau Tsim Mong","22.30045,114.17346"
Yau Tsim Mong,Imperial Hotel,,200,"Imperial Hotel, Yau Tsim Mong","22.29617,114.17251"
Yuen Long,Pak Sha Tsuen,,201,"Pak Sha Tsuen, Yuen Long","22.41753,114.01515"
Southern,"Block 4, Repulse Bay Garden",,203,"Block 4, Repulse Bay Garden, Southern","22.23883,114.19203"
Southern,"Block 4, Repulse Bay Garden",,223,"Block 4, Repulse Bay Garden, Southern","22.23883,114.19203"
Sha Tin,"Court B, Tower 3, Dragons Range",,204,"Court B, Tower 3, Dragons Range, Sha Tin","22.41331,114.19937"
Sai Kung,"Tower 2, The Capitol, Lohas Park",,205,"Tower 2, The Capitol, Lohas Park, Sai Kung","22.29571,114.27164"
Sai Kung,"Tower 2, The Capitol, Lohas Park",,256,"Tower 2, The Capitol, Lohas Park, Sai Kung","22.29571,114.27164"
Southern,46 Island Road,,206,"46 Island Road, Southern","22.24065,114.18809"
Central & Western,"Tower 1, Hillsborough Court",,207,"Tower 1, Hillsborough Court, Central & Western","22.27499,114.15229"
Central & Western,20 Square Street,,208,"20 Square Street, Central & Western","22.28422,114.14951"
Yau Tsim Mong,K11 ARTUS,,209,"K11 ARTUS, Yau Tsim Mong","22.29774,114.17324"
Wan Chai,"Tower 1, Hoover Tower",,210,"Tower 1, Hoover Tower, Wan Chai","22.27586,114.16954"
Wan Chai,Tower 3 The Avenue,,211,"Tower 3 The Avenue, Wan Chai","22.27586,114.17269"
Wan Chai,Tower 3 The Avenue,,214,"Tower 3 The Avenue, Wan Chai","22.27586,114.17269"
Wan Chai,Tower 3 The Avenue,,230,"Tower 3 The Avenue, Wan Chai","22.27586,114.17269"
Islands,"Block 5, Tung Chung Crescent",,212,"Block 5, Tung Chung Crescent, Islands","22.28882,113.94006"
Wan Chai,Villa Monte Rosa,,216,"Villa Monte Rosa, Wan Chai","22.26405,114.18321"
Central & Western,1 High Street,,217,"1 High Street, Central & Western","22.28516,114.14577"
Wan Chai,"Block A, Viking Villas",,218,"Block A, Viking Villas, Wan Chai","22.28543,114.19451"
Tsuen Wan,"Block 5, The Summit Terrace",,219,"Block 5, The Summit Terrace, Tsuen Wan","22.37544,114.10493"
Tsuen Wan,Tower 1 Vision City,,220,"Tower 1 Vision City, Tsuen Wan","22.36969,114.11336"
Sham Shui Po,"Yee Kok Court, Yee Tai House",,221,"Yee Kok Court, Yee Tai House, Sham Shui Po","22.33287,114.15825"
Yau Tsim Mong,"Block 12, Charming Garden",,223,"Block 12, Charming Garden, Yau Tsim Mong","22.31329,114.16509"
Central & Western,May Tower,,224,"May Tower, Central & Western","22.27351,114.15429"
Southern,No. 4 Stanley Village Road,,225,"No. 4 Stanley Village Road, Southern","22.22447,114.21372"
Southern,"Tower 3, The Repulse Bay",,226,"Tower 3, The Repulse Bay, Southern","22.23534,114.20028"
Wong Tai Sin,Tower 7 The Latitude,,226,"Tower 7 The Latitude, Wong Tai Sin","22.33365,114.19721"
Kowloon City,"Tower 3, Green Wood Laguna Verde",,227,"Tower 3, Green Wood Laguna Verde, Kowloon City","22.30763,114.19197"
Kowloon City,8 Hok Ling Street,,228,"8 Hok Ling Street, Kowloon City","22.3207,114.19351"
Tsuen Wan,"Block C, Luk Yeung Sun Chuen",,229,"Block C, Luk Yeung Sun Chuen, Tsuen Wan","22.37401,114.12051"
Wan Chai,St. Regis Hong Kong,,230,"St. Regis Hong Kong, Wan Chai","22.26535,114.23417"
Wan Chai,St. Regis Hong Kong,,264,"St. Regis Hong Kong, Wan Chai","22.26535,114.23417"
Yuen Long,"Shui Lam House, Tin Shui Estate",,231,"Shui Lam House, Tin Shui Estate, Yuen Long","22.45423,113.99914"
North,"Tower 1, Green Code",,232,"Tower 1, Green Code, North","22.50139,114.14651"
Kwai Tsing,"Hong Ping House, Cheung Hong Estate",,233,"Hong Ping House, Cheung Hong Estate, Kwai Tsing","22.35032,114.10406"
Southern,"South Bay Road, Repulse Bay",,234,"South Bay Road, Repulse Bay, Southern","22.23897,114.19557"
Wan Chai,The Emperor Hotel,,236,"The Emperor Hotel, Wan Chai","22.27462,114.17821"
Eastern,Tung Lam Court,,237,"Tung Lam Court, Eastern","22.2802,114.22048"
Central & Western,"Evergreen Tower, Western Garden",,238,"Evergreen Tower, Western Garden, Central & Western","22.28635,114.14107"
Central & Western,"Evergreen Tower, Western Garden",,268,"Evergreen Tower, Western Garden, Central & Western","22.28635,114.14107"
Sai Kung,31 Wo Tong Kong,,239,"31 Wo Tong Kong, Sai Kung","22.31569,114.27456"
Sha Tin,"Tower 1, BayshoreTowers",,240,"Tower 1, BayshoreTowers, Sha Tin","22.42585,114.2321"
Kowloon City,118 Tam Kung Road,,242,"118 Tam Kung Road, Kowloon City","22.32349,114.18909"
Sham Shui Po,"Phase 2, Village Gardens",,243,"Phase 2, Village Gardens, Sham Shui Po","22.332,114.17588"
Tuen Mun,"Tip Sum House, Butterfly Estate",,244,"Tip Sum House, Butterfly Estate, Tuen Mun","22.37428,113.96315"
Central & Western,"Po Hing Mansion, 20 Rutter Street",,245,"Po Hing Mansion, 20 Rutter Street, Central & Western","22.28428,114.14695"
Wan Chai,"Block C, Beverly Hill, 6 Broadwood Road",,246,"Block C, Beverly Hill, 6 Broadwood Road, Wan Chai","22.2737,114.18585"
Wan Chai,8 Ventris Road,,247,"8 Ventris Road, Wan Chai","22.27373,114.18423"
Eastern,"Maple Mansion, Harbour View Gardens",,249,"Maple Mansion, Harbour View Gardens, Eastern","22.28762,114.21594"
Eastern,"Lai Wah Mansion, 867-881 King's Road",,250,"Lai Wah Mansion, 867-881 King's Road, Eastern","22.29006,114.20963"
Central & Western,The Nova,,251,"The Nova, Central & Western","22.28538,114.14176"
Sha Tin,"Tower 1, Ma On Shan Centre",,252,"Tower 1, Ma On Shan Centre, Sha Tin","22.42547,114.23262"
Sha Tin,"Block D, The Grandville",,253,"Block D, The Grandville, Sha Tin","22.4009,114.19376"
Tuen Mun,"Hing Fai House, Tai Hing Estate",,255,"Hing Fai House, Tai Hing Estate, Tuen Mun","22.40397,113.97016"
Sai Kung,"Tower 9, Ocean Shores",,257,"Tower 9, Ocean Shores, Sai Kung","22.30214,114.25355"
Wan Chai,"Block A, Viking Villas",,260,"Block A, Viking Villas, Wan Chai","22.28543,114.19451"
Central & Western,"Shun On Building, 2 Sands Street",,261,"Shun On Building, 2 Sands Street, Central & Western","22.28373,114.12984"
Kowloon City,Cheong Shing Court,,262,"Cheong Shing Court, Kowloon City","22.31763,114.18889"
Kwai Tsing,"Yam Heng House, Shek Yum Estate",,263,"Yam Heng House, Shek Yum Estate, Kwai Tsing","22.37282,114.1397"
Wan Chai,Sakura Court,,264,"Sakura Court, Wan Chai","22.27436,114.1694"
Central & Western,"Silvercrest, 24 Macdonnell Road",,265,"Silvercrest, 24 Macdonnell Road, Central & Western","22.27541,114.15701"
Southern,Repulse Bay Garden,,266,"Repulse Bay Garden, Southern","22.23903,114.19262"
Central & Western,SOHO 189,,267,"SOHO 189, Central & Western","22.28733,114.14506"
Eastern,"Block Q, Kornhill",,269,"Block Q, Kornhill, Eastern","22.2839,114.21518"
Sham Shui Po,"Block 23, Phase 1, Mei Foo Sun Cheun",,270,"Block 23, Phase 1, Mei Foo Sun Cheun, Sham Shui Po","22.33695,114.13859"
Island,"Tower 12, Caribbean Coast",,271,"Tower 12, Caribbean Coast, Island","22.29152,113.94849"
Yau Tsim Mong,"Block 4, Prosperous Garden",,272,"Block 4, Prosperous Garden, Yau Tsim Mong","22.31082,114.16835"
Yau Tsim Mong,"Block B, Hoi Lam House, Hoi Fu Court",,273,"Block B, Hoi Lam House, Hoi Fu Court, Yau Tsim Mong","22.31677,114.16426"
Kwun Tong,Dorsett Kwun Tong,,274,"Dorsett Kwun Tong, Kwun Tong","22.31576,114.21659"
Wong Tai Sin,"Block 2, Kai Tak Garden",,275,"Block 2, Kai Tak Garden, Wong Tai Sin","22.33752,114.19496"
Wan Chai,Hang Shun Mansions,,276,"Hang Shun Mansions, Wan Chai","22.27854,114.17096"
Wan Chai,307 Jaffe Road,,277,"307 Jaffe Road, Wan Chai","22.27963,114.17834"
Wan Chai,Tagus Residences,,278,"Tagus Residences, Wan Chai","22.27373,114.18423"
Islands,"Woodland Court, Parkvale Village",,279,"Woodland Court, Parkvale Village, Islands","22.29532,114.01235"
Central & Western,Chi Residences 120,,281,"Chi Residences 120, Central & Western","22.28834,114.14422"
Central & Western,208 Hollywood Road,,282,"208 Hollywood Road, Central & Western","22.28542,114.14767"
Southern,L'Hoel Island South,,283,"L'Hoel Island South, Southern","22.24975,114.16817"
Sha Tin,"Block 6, Bayshore Towers",,284,"Block 6, Bayshore Towers, Sha Tin","22.42546,114.2305"
Yau Tsim Mong,"Tower 7, The Long Beach",,285,"Tower 7, The Long Beach, Yau Tsim Mong","22.31981,114.15609"
Sai Kung,Pak Kong Au Road,,286,"Pak Kong Au Road, Sai Kung","22.3826,114.26357"
Tsuen Wan,Indi Home,,287,"Indi Home, Tsuen Wan","22.28785,114.13539"
Kwai Tsing,"On Hoi House, Cheung On Estate",,287,"On Hoi House, Cheung On Estate, Kwai Tsing","22.36161,114.10041"
Eastern,"Block 6, Provident Centre",,288,"Block 6, Provident Centre, Eastern","22.29246,114.19586"
Eastern,"On Hiu Mansion, Lei King Wan",,289,"On Hiu Mansion, Lei King Wan, Eastern","22.28411,114.22316"
Southern,Ovolo Southside,,290,"Ovolo Southside, Southern","22.28026,114.15461"
Southern,"Chun Tak House, Lung Tak Court",,291,"Chun Tak House, Lung Tak Court, Southern","22.22053,114.20785"
Wan Chai,Rosedale Hotel Hong Kong,,292,"Rosedale Hotel Hong Kong, Wan Chai","22.27922,114.18835"
Wan Chai,Monmouth Villa,,293,"Monmouth Villa, Wan Chai","22.27552,114.16785"
Yuen Long,"Heng Moon House, Tin Heng Estate",,294,"Heng Moon House, Tin Heng Estate, Yuen Long","22.47113,114.0014"
Tsuen Wan,"Block 1, City Point",,295,"Block 1, City Point, Tsuen Wan","22.3652,114.11357"
North,Fanling Wai South,,296,"Fanling Wai South, North","22.49993,114.1446"
Eastern,Ramada Hong Kong Grand View,,297,"Ramada Hong Kong Grand View, Eastern","22.27461,114.17868"
North,"Lai Ming House, Wah Ming Estate",,298,"Lai Ming House, Wah Ming Estate, North","22.48514,114.14005"
Kowloon City,"Tower 3, Harbour View Horizon Hotel",,299,"Tower 3, Harbour View Horizon Hotel, Kowloon City","22.32307,114.19042"
Yau Tsim Mong,Rosedale Hotel Kowloon,,300,"Rosedale Hotel Kowloon, Yau Tsim Mong","22.32099,114.1622"
Sha Tin,"Fook Lam House, Kwong Lam Court",,301,"Fook Lam House, Kwong Lam Court, Sha Tin","22.38064,114.21689"
Sha Tin,Athlete's Hostel in HK Sports Institues,,302,"Athlete's Hostel in HK Sports Institues, Sha Tin","22.39492,114.20218"
Eastern,Tung Lam Court,,303,"Tung Lam Court, Eastern","22.2802,114.22048"
Eastern,Tung Lam Court,,304,"Tung Lam Court, Eastern","22.2802,114.22048"
Eastern,191-193 Shau Kei Wan Road,,306,"191-193 Shau Kei Wan Road, Eastern","22.46275,114.00436"
Kwun Tong,"Tak Shui House, Tak Tin Estate",,308,"Tak Shui House, Tak Tin Estate, Kwun Tong","22.30881,114.23879"
Wan Chai,"Celeste Court, Fung Fai Terrace",,309,"Celeste Court, Fung Fai Terrace, Wan Chai","22.26758,114.1831"
Central & Western,Valiant Park,,310,"Valiant Park, Central & Western","22.28079,114.14882"
Kowloon City,8 Hok Ling Street,,311,"8 Hok Ling Street, Kowloon City","22.3207,114.19351"
Kwai Tsing,"Kwai Yat House, Kwai Hong Court",,312,"Kwai Yat House, Kwai Hong Court, Kwai Tsing","22.36369,114.13045"
Yau Tsim Mong,Lyton Building,,313,"Lyton Building, Yau Tsim Mong","22.29707,114.17484"
Sham Shui Po,"Yee Tai House, Yee Kok Court",,314,"Yee Tai House, Yee Kok Court, Sham Shui Po","22.33287,114.15825"
Central & Western,Wise Mansion,,315,"Wise Mansion, Central & Western","22.27987,114.15103"
Southern,Le Meridien Cyberport,,316,"Le Meridien Cyberport, Southern","22.26187,114.12948"
Sai Kung,Marina Cov,,317,"Marina Cov, Sai Kung","22.35639,114.25195"
Southern,"Block 4, Aqua 33",,318,"Block 4, Aqua 33, Southern","22.27064,114.12798"
Central &Western,"Block 8, Hee Wong Terrace, Kennedy Town",,319,"Block 8, Hee Wong Terrace, Kennedy Town, Central &Western","22.28276,114.13095"
Tuen Mun,"The Hillgrove, 9 Tsing Fat Lane, Tuen Mun",,320,"The Hillgrove, 9 Tsing Fat Lane, Tuen Mun, Tuen Mun","22.36522,113.99896"
Islands,"Novotel Citygate Hong Kong, Tung Chung",,321,"Novotel Citygate Hong Kong, Tung Chung, Islands","22.29114,113.94232"
Kowloon City,25 Stafford Road,,322,"25 Stafford Road, Kowloon City","22.33244,114.17779"
Kowloon City,"Block 6, Parc Palais, 18 Wylie Road, King's Park",,323,"Block 6, Parc Palais, 18 Wylie Road, King's Park, Kowloon City","22.31035,114.17765"
Yau Tsim Mong,Rosedale Hotel Kowloon,,324,"Rosedale Hotel Kowloon, Yau Tsim Mong","22.32099,114.1622"
Central &Western,"Vienna Court, Realty Gardens, Mid-levels",,325,"Vienna Court, Realty Gardens, Mid-levels, Central &Western","22.28197,114.14573"
Southern,"Block D, The Manhattan, Tai Tam",,326,"Block D, The Manhattan, Tai Tam, Southern","22.22856,114.21734"
Central & Western,"Tower 1, Hillsborough Court, Mid-levels",,327,"Tower 1, Hillsborough Court, Mid-levels, Central & Western","22.27499,114.15229"
Islands,"Tower 10, the Visionary, Tung Chung",,328,"Tower 10, the Visionary, Tung Chung, Islands","22.29516,113.94993"
Tai Po,"Block 8, Phase 4, Tai Po Centre",,332,"Block 8, Phase 4, Tai Po Centre, Tai Po","22.44185,114.16241"
Yau Tsim Mong,"Kadoorie Avenue Mansion, 207 Prince Edward Road West",,333,"Kadoorie Avenue Mansion, 207 Prince Edward Road West, Yau Tsim Mong","22.32483,114.17493"
Eastern,"Braemar Hill Mansions, 15-43 Braemar Hill Road",,334,"Braemar Hill Mansions, 15-43 Braemar Hill Road, Eastern","22.28542,114.2003"
Yau Tsim Mong,"Best Western Grand Hotel, Tsim Sha Tsui",,335,"Best Western Grand Hotel, Tsim Sha Tsui, Yau Tsim Mong","22.30297,114.1747"
Kowloon City,"152 Waterloo Road, Kowloon Tong",,336,"152 Waterloo Road, Kowloon Tong, Kowloon City","22.3294,114.17784"
Kwai Tsing,"Mai Ning Building, Kwai Chung",,337,"Mai Ning Building, Kwai Chung, Kwai Tsing","22.3602,114.12676"
Kwai Tsing,"Chau Kwai House, Kwai Chung Estate",,338,"Chau Kwai House, Kwai Chung Estate, Kwai Tsing","22.3673,114.13017"
Eastern,"Wah Hei House, Tung Hei Court, Sai Wan Ho",,339,"Wah Hei House, Tung Hei Court, Sai Wan Ho, Eastern","22.27975,114.2194"
Sai Kung,"Block 1, Park Mediterranean, Sai Kung",,339,"Block 1, Park Mediterranean, Sai Kung, Sai Kung","22.37857,114.26629"
Eastern,"Sui Fat House, Siu Sai Wan Estate, Chai Wan",,340,"Sui Fat House, Siu Sai Wan Estate, Chai Wan, Eastern","22.26359,114.24853"
Wan Chai,"38 Broadwood Road, Happy Valley",,341,"38 Broadwood Road, Happy Valley, Wan Chai","22.26931,114.18825"
Southern,"Tung Yip House, Lei Tung Estate, Ap Lei Chau",,342,"Tung Yip House, Lei Tung Estate, Ap Lei Chau, Southern","22.24101,114.15456"
Eastern,"Stayed in Homy Inn, North Point",,342,"Stayed in Homy Inn, North Point, Eastern","22.29128,114.19691"
Wan Chai,"Island Building, Wan Chai",,343,"Island Building, Wan Chai, Wan Chai","22.27974,114.18161"
Central & Western,"Fairlane Tower, Mid-levels",,345,"Fairlane Tower, Mid-levels, Central & Western","22.27417,114.16047"
Wan Chai,"Po Ming Building, Causeway Bay",,346,"Po Ming Building, Causeway Bay, Wan Chai","22.27851,114.18365"
Sha Tin,"Block 7, Villa Athena, Ma On Shan",,347,"Block 7, Villa Athena, Ma On Shan, Sha Tin","22.42636,114.2373"
Eastern,"Block 3, Fullview Garden, Siu Sai Wan",,348,"Block 3, Fullview Garden, Siu Sai Wan, Eastern","22.26291,114.25243"
Sha Tin,"Yiu Shun House, Yiu On Estate, Ma On Shan",,349,"Yiu Shun House, Yiu On Estate, Ma On Shan, Sha Tin","22.41913,114.23162"
Tai Po,"Block 10, Treasure Spot Garden, Tai Po",,350,"Block 10, Treasure Spot Garden, Tai Po, Tai Po","22.46991,114.20287"
Tai Po,"Block 10, Treasure Spot Garden, Tai Po",,351,"Block 10, Treasure Spot Garden, Tai Po, Tai Po","22.46991,114.20287"
Sai Kung,"Sai Keng Village, Sai Sha Road, Sai Kung",,352,"Sai Keng Village, Sai Sha Road, Sai Kung, Sai Kung","22.3699,114.26892"
Kwun Tong,"Dorsett Kwun Tong Hotel, Kwun Tong",,353,"Dorsett Kwun Tong Hotel, Kwun Tong, Kwun Tong","22.31576,114.21659"
Central & Western,"53 Hollywood Road, Central",,354,"53 Hollywood Road, Central, Central & Western","22.28289,114.153"
Yau Tsim Mong,"Block 12, Charming Garden",,223,"Block 12, Charming Garden, Yau Tsim Mong","22.31329,114.16509"
Sha Tin,Block 11 Royal Ascot,,,"Block 11 Royal Ascot, Sha Tin","22.40206,114.203"
Central and Western,Chester Court,,,"Chester Court, Central and Western","22.28629,114.13241"
Eastern,"Kam Shan Mansion, Taikoo Shing",,358,"Kam Shan Mansion, Taikoo Shing, Eastern","22.28564,114.21942"
Kowloon City,Stafford Road,,359,"Stafford Road, Kowloon City","22.33049,114.17764"
Central and Western,312 Queen's Road West,,360,"312 Queen's Road West, Central and Western","22.28681,114.1418"
Central and Western,Bohemian House,,361,"Bohemian House, Central and Western","22.2877,114.13904"
Central and Western,Golden Valley Mansion,,362,"Golden Valley Mansion, Central and Western","22.28303,114.14982"
Southern,"Block C, The Manhattan",,363,"Block C, The Manhattan, Southern","22.22856,114.21734"
Sha Tin,"Jade Heights, Belair Gardens",,366,"Jade Heights, Belair Gardens, Sha Tin","22.38566,114.19989"
Central and Western,Golden Valley Mansion,,367,"Golden Valley Mansion, Central and Western","22.28303,114.14982"
Central and Western,Four Seasons Hotel Hong Kong,,368,"Four Seasons Hotel Hong Kong, Central and Western","22.28662,114.15666"
Central and Western,Four Seasons Hotel Hong Kong,,369,"Four Seasons Hotel Hong Kong, Central and Western","22.28662,114.15666"
Central and Western,1 Ping On Lane,,370,"1 Ping On Lane, Central and Western","22.28371,114.15052"
Islands,"Mun Wo House, Mun Tung Estate",,371,"Mun Wo House, Mun Tung Estate, Islands","22.27778,113.93297"
Southern,"Block 12, South Horizons",,372,"Block 12, South Horizons, Southern","22.24401,114.14574"
Wan Chai,Sing Kong Building,,373,"Sing Kong Building, Wan Chai","22.27866,114.17589"
Southern,"Block 25, Baguio Villa",,374,"Block 25, Baguio Villa, Southern","22.26178,114.13418"
Central & Western,Wise Mansion,,375,"Wise Mansion, Central & Western","22.27987,114.15103"
Tai Po,San Uk Ka,,377,"San Uk Ka, Tai Po","22.43357,114.16393"
Central and Western,Centre Place,,378,"Centre Place, Central and Western","22.38188,114.20189"
Kowloon City,1 Oxford Road,,379,"1 Oxford Road, Kowloon City","22.33051,114.18064"
Eastern,6 Ming Yuen Western Street,,380,"6 Ming Yuen Western Street, Eastern","22.29043,114.19867"
Sai Kung,Marina Cove,,381,"Marina Cove, Sai Kung","22.35639,114.25195"
Tai Po,"Block 3, Uptown Plaza",,383,"Block 3, Uptown Plaza, Tai Po","22.44353,114.16933"
Wan Chai,Hang Shun Mansion,,384,"Hang Shun Mansion, Wan Chai","22.27854,114.17096"
Sai Kung,"Kwong Cheong House, Kwong Ming Court",,385,"Kwong Cheong House, Kwong Ming Court, Sai Kung","22.31197,114.25976"
Islands,"Ngan Yuet House, Ngan Wan Estate",,386,"Ngan Yuet House, Ngan Wan Estate, Islands","22.26494,113.99628"
Wan Chai,Hang Shun Mansion,,387,"Hang Shun Mansion, Wan Chai","22.27854,114.17096"
Islands,Cheung Chau Municipal Services Building (non-residential),10/03/2020,123,"Cheung Chau Municipal Services Building (non-residential), Islands","22.28489,114.03804"
Islands,1-2 Kin Sun Lane (non-residential),10/03/2020,123,"1-2 Kin Sun Lane (non-residential), Islands","22.45296,114.16536"
Yuen Long,Kingswood Richly Plaza (non-residential),10/03/2020,125,"Kingswood Richly Plaza (non-residential), Yuen Long","22.45208,114.00049"
Kwai Tsing,Tsing Yi Square (non-residential),10/03/2020,142,"Tsing Yi Square (non-residential), Kwai Tsing","22.3539,114.10492"
Southern,One Island South (non-residential),10/03/2020,163,"One Island South (non-residential), Southern","22.24875,114.16895"
Southern,41 Heung Yip Road (non-residential),10/03/2020,163,"41 Heung Yip Road (non-residential), Southern","22.24772,114.16319"
Southern,Canadian International School (non-residential),10/03/2020,182,"Canadian International School (non-residential), Southern","22.24229,114.16724"
Wan Chai,Times Square (non-residential),10/03/2020,183,"Times Square (non-residential), Wan Chai","22.27828,114.18247"
Tai Po,Fu Heng Shopping Centre (non-residential),11/03/2020,119,"Fu Heng Shopping Centre (non-residential), Tai Po","22.45831,114.17135"
Tai Po,Fu Heng Shopping Centre (non-residential),11/03/2020,124,"Fu Heng Shopping Centre (non-residential), Tai Po","22.45831,114.17135"
Tai Po,Fu Heng Shopping Centre (non-residential),11/03/2020,140,"Fu Heng Shopping Centre (non-residential), Tai Po","22.45831,114.17135"
Central & Western,"Meng Wah Complex, University of Hong Kong (non-residential)",11/03/2020,132,"Meng Wah Complex, University of Hong Kong (non-residential), Central & Western","22.2822,114.13918"
Wan Chai,"Block 2, Cavendish Heights, 33 Perkins Road (non-residential)",11/03/2020,137,"Block 2, Cavendish Heights, 33 Perkins Road (non-residential), Wan Chai","22.27072,114.19214"
Wan Chai,5 Perkins Road (non-residential),11/03/2020,137,"5 Perkins Road (non-residential), Wan Chai","22.27064,114.19166"
Yau Tsim Mong,Argyle Centre Phase (non-residential),11/03/2020,142,"Argyle Centre Phase (non-residential), Yau Tsim Mong","22.32011,114.16959"
Wan Chai,Hong Kong Adventist Hospital (non-residential),11/03/2020,147,"Hong Kong Adventist Hospital (non-residential), Wan Chai","22.26326,114.18407"
Wan Chai,Hong Kong Adventist Hospital (non-residential),11/03/2020,148,"Hong Kong Adventist Hospital (non-residential), Wan Chai","22.26326,114.18407"
Sham Shui Po,Festival Walk (non-residential),11/03/2020,183,"Festival Walk (non-residential), Sham Shui Po","22.3373,114.17457"
Yau Tsim Mong,Grand Centre (non-residential),12/03/2020,142,"Grand Centre (non-residential), Yau Tsim Mong","22.29856,114.17338"
Yau Tsim Mong,Grand Centre (non-residential),12/03/2020,195,"Grand Centre (non-residential), Yau Tsim Mong","22.29856,114.17338"
Wong Tai Sin,Mikiki (non-residential),12/03/2020,155,"Mikiki (non-residential), Wong Tai Sin","22.33353,114.19687"
Tuen Mun,Siu Lun Shopping Centre (non-residential),12/03/2020,161,"Siu Lun Shopping Centre (non-residential), Tuen Mun","22.37414,113.961"
Kwai Tsing,Florentia Village (non-residential),12/03/2020,163,"Florentia Village (non-residential), Kwai Tsing","22.40216,113.97788"
Wan Chai,Hong Kong Sanatorium & Hospital (non-residential),13/03/2020,76,"Hong Kong Sanatorium & Hospital (non-residential), Wan Chai","22.26924,114.18317"
Wan Chai,Hong Kong Sanatorium & Hospital (non-residential),13/03/2020,85,"Hong Kong Sanatorium & Hospital (non-residential), Wan Chai","22.26924,114.18317"
Wan Chai,Hong Kong Sanatorium & Hospital (non-residential),13/03/2020,91,"Hong Kong Sanatorium & Hospital (non-residential), Wan Chai","22.26924,114.18317"
Wan Chai,Hong Kong Sanatorium & Hospital (non-residential),13/03/2020,110,"Hong Kong Sanatorium & Hospital (non-residential), Wan Chai","22.26924,114.18317"
Wan Chai,Hong Kong Sanatorium & Hospital (non-residential),13/03/2020,139,"Hong Kong Sanatorium & Hospital (non-residential), Wan Chai","22.26924,114.18317"
Wan Chai,Hong Kong Sanatorium & Hospital (non-residential),13/03/2020,147,"Hong Kong Sanatorium & Hospital (non-residential), Wan Chai","22.26924,114.18317"
Wan Chai,Hong Kong Sanatorium & Hospital (non-residential),13/03/2020,148,"Hong Kong Sanatorium & Hospital (non-residential), Wan Chai","22.26924,114.18317"
Wan Chai,Hopewell Centre (non-residential),13/03/2020,101,"Hopewell Centre (non-residential), Wan Chai","22.27467,114.17158"
Wan Chai,Hopewell Centre (non-residential),13/03/2020,156,"Hopewell Centre (non-residential), Wan Chai","22.27467,114.17158"
Wan Chai,Hopewell Centre (non-residential),13/03/2020,168,"Hopewell Centre (non-residential), Wan Chai","22.27467,114.17158"
Kwai Tsing,Greenfield Shopping Arcade (non-residential),13/03/2020,142,"Greenfield Shopping Arcade (non-residential), Kwai Tsing","22.35327,114.10926"
Central & Western,Kwong Ga Factory Building (non-residential),13/03/2020,146,"Kwong Ga Factory Building (non-residential), Central & Western","22.28169,114.1219"
Yau Tsim Mong,Kowloon Mosque And Islamic Centre (non-residential),13/03/2020,151,"Kowloon Mosque And Islamic Centre (non-residential), Yau Tsim Mong","22.27742,114.17884"
Sham Shui Po,Kimberland Center (non-residential),13/03/2020,153,"Kimberland Center (non-residential), Sham Shui Po","22.30178,114.17554"
Kowloon City,Celestial Place (non-residential),13/03/2020,155,"Celestial Place (non-residential), Kowloon City","22.31919,114.18569"
Yau Tsim Mong,"MTR Kowloon Station, Airport Express Line Arrival Concourse (non-residential)",13/03/2020,162,"MTR Kowloon Station, Airport Express Line Arrival Concourse (non-residential), Yau Tsim Mong","22.30253,114.18154"
Central & Western,Pacific Place (non-residential),13/03/2020,182,"Pacific Place (non-residential), Central & Western","22.27681,114.16527"
Sai Kung,13 Sha Tsui Path (non-residential),13/03/2020,182,"13 Sha Tsui Path (non-residential), Sai Kung","22.38096,114.27216"
Wan Chai,Starcrest (non-residential),13/03/2020,182,"Starcrest (non-residential), Wan Chai","22.27633,114.16752"
Wan Chai,12 St. Francis Street (non-residential),13/03/2020,183,"12 St. Francis Street (non-residential), Wan Chai","22.27605,114.16941"
Central & Western,63 Wyndham Street (non-residential),13/03/2020,191,"63 Wyndham Street (non-residential), Central & Western","22.28139,114.15495"
Central & Western,63 Wyndham Street (non-residential),13/03/2020,217,"63 Wyndham Street (non-residential), Central & Western","22.28139,114.15495"
Central & Western,63 Wyndham Street (non-residential),13/03/2020,373,"63 Wyndham Street (non-residential), Central & Western","22.28139,114.15495"
Central & Western,2-4 Shelley Street (non-residential),13/03/2020,191,"2-4 Shelley Street (non-residential), Central & Western","22.28051,114.15165"
Central & Western,2-4 Shelley Street (non-residential),13/03/2020,217,"2-4 Shelley Street (non-residential), Central & Western","22.28051,114.15165"
Central & Western,2-4 Shelley Street (non-residential),13/03/2020,250,"2-4 Shelley Street (non-residential), Central & Western","22.28051,114.15165"
Central & Western,2-4 Shelley Street (non-residential),13/03/2020,332,"2-4 Shelley Street (non-residential), Central & Western","22.28051,114.15165"
Central & Western,44 D'Aguilar Street (non-residential),13/03/2020,191,"44 D'Aguilar Street (non-residential), Central & Western","22.28073,114.15533"
Central & Western,44 D'Aguilar Street (non-residential),13/03/2020,217,"44 D'Aguilar Street (non-residential), Central & Western","22.28073,114.15533"
Central & Western,44 D'Aguilar Street (non-residential),13/03/2020,250,"44 D'Aguilar Street (non-residential), Central & Western","22.28073,114.15533"
Central & Western,44 D'Aguilar Street (non-residential),13/03/2020,332,"44 D'Aguilar Street (non-residential), Central & Western","22.28073,114.15533"
Wan Chai,Immigration Tower (non-residential),13/03/2020,211,"Immigration Tower (non-residential), Wan Chai","22.27978,114.17297"
Central & Western,15 Queen's Road Central (non-residential),13/03/2020,211,"15 Queen's Road Central (non-residential), Central & Western","22.28095,114.15768"
Wan Chai,183 Queen's Road East (non-residential),13/03/2020,211,"183 Queen's Road East (non-residential), Wan Chai","22.27461,114.17165"
Wan Chai,200 Queen's Road East (non-residential),13/03/2020,211,"200 Queen's Road East (non-residential), Wan Chai","22.27617,114.17237"
Central & Western,45 Pottinger Street (non-residential),13/03/2020,217,"45 Pottinger Street (non-residential), Central & Western","22.28317,114.15587"
Central & Western,45 Pottinger Street (non-residential),13/03/2020,275,"45 Pottinger Street (non-residential), Central & Western","22.28317,114.15587"
Central & Western,45 Pottinger Street (non-residential),13/03/2020,278,"45 Pottinger Street (non-residential), Central & Western","22.28317,114.15587"
Central & Western,45 Pottinger Street (non-residential),13/03/2020,284,"45 Pottinger Street (non-residential), Central & Western","22.28317,114.15587"
Central & Western,45 Pottinger Street (non-residential),13/03/2020,332,"45 Pottinger Street (non-residential), Central & Western","22.28317,114.15587"
Sai Kung,Razor Hill Dairy Farm Shopping Centre (non-residential),13/03/2020,239,"Razor Hill Dairy Farm Shopping Centre (non-residential), Sai Kung","22.33963,114.24733"
Kwai Tsing,"Block 2, Kwai Fong Terrace (non-residential)",13/03/2020,337,"Block 2, Kwai Fong Terrace (non-residential), Kwai Tsing","22.35534,114.12851"
Wan Chai,The Harbourview (non-residential),14/03/2020,144,"The Harbourview (non-residential), Wan Chai","22.28016,114.1711"
Southern,"Ping On House, 2 Chengtu Road (non-residential)",14/03/2020,149,"Ping On House, 2 Chengtu Road (non-residential), Southern","22.24779,114.15493"
Kowloon City,In House (non-residential),14/03/2020,154,"In House (non-residential), Kowloon City","22.31878,114.18958"
Wan Chai,Pinnacle Building (non-residential),14/03/2020,169,"Pinnacle Building (non-residential), Wan Chai","22.27618,114.17082"
Wan Chai,Pinnacle Building (non-residential),14/03/2020,208,"Pinnacle Building (non-residential), Wan Chai","22.27618,114.17082"
Central & Western,Scenic Rise (non-residential),14/03/2020,169,"Scenic Rise (non-residential), Central & Western","22.28053,114.15209"
Central & Western,Scenic Rise (non-residential),14/03/2020,208,"Scenic Rise (non-residential), Central & Western","22.28053,114.15209"
Central & Western,Scenic Rise (non-residential),14/03/2020,315,"Scenic Rise (non-residential), Central & Western","22.28053,114.15209"
Central & Western,The Grand Stage (non-residential),14/03/2020,170,"The Grand Stage (non-residential), Central & Western","22.45768,114.18944"
Tuen Mun,Kam Men Mansion (non-residential),14/03/2020,170,"Kam Men Mansion (non-residential), Tuen Mun","22.40242,113.97787"
Tsuen Wan,Royal View Hotel (non-residential),14/03/2020,170,"Royal View Hotel (non-residential), Tsuen Wan","22.36862,114.07808"
Tuen Mun,The Sherwood (non-residential),14/03/2020,170,"The Sherwood (non-residential), Tuen Mun","22.42041,113.98572"
Tuen Mun,1 Lam Tei Main Street (non-residential),14/03/2020,170,"1 Lam Tei Main Street (non-residential), Tuen Mun","22.41925,113.98299"
Sai Kung,10A-C Po Tung Rd (non-residential),14/03/2020,182,"10A-C Po Tung Rd (non-residential), Sai Kung","22.38308,114.26983"
Islands,Auberge Discovery Bay Hong Kong (non-residential),14/03/2020,191,"Auberge Discovery Bay Hong Kong (non-residential), Islands","22.30433,114.01191"
Islands,Auberge Discovery Bay Hong Kong (non-residential),14/03/2020,233,"Auberge Discovery Bay Hong Kong (non-residential), Islands","22.30433,114.01191"
Islands,Auberge Discovery Bay Hong Kong (non-residential),14/03/2020,237,"Auberge Discovery Bay Hong Kong (non-residential), Islands","22.30433,114.01191"
Islands,Auberge Discovery Bay Hong Kong (non-residential),14/03/2020,253,"Auberge Discovery Bay Hong Kong (non-residential), Islands","22.30433,114.01191"
Islands,Auberge Discovery Bay Hong Kong (non-residential),14/03/2020,258,"Auberge Discovery Bay Hong Kong (non-residential), Islands","22.30433,114.01191"
Islands,Auberge Discovery Bay Hong Kong (non-residential),14/03/2020,259,"Auberge Discovery Bay Hong Kong (non-residential), Islands","22.30433,114.01191"
Islands,Auberge Discovery Bay Hong Kong (non-residential),14/03/2020,287,"Auberge Discovery Bay Hong Kong (non-residential), Islands","22.30433,114.01191"
Islands,Auberge Discovery Bay Hong Kong (non-residential),14/03/2020,295,"Auberge Discovery Bay Hong Kong (non-residential), Islands","22.30433,114.01191"
Islands,Auberge Discovery Bay Hong Kong (non-residential),14/03/2020,332,"Auberge Discovery Bay Hong Kong (non-residential), Islands","22.30433,114.01191"
Islands,Auberge Discovery Bay Hong Kong (non-residential),14/03/2020,373,"Auberge Discovery Bay Hong Kong (non-residential), Islands","22.30433,114.01191"
Yau Tsim Mong,Wing On Plaza (non-residential),14/03/2020,191,"Wing On Plaza (non-residential), Yau Tsim Mong","22.2967,114.17644"
Yau Tsim Mong,Wing On Plaza (non-residential),14/03/2020,373,"Wing On Plaza (non-residential), Yau Tsim Mong","22.2967,114.17644"
Central & Western,Standard Chartered Bank Building (non-residential),14/03/2020,194,"Standard Chartered Bank Building (non-residential), Central & Western","22.28611,114.14623"
Central & Western,37-44 Cochrane Street (non-residential),14/03/2020,217,"37-44 Cochrane Street (non-residential), Central & Western","22.28276,114.15394"
Central & Western,20A D'Aguilar Street (non-residential),14/03/2020,217,"20A D'Aguilar Street (non-residential), Central & Western","22.28112,114.15574"
Yau Tsim Mong,Harbour Crystal Centre (non-residential),14/03/2020,233,"Harbour Crystal Centre (non-residential), Yau Tsim Mong","22.30087,114.17833"
Yau Tsim Mong,Harbour Crystal Centre (non-residential),14/03/2020,253,"Harbour Crystal Centre (non-residential), Yau Tsim Mong","22.30087,114.17833"
Yau Tsim Mong,Harbour Crystal Centre (non-residential),14/03/2020,259,"Harbour Crystal Centre (non-residential), Yau Tsim Mong","22.30087,114.17833"
Yau Tsim Mong,Harbour Crystal Centre (non-residential),14/03/2020,295,"Harbour Crystal Centre (non-residential), Yau Tsim Mong","22.30087,114.17833"
Yau Tsim Mong,Harilela Mansion (non-residential),14/03/2020,250,"Harilela Mansion (non-residential), Yau Tsim Mong","22.29747,114.17181"
Yau Tsim Mong,23 Lock Road (non-residential),14/03/2020,250,"23 Lock Road (non-residential), Yau Tsim Mong","22.29759,114.17142"
Central & Western,83 Catchick Street (non-residential),14/03/2020,318,"83 Catchick Street (non-residential), Central & Western","22.28329,114.12745"
Wan Chai,South China Athletic Association (non-residential),14/03/2020,318,"South China Athletic Association (non-residential), Wan Chai","22.27549,114.18668"
Kwai Tsing,Kwai Chung Plaza (non-residential),14/03/2020,337,"Kwai Chung Plaza (non-residential), Kwai Tsing","22.3581,114.12762"
Wan Chai,Golden Hill Mansion (non-residential),14/03/2020,345,"Golden Hill Mansion (non-residential), Wan Chai","22.278,114.17497"
Wan Chai,258 Queen's Road East (non-residential),14/03/2020,345,"258 Queen's Road East (non-residential), Wan Chai","22.27527,114.17369"
Tuen Mun,2 Hoi Chu Road (non-residential),15/03/2020,152,"2 Hoi Chu Road (non-residential), Tuen Mun","22.3837,113.97179"
North,"Lai Ming House, Wah Ming Estate (non-residential)",15/03/2020,155,"Lai Ming House, Wah Ming Estate (non-residential), North","22.48514,114.14005"
Central & Western,JW Marriott Hotel Hong Kong (non-residential),15/03/2020,156,"JW Marriott Hotel Hong Kong (non-residential), Central & Western","22.2775,114.16633"
Yau Tsim Mong,Kam San Building 78-86 Reclamation Street (non-residential),15/03/2020,159,"Kam San Building 78-86 Reclamation Street (non-residential), Yau Tsim Mong","22.30822,114.16966"
Tuen Mun,Tuen Mun Town Plaza (non-residential),15/03/2020,161,"Tuen Mun Town Plaza (non-residential), Tuen Mun","22.39406,113.97625"
Tuen Mun,Tuen Mun Trend Plaza (non-residential),15/03/2020,161,"Tuen Mun Trend Plaza (non-residential), Tuen Mun","22.39227,113.97584"
Southern,Union Industrial Building (non-residential),15/03/2020,169,"Union Industrial Building (non-residential), Southern","22.24888,114.16751"
Southern,Union Industrial Building (non-residential),15/03/2020,208,"Union Industrial Building (non-residential), Southern","22.24888,114.16751"
Southern,Union Industrial Building (non-residential),15/03/2020,277,"Union Industrial Building (non-residential), Southern","22.24888,114.16751"
Southern,Union Industrial Building (non-residential),15/03/2020,315,"Union Industrial Building (non-residential), Southern","22.24888,114.16751"
Southern,Union Industrial Building (non-residential),15/03/2020,375,"Union Industrial Building (non-residential), Southern","22.24888,114.16751"
Wan Chai,14 Tai Wong Street East (non-residential),15/03/2020,169,"14 Tai Wong Street East (non-residential), Wan Chai","22.27581,114.17141"
Eastern,Cheerful Garden (non-residential),15/03/2020,170,"Cheerful Garden (non-residential), Eastern","22.26301,114.25007"
Sha Tin,Courtyard by Marriott Hong Kong (non-residential),15/03/2020,171,"Courtyard by Marriott Hong Kong (non-residential), Sha Tin","22.39095,114.20659"
Sha Tin,Jubilee Square (non-residential),15/03/2020,172,"Jubilee Square (non-residential), Sha Tin","22.3971,114.1999"
Sham Shui Po,323 Lai Chi Kok Rd (non-residential),15/03/2020,191,"323 Lai Chi Kok Rd (non-residential), Sham Shui Po","22.32857,114.16012"
Sham Shui Po,225 Ki Lung Street (non-residential),15/03/2020,191,"225 Ki Lung Street (non-residential), Sham Shui Po","22.3299,114.16036"
Central & Western,Printing House (non-residential),15/03/2020,194,"Printing House (non-residential), Central & Western","22.2798,114.15717"
Wan Chai,9 Star Street (non-residential),15/03/2020,195,"9 Star Street (non-residential), Wan Chai","22.27633,114.16752"
Yau Tsim Mong,Langham Hotel Hong Kong (non-residential),15/03/2020,195,"Langham Hotel Hong Kong (non-residential), Yau Tsim Mong","22.29662,114.16978"
Wan Chai,Sun Fung Mansion (non-residential),15/03/2020,195,"Sun Fung Mansion (non-residential), Wan Chai","22.28495,114.1925"
Central & Western,46 Wyndham Street (non-residential),15/03/2020,217,"46 Wyndham Street (non-residential), Central & Western","22.28023,114.15486"
Central & Western,60 Wyndham Street (non-residential),15/03/2020,217,"60 Wyndham Street (non-residential), Central & Western","22.28058,114.15466"
Central & Western,5 Lan Kwai Fong (non-residential),15/03/2020,217,"5 Lan Kwai Fong (non-residential), Central & Western","22.28074,114.15575"
Central & Western,Hong Kong Plaza (non-residential),15/03/2020,250,"Hong Kong Plaza (non-residential), Central & Western","22.28871,114.14935"
Yau Tsim Mong,Sino Cheer Plaza (non-residential),16/03/2020,159,"Sino Cheer Plaza (non-residential), Yau Tsim Mong","22.30547,114.17085"
Yau Tsim Mong,"Harvest Moon House, 337 - 339 Nathan Road (non-residential)",16/03/2020,159,"Harvest Moon House, 337 - 339 Nathan Road (non-residential), Yau Tsim Mong","22.30689,114.17122"
Yau Tsim Mong,"Hang Shing Building, 363 Nathan Road (non-residential)",16/03/2020,159,"Hang Shing Building, 363 Nathan Road (non-residential), Yau Tsim Mong","22.30797,114.17105"
Southern,Stanley Plaza (non-residential),16/03/2020,160,"Stanley Plaza (non-residential), Southern","22.21988,114.20943"
Central & Western,Admiralty Centre Tower 1 (non-residential),16/03/2020,161,"Admiralty Centre Tower 1 (non-residential), Central & Western","22.27945,114.16485"
Wan Chai,Win Fung Building (non-residential),16/03/2020,169,"Win Fung Building (non-residential), Wan Chai","22.44415,114.02454"
Wan Chai,Win Fung Building (non-residential),16/03/2020,208,"Win Fung Building (non-residential), Wan Chai","22.44415,114.02454"
Sha Tin,The Palazzo Shopping Centre (non-residential),16/03/2020,172,"The Palazzo Shopping Centre (non-residential), Sha Tin","22.33304,114.1523"
Yau Tsim Mong,"152 Austin Road, Tsim Sha Tsui, Kowloon (non-residential)",16/03/2020,174,"152 Austin Road, Tsim Sha Tsui, Kowloon (non-residential), Yau Tsim Mong","22.30308,114.17516"
Yau Tsim Mong,"152 Austin Road, Tsim Sha Tsui, Kowloon (non-residential)",16/03/2020,222,"152 Austin Road, Tsim Sha Tsui, Kowloon (non-residential), Yau Tsim Mong","22.30308,114.17516"
Yau Tsim Mong,"152 Austin Road, Tsim Sha Tsui, Kowloon (non-residential)",16/03/2020,243,"152 Austin Road, Tsim Sha Tsui, Kowloon (non-residential), Yau Tsim Mong","22.30308,114.17516"
Yau Tsim Mong,"152 Austin Road, Tsim Sha Tsui, Kowloon (non-residential)",16/03/2020,285,"152 Austin Road, Tsim Sha Tsui, Kowloon (non-residential), Yau Tsim Mong","22.30308,114.17516"
Yau Tsim Mong,"152 Austin Road, Tsim Sha Tsui, Kowloon (non-residential)",16/03/2020,286,"152 Austin Road, Tsim Sha Tsui, Kowloon (non-residential), Yau Tsim Mong","22.30308,114.17516"
Central & Western,Nan Dao Commercial Building (non-residential),16/03/2020,177,"Nan Dao Commercial Building (non-residential), Central & Western","22.28626,114.1494"
Central & Western,Nan Dao Commercial Building (non-residential),16/03/2020,178,"Nan Dao Commercial Building (non-residential), Central & Western","22.28626,114.1494"
Central & Western,Silver Jubilee Mansion (non-residential),16/03/2020,177,"Silver Jubilee Mansion (non-residential), Central & Western","22.28375,114.14829"
Central & Western,Silver Jubilee Mansion (non-residential),16/03/2020,178,"Silver Jubilee Mansion (non-residential), Central & Western","22.28375,114.14829"
Central & Western,Century Square (non-residential),16/03/2020,184,"Century Square (non-residential), Central & Western","22.28156,114.15596"
Central & Western,Century Square (non-residential),16/03/2020,195,"Century Square (non-residential), Central & Western","22.28156,114.15596"
Central & Western,California Tower (non-residential),16/03/2020,195,"California Tower (non-residential), Central & Western","22.28084,114.15547"
Central & Western,California Tower (non-residential),16/03/2020,199,"California Tower (non-residential), Central & Western","22.28084,114.15547"
Central & Western,The Centrium (non-residential),16/03/2020,195,"The Centrium (non-residential), Central & Western","22.28058,114.15466"
Central & Western,Kinwick Centre (non-residential),16/03/2020,195,"Kinwick Centre (non-residential), Central & Western","22.28205,114.15318"
Central & Western,21 Gough Street (non-residential),16/03/2020,195,"21 Gough Street (non-residential), Central & Western","22.2843,114.15253"
Central & Western,Wing Tuck Commercial Centre (non-residential),16/03/2020,208,"Wing Tuck Commercial Centre (non-residential), Central & Western","22.28684,114.14906"
Eastern,AIA HK Tower (non-residential),16/03/2020,250,"AIA HK Tower (non-residential), Eastern","22.29119,114.2079"
Eastern,"Phase II, Healthy Village (non-residential)",16/03/2020,250,"Phase II, Healthy Village (non-residential), Eastern","22.29112,114.20631"
Central & Western,Wah Ming Centre (non-residential),16/03/2020,251,"Wah Ming Centre (non-residential), Central & Western","22.28668,114.13696"
Tuen Mun,Hong Kong Gold Coast Hotel (non-residential),16/03/2020,253,"Hong Kong Gold Coast Hotel (non-residential), Tuen Mun","22.3718,113.9894"
Central & Western,Hang Fai Building (non-residential),16/03/2020,261,"Hang Fai Building (non-residential), Central & Western","22.28293,114.1293"
Kwun Tong,Draco Industrial Building (non-residential),16/03/2020,262,"Draco Industrial Building (non-residential), Kwun Tong","22.31418,114.21794"
Tsuen Wan,Wing Fung Industrial Building (non-residential),16/03/2020,263,"Wing Fung Industrial Building (non-residential), Tsuen Wan","22.37345,114.10898"
Wan Chai,82 Jaffe Road (non-residential),16/03/2020,276,"82 Jaffe Road (non-residential), Wan Chai","22.27854,114.17096"
Wan Chai,82 Jaffe Road (non-residential),16/03/2020,363,"82 Jaffe Road (non-residential), Wan Chai","22.27854,114.17096"
Wan Chai,82 Jaffe Road (non-residential),16/03/2020,367,"82 Jaffe Road (non-residential), Wan Chai","22.27854,114.17096"
Wan Chai,82 Jaffe Road (non-residential),16/03/2020,386,"82 Jaffe Road (non-residential), Wan Chai","22.27854,114.17096"
Eastern,Hing Tung Shopping Centre (non-residential),16/03/2020,304,"Hing Tung Shopping Centre (non-residential), Eastern","22.36493,114.13832"
Central & Western,The Centrium (non-residential),16/03/2020,318,"The Centrium (non-residential), Central & Western","22.28058,114.15466"
Yau Tsim Mong,Sun Ming Building (non-residential),16/03/2020,337,"Sun Ming Building (non-residential), Yau Tsim Mong","22.24435,114.15739"
Tuen Mun,"Shopping Centre, Melody Garden (non-residential)",17/03/2020,120,"Shopping Centre, Melody Garden (non-residential), Tuen Mun","22.37414,113.961"
Tuen Mun,"Shopping Centre, Melody Garden (non-residential)",17/03/2020,121,"Shopping Centre, Melody Garden (non-residential), Tuen Mun","22.37414,113.961"
Tuen Mun,"Shopping Centre, Melody Garden (non-residential)",17/03/2020,244,"Shopping Centre, Melody Garden (non-residential), Tuen Mun","22.37414,113.961"
Sha Tin,Hilton Plaza (non-residential),17/03/2020,172,"Hilton Plaza (non-residential), Sha Tin","22.38008,114.18652"
Sha Tin,CCT Telecom Building (non-residential),17/03/2020,191,"CCT Telecom Building (non-residential), Sha Tin","22.39729,114.19755"
Sha Tin,CCT Telecom Building (non-residential),17/03/2020,217,"CCT Telecom Building (non-residential), Sha Tin","22.39729,114.19755"
Kowloon City,Hong Kong Baptist Hospital (non-residential),17/03/2020,195,"Hong Kong Baptist Hospital (non-residential), Kowloon City","22.33709,114.18225"
Kowloon City,Hong Kong Baptist Hospital (non-residential),17/03/2020,243,"Hong Kong Baptist Hospital (non-residential), Kowloon City","22.33709,114.18225"
Kwun Tong,Lam Tin South Sports Centre (non-residential),17/03/2020,200,"Lam Tin South Sports Centre (non-residential), Kwun Tong","22.30384,114.23882"
Sai Kung,Park Central Shopping Centre (non-residential),17/03/2020,205,"Park Central Shopping Centre (non-residential), Sai Kung","22.36493,114.13832"
Central & Western,Princes Building (non-residential),17/03/2020,206,"Princes Building (non-residential), Central & Western","22.32456,114.17025"
Central & Western,33 Des Voeux Rd West (non-residential),17/03/2020,208,"33 Des Voeux Rd West (non-residential), Central & Western","22.28744,114.14729"
Kwai Tsing,"Block 1, Kwai Tak Industrial Centre (non-residential)",17/03/2020,229,"Block 1, Kwai Tak Industrial Centre (non-residential), Kwai Tsing","22.35317,114.123"
Kwai Tsing,"Block 1, Kwai Tak Industrial Centre (non-residential)",17/03/2020,337,"Block 1, Kwai Tak Industrial Centre (non-residential), Kwai Tsing","22.35317,114.123"
Kwai Tsing,"Block 1, Kwai Tak Industrial Centre (non-residential)",17/03/2020,338,"Block 1, Kwai Tak Industrial Centre (non-residential), Kwai Tsing","22.35317,114.123"
Tsuen Wan,Carson Mansion (non-residential),17/03/2020,229,"Carson Mansion (non-residential), Tsuen Wan","22.37275,114.1161"
Kwun Tong,C-BONS International Tower (non-residential),17/03/2020,233,"C-BONS International Tower (non-residential), Kwun Tong","22.31339,114.21704"
Wan Chai,The Urban Edition (non-residential),17/03/2020,236,"The Urban Edition (non-residential), Wan Chai","22.29693,114.29337"
Eastern,Sai Wan Ho Market (non-residential),17/03/2020,237,"Sai Wan Ho Market (non-residential), Eastern","22.27964,114.22502"
Wan Chai,Vocational Training Council (non-residential),17/03/2020,237,"Vocational Training Council (non-residential), Wan Chai","22.25954,114.13568"
Tsuen Wan,8 Chung On Street (non-residential),17/03/2020,253,"8 Chung On Street (non-residential), Tsuen Wan","22.37189,114.1183"
Central & Western,Ho Lee Commercial Building (non-residential),17/03/2020,276,"Ho Lee Commercial Building (non-residential), Central & Western","22.28073,114.15533"
Central & Western,Ho Lee Commercial Building (non-residential),17/03/2020,343,"Ho Lee Commercial Building (non-residential), Central & Western","22.28073,114.15533"
Central & Western,Ho Lee Commercial Building (non-residential),17/03/2020,360,"Ho Lee Commercial Building (non-residential), Central & Western","22.28073,114.15533"
Central & Western,Ho Lee Commercial Building (non-residential),17/03/2020,362,"Ho Lee Commercial Building (non-residential), Central & Western","22.28073,114.15533"
Central & Western,Ho Lee Commercial Building (non-residential),17/03/2020,367,"Ho Lee Commercial Building (non-residential), Central & Western","22.28073,114.15533"
Central & Western,Ho Lee Commercial Building (non-residential),17/03/2020,384,"Ho Lee Commercial Building (non-residential), Central & Western","22.28073,114.15533"
Central & Western,Ho Lee Commercial Building (non-residential),17/03/2020,386,"Ho Lee Commercial Building (non-residential), Central & Western","22.28073,114.15533"
Wan Chai,76-84 Jaffe Road (non-residential),17/03/2020,276,"76-84 Jaffe Road (non-residential), Wan Chai","22.27854,114.17095"
Wan Chai,76-84 Jaffe Road (non-residential),17/03/2020,343,"76-84 Jaffe Road (non-residential), Wan Chai","22.27854,114.17095"
Wan Chai,76-84 Jaffe Road (non-residential),17/03/2020,362,"76-84 Jaffe Road (non-residential), Wan Chai","22.27854,114.17095"
Wan Chai,76-84 Jaffe Road (non-residential),17/03/2020,367,"76-84 Jaffe Road (non-residential), Wan Chai","22.27854,114.17095"
Wan Chai,76-84 Jaffe Road (non-residential),17/03/2020,386,"76-84 Jaffe Road (non-residential), Wan Chai","22.27854,114.17095"
Central & Western,Yip Fung Building (non-residential),17/03/2020,312,"Yip Fung Building (non-residential), Central & Western","22.28712,114.13678"
Central & Western,Bank of China building (non-residential),18/03/2020,106,"Bank of China building (non-residential), Central & Western","22.28022,114.16013"
Central & Western,Bank of China building (non-residential),18/03/2020,183,"Bank of China building (non-residential), Central & Western","22.28022,114.16013"
Central & Western,Bank of China building (non-residential),18/03/2020,204,"Bank of China building (non-residential), Central & Western","22.28022,114.16013"
Sha Tin,CCT Telecom Building (non-residential),18/03/2020,191,"CCT Telecom Building (non-residential), Sha Tin","22.39729,114.19755"
Sha Tin,CCT Telecom Building (non-residential),18/03/2020,217,"CCT Telecom Building (non-residential), Sha Tin","22.39729,114.19755"
Sha Tin,CCT Telecom Building (non-residential),18/03/2020,373,"CCT Telecom Building (non-residential), Sha Tin","22.39729,114.19755"
Tuen Mun,V city (non-residential),18/03/2020,193,"V city (non-residential), Tuen Mun","22.39548,113.97396"
Central & Western,"ICBC Tower, Garden Road (non-residential)",18/03/2020,195,"ICBC Tower, Garden Road (non-residential), Central & Western","22.27845,114.16095"
Central & Western,"ICBC Tower, Garden Road (non-residential)",18/03/2020,339,"ICBC Tower, Garden Road (non-residential), Central & Western","22.27845,114.16095"
Yau Tsim Mong,Boundary Street Sports Centre No. 2 (non-residential),18/03/2020,200,"Boundary Street Sports Centre No. 2 (non-residential), Yau Tsim Mong","22.3256,114.17093"
Yuen Long,Yuen Long DivisionPolice Station (non-residential),18/03/2020,201,"Yuen Long DivisionPolice Station (non-residential), Yuen Long","22.44102,114.03253"
Central & Western,Gloucester Tower (non-residential),18/03/2020,206,"Gloucester Tower (non-residential), Central & Western","22.2815,114.15777"
Sha Tin,89 Chik Fu Street (non-residential),18/03/2020,253,"89 Chik Fu Street (non-residential), Sha Tin","22.3744,114.17844"
Kwai Tsing,Hutchison Telecom Tower (non-residential),18/03/2020,259,"Hutchison Telecom Tower (non-residential), Kwai Tsing","22.36011,114.12001"
Central & Western,Nan Fung Place (non-residential),18/03/2020,270,"Nan Fung Place (non-residential), Central & Western","22.28597,114.15439"
Wan Chai,YF Life Tower (non-residential),18/03/2020,277,"YF Life Tower (non-residential), Wan Chai","22.29954,114.16813"
Central & Western,120 Connaught Road West (non-residential),18/03/2020,281,"120 Connaught Road West (non-residential), Central & Western","22.28834,114.14422"
Sham Shui Po,83 Hing Wah Street West (non-residential),18/03/2020,314,"83 Hing Wah Street West (non-residential), Sham Shui Po","22.32897,114.14338"
Sham Shui Po,95 Hing Wah Street West (non-residential),18/03/2020,314,"95 Hing Wah Street West (non-residential), Sham Shui Po","22.32782,114.14216"
Central & Western,18 Gilman's Bazaar (non-residential),18/03/2020,373,"18 Gilman's Bazaar (non-residential), Central & Western","22.28494,114.15416"
Wan Chai,Telecom House (non-residential),18/03/2020,377,"Telecom House (non-residential), Wan Chai","22.27983,114.17104"
Islands,Tung Chung Crescent (non-residential),19/03/2020,212,"Tung Chung Crescent (non-residential), Islands","22.29263,113.94276"
Islands,Tung Chung Crescent (non-residential),19/03/2020,271,"Tung Chung Crescent (non-residential), Islands","22.29263,113.94276"
Eastern,Technology Plaza (non-residential),19/03/2020,229,"Technology Plaza (non-residential), Eastern","22.29199,114.20746"
Yuen Long,Tin Shui Shopping Center (non-residential),19/03/2020,231,"Tin Shui Shopping Center (non-residential), Yuen Long","22.37414,113.961"
Tuen Mun,Tuen Mun Parkland Square (non-residential),19/03/2020,244,"Tuen Mun Parkland Square (non-residential), Tuen Mun","22.4101,113.98143"
Sai Kung,Ming Tak Shopping Centre (non-residential),19/03/2020,256,"Ming Tak Shopping Centre (non-residential), Sai Kung","22.31669,114.26875"
Central & Western,"Phase 1, IFC (non-residential)",19/03/2020,270,"Phase 1, IFC (non-residential), Central & Western","22.28676,114.13446"
Sham Shui Po,67 Broadway (non-residential),19/03/2020,270,"67 Broadway (non-residential), Sham Shui Po","22.33637,114.13947"
Sham Shui Po,Cheung Lung Industrial Building (non-residential),19/03/2020,291,"Cheung Lung Industrial Building (non-residential), Sham Shui Po","22.33641,114.14836"
Sham Shui Po,Cheung Lung Industrial Building (non-residential),19/03/2020,312,"Cheung Lung Industrial Building (non-residential), Sham Shui Po","22.33641,114.14836"
Kowloon City,15 Kent Road (non-residential),19/03/2020,340,"15 Kent Road (non-residential), Kowloon City","22.33748,114.17613"
Kowloon City,360 Prince Edward Road (non-residential),19/03/2020,349,"360 Prince Edward Road (non-residential), Kowloon City","22.32757,114.18734"
Tai Po,21 Nam Shing Street (non-residential),19/03/2020,377,"21 Nam Shing Street (non-residential), Tai Po","22.44815,114.16601"
Kwai Tsing,Shek Yam Shopping Centre (non-residential),20/03/2020,263,"Shek Yam Shopping Centre (non-residential), Kwai Tsing","22.37156,114.13859"
Central & Western,97 Hollywood Road (non-residential),20/03/2020,266,"97 Hollywood Road (non-residential), Central & Western","22.28385,114.15216"
Sha Tin,Union Hospital (non-residential),20/03/2020,317,"Union Hospital (non-residential), Sha Tin","22.36086,114.17516"
Wan Chai,Wu Chung House (non-residential),20/03/2020,325,"Wu Chung House (non-residential), Wan Chai","22.27428,114.1727"
Central & Western,One Exchange Square (non-residential),20/03/2020,339,"One Exchange Square (non-residential), Central & Western","22.28343,114.15837"
Eastern,Parker33 (non-residential),20/03/2020,339,"Parker33 (non-residential), Eastern","22.28152,114.22101"
Eastern,Siu Sai Wan Plaza (non-residential),20/03/2020,340,"Siu Sai Wan Plaza (non-residential), Eastern","22.26268,114.24875"
Tai Po,22 Wai Yan Street (non-residential),20/03/2020,377,"22 Wai Yan Street (non-residential), Tai Po","22.4484,114.1659"
Tai Po,48 Po Heung Street (non-residential),20/03/2020,377,"48 Po Heung Street (non-residential), Tai Po","22.44728,114.16618"
Wong Tai Sin,Kai Tak Garden Shopping Arcade (non-residential),21/03/2020,275,"Kai Tak Garden Shopping Arcade (non-residential), Wong Tai Sin","22.33802,114.19417"
Southern,Le Meridien Cyberport (non-residential),21/03/2020,316,"Le Meridien Cyberport (non-residential), Southern","22.26187,114.12948"
Sha Tin,16 Science Park Avenue (non-residential),21/03/2020,333,"16 Science Park Avenue (non-residential), Sha Tin","22.4281,114.20883"
Tai Po,Uptown Plaza (non-residential),21/03/2020,377,"Uptown Plaza (non-residential), Tai Po","22.44432,114.16894"
Central & Western,Wah Po Building (non-residential),24/03/2020,319,"Wah Po Building (non-residential), Central & Western","22.28394,114.12914"
